{
"type": "FeatureCollection",
"name": "BIRIGUI",
"crs": { "type": "name", "properties": { "name": "urn:ogc:def:crs:OGC:1.3:CRS84" } },
"features": [
{ "type": "Feature", "properties": { "CNPJ14": "17620358000110", "ENDEREÇO COMPLETO": "AVENIDA: DAS ROSAS, Nº 602, BAIRRO: NUCLEO HABITACIONAL IVONE ALVES PALMA, CIDADE: BIRIGUI", "RAZÃO SOCIAL": "BACHIEGA", "NOME FANTASIA": "BACHIEGA", "NOME DO EMPRESÁRIO": "LEANDRO BACHIEGA", "STATUS": "APLICAR T4" }, "geometry": { "type": "Point", "coordinates": [ -50.3190763, -21.2969358 ] } },
{ "type": "Feature", "properties": { "CNPJ14": "66779026000198", "ENDEREÇO COMPLETO": "RUA: GERALDA SILVA SPINOLA, Nº 420, BAIRRO: NUCLEO HABITACIONAL IVONE ALVES PALMA, CIDADE: BIRIGUI", "RAZÃO SOCIAL": "RO FASHION", "NOME FANTASIA": "RO FASHION", "NOME DO EMPRESÁRIO": "ROSANGELA RODRIGUES", "STATUS": "APLICAR T4" }, "geometry": { "type": "Point", "coordinates": [ -50.3190833, -21.2968321 ] } },
{ "type": "Feature", "properties": { "CNPJ14": "17815974000126", "ENDEREÇO COMPLETO": "RUA: GERALDA SILVA SPINOLA, Nº 421, BAIRRO: NUCLEO HABITACIONAL IVONE ALVES PALMA, CIDADE: BIRIGUI", "RAZÃO SOCIAL": "GELEIA GAS E BEBIDAS", "NOME FANTASIA": "GELEIA GAS E BEBIDAS", "NOME DO EMPRESÁRIO": "JOECIDIO DIAS DA SILVA", "STATUS": "APLICAR T4" }, "geometry": { "type": "Point", "coordinates": [ -50.319339, -21.2967549 ] } },
{ "type": "Feature", "properties": { "CNPJ14": "40158995000138", "ENDEREÇO COMPLETO": "RUA: ANTÔNIO CAPUA, Nº 510, BAIRRO: NUCLEO HABITACIONAL IVONE ALVES PALMA, CIDADE: BIRIGUI", "RAZÃO SOCIAL": "GIL BEBIDAS E CONVENIÊNCIA", "NOME FANTASIA": "GIL BEBIDAS E CONVENIÊNCIA", "NOME DO EMPRESÁRIO": "GILLIARD RODRIGUES", "STATUS": "APLICAR T4" }, "geometry": { "type": "Point", "coordinates": [ -50.3195708, -21.2966909 ] } },
{ "type": "Feature", "properties": { "CNPJ14": "31262803000148", "ENDEREÇO COMPLETO": "AVENIDA: DAS ROSAS, Nº 474, BAIRRO: NUCLEO HABITACIONAL IVONE ALVES PALMA, CIDADE: BIRIGUI", "RAZÃO SOCIAL": "MENINA DENGOSA STUDIO BEAUTY", "NOME FANTASIA": "MENINA DENGOSA STUDIO BEAUTY", "NOME DO EMPRESÁRIO": "GABRIELE CRISPIN", "STATUS": "APLICAR T4" }, "geometry": { "type": "Point", "coordinates": [ -50.3198271, -21.2966352 ] } },
{ "type": "Feature", "properties": { "CNPJ14": "21455781000189", "ENDEREÇO COMPLETO": "RUA: ANTÔNIO CAPUA, Nº 511, BAIRRO: NUCLEO HABITACIONAL IVONE ALVES PALMA, CIDADE: BIRIGUI", "RAZÃO SOCIAL": "PROCEL NET", "NOME FANTASIA": "PROCEL NET", "NOME DO EMPRESÁRIO": "SILVA HELENA POSSETTI", "STATUS": "APLICAR T4" }, "geometry": { "type": "Point", "coordinates": [ -50.3198646, -21.2966329 ] } },
{ "type": "Feature", "properties": { "CNPJ14": "12331149000132", "ENDEREÇO COMPLETO": "AVENIDA: DAS ROSAS, Nº 484, BAIRRO: NUCLEO HABITACIONAL IVONE ALVES PALMA, CIDADE: BIRIGUI", "RAZÃO SOCIAL": "MENINA DENGOSA", "NOME FANTASIA": "MENINA DENGOSA", "NOME DO EMPRESÁRIO": "NADINEIA RODRIGUES", "STATUS": "APLICAR T4" }, "geometry": { "type": "Point", "coordinates": [ -50.3199028, -21.296581 ] } },
{ "type": "Feature", "properties": { "CNPJ14": "31493330000190", "ENDEREÇO COMPLETO": "AVENIDA: DAS ROSAS, Nº 422, BAIRRO: NUCLEO HABITACIONAL IVONE ALVES PALMA, CIDADE: BIRIGUI", "RAZÃO SOCIAL": "DOUGLAS OLIVEIRA", "NOME FANTASIA": "DOUGLAS OLIVEIRA", "NOME DO EMPRESÁRIO": "DOUGLAS OLIVEIRA", "STATUS": "APLICAR T4" }, "geometry": { "type": "Point", "coordinates": [ -50.3205075, -21.2965226 ] } },
{ "type": "Feature", "properties": { "CNPJ14": "51257930000166", "ENDEREÇO COMPLETO": "RUA: DAS TULIPAS, Nº 464, BAIRRO: CIDADE JARDIM, CIDADE: BIRIGUI", "RAZÃO SOCIAL": "MASTER PRODUTOS DE LIMPEZA", "NOME FANTASIA": "MASTER PRODUTOS DE LIMPEZA", "NOME DO EMPRESÁRIO": "MARCIANO MEDEIROS", "STATUS": "APLICAR T4" }, "geometry": { "type": "Point", "coordinates": [ -50.321189, -21.2963087 ] } },
{ "type": "Feature", "properties": { "CNPJ14": "40568689000170", "ENDEREÇO COMPLETO": "AVENIDA: DAS ROSAS, Nº 426, BAIRRO: NUCLEO HABITACIONAL IVONE ALVES PALMA, CIDADE: BIRIGUI", "RAZÃO SOCIAL": "STUDIO ANE FERNANDA", "NOME FANTASIA": "STUDIO ANE FERNANDA", "NOME DO EMPRESÁRIO": "ANE FERNANDES", "STATUS": "APLICAR T4" }, "geometry": { "type": "Point", "coordinates": [ -50.3208285, -21.2962985 ] } },
{ "type": "Feature", "properties": { "CNPJ14": "02886788000100", "ENDEREÇO COMPLETO": "AVENIDA: DAS ROSAS, Nº 372, BAIRRO: CIDADE JARDIM, CIDADE: BIRIGUI", "RAZÃO SOCIAL": "CASA DE RAÇÕES PITI", "NOME FANTASIA": "CASA DE RAÇÕES PITI", "NOME DO EMPRESÁRIO": "ADRIANO CESAR PEDERIVA", "STATUS": "APLICAR T4" }, "geometry": { "type": "Point", "coordinates": [ -50.3208687, -21.2962852 ] } },
{ "type": "Feature", "properties": { "CNPJ14": "34829260000196", "ENDEREÇO COMPLETO": "AVENIDA: DAS ROSAS, Nº 362, BAIRRO: NÚCLEO HABITACIONAL THEREZA MARIA BARBIERI, CIDADE: BIRIGUI", "RAZÃO SOCIAL": "QUITANDA FRUTOS DO CAMPO", "NOME FANTASIA": "QUITANDA FRUTOS DO CAMPO", "NOME DO EMPRESÁRIO": "ELIANE GALERA GARCIA", "STATUS": "APLICAR T4" }, "geometry": { "type": "Point", "coordinates": [ -50.3211969, -21.2962116 ] } },
{ "type": "Feature", "properties": { "CNPJ14": "48832731000120", "ENDEREÇO COMPLETO": "AVENIDA: DAS ROSAS, Nº 401, BAIRRO: CIDADE JARDIM, CIDADE: BIRIGUI", "RAZÃO SOCIAL": "CONCEITO QUEBRADA", "NOME FANTASIA": "CONCEITO QUEBRADA", "NOME DO EMPRESÁRIO": "MARIA EDUARDA", "STATUS": "APLICAR T4" }, "geometry": { "type": "Point", "coordinates": [ -50.3204094, -21.2961484 ] } },
{ "type": "Feature", "properties": { "CNPJ14": "60497122000167", "ENDEREÇO COMPLETO": "AVENIDA: DAS ROSAS, Nº 352, BAIRRO: CIDADE JARDIM, CIDADE: BIRIGUI", "RAZÃO SOCIAL": "GIL AGROPET", "NOME FANTASIA": "GIL AGROPET", "NOME DO EMPRESÁRIO": "PAMELA ALVES", "STATUS": "APLICAR T4" }, "geometry": { "type": "Point", "coordinates": [ -50.3214332, -21.2961334 ] } },
{ "type": "Feature", "properties": { "CNPJ14": "03861414000284", "ENDEREÇO COMPLETO": "RUA: DAS TULIPAS, Nº 415, BAIRRO: CIDADE JARDIM, CIDADE: BIRIGUI", "RAZÃO SOCIAL": "CORREIA ELÉTRICA E HIDRÁULICA", "NOME FANTASIA": "CORREIA ELÉTRICA E HIDRÁULICA", "NOME DO EMPRESÁRIO": "FABIANA AFONSO", "STATUS": "APLICAR T4" }, "geometry": { "type": "Point", "coordinates": [ -50.3216139, -21.296087 ] } },
{ "type": "Feature", "properties": { "CNPJ14": "40799927000158", "ENDEREÇO COMPLETO": "AVENIDA: DAS ROSAS, Nº 320, BAIRRO: CIDADE JARDIM, CIDADE: BIRIGUI", "RAZÃO SOCIAL": "BARBEARIA VANDERLEI BRITO", "NOME FANTASIA": "BARBEARIA VANDERLEI BRITO", "NOME DO EMPRESÁRIO": "VANDERLEI BRITO", "STATUS": "APLICAR T4" }, "geometry": { "type": "Point", "coordinates": [ -50.3217643, -21.29606 ] } },
{ "type": "Feature", "properties": { "CNPJ14": "51064823000111", "ENDEREÇO COMPLETO": "AVENIDA: DAS ROSAS, Nº 365, BAIRRO: NUCLEO HABITACIONAL IVONE ALVES PALMA, CIDADE: BIRIGUI", "RAZÃO SOCIAL": "PROCELL", "NOME FANTASIA": "PROCELL", "NOME DO EMPRESÁRIO": "CAROLINA VIOTO", "STATUS": "APLICAR T4" }, "geometry": { "type": "Point", "coordinates": [ -50.3208923, -21.2960161 ] } },
{ "type": "Feature", "properties": { "CNPJ14": "15610818000101", "ENDEREÇO COMPLETO": "AVENIDA: DAS ROSAS, Nº 308, BAIRRO: CIDADE JARDIM, CIDADE: BIRIGUI", "RAZÃO SOCIAL": "EDU MOTOS", "NOME FANTASIA": "EDU MOTOS", "NOME DO EMPRESÁRIO": "EDUARDO GONÇALVES", "STATUS": "APLICAR T4" }, "geometry": { "type": "Point", "coordinates": [ -50.3218716, -21.2959876 ] } },
{ "type": "Feature", "properties": { "CNPJ14": "14504340000164", "ENDEREÇO COMPLETO": "AVENIDA: DAS ROSAS, Nº 282, BAIRRO: CIDADE JARDIM, CIDADE: BIRIGUI", "RAZÃO SOCIAL": "JOGA FRAUDAS", "NOME FANTASIA": "JOGA FRAUDAS", "NOME DO EMPRESÁRIO": "JAIME MANOEL", "STATUS": "APLICAR T4" }, "geometry": { "type": "Point", "coordinates": [ -50.3221317, -21.2959463 ] } },
{ "type": "Feature", "properties": { "CNPJ14": "22457612000140", "ENDEREÇO COMPLETO": "RUA: DAS TULIPAS, Nº 544, BAIRRO: CIDADE JARDIM, CIDADE: BIRIGUI", "RAZÃO SOCIAL": "CERVEJARIA MIL GRAU", "NOME FANTASIA": "CERVEJARIA MIL GRAU", "NOME DO EMPRESÁRIO": "NILTON LOPES", "STATUS": "APLICAR T4" }, "geometry": { "type": "Point", "coordinates": [ -50.3210899, -21.2958431 ] } },
{ "type": "Feature", "properties": { "CNPJ14": "57181660000133", "ENDEREÇO COMPLETO": "AVENIDA: DAS ROSAS, Nº 341, BAIRRO: CIDADE JARDIM, CIDADE: BIRIGUI", "RAZÃO SOCIAL": "ENTRE ELAS", "NOME FANTASIA": "ENTRE ELAS", "NOME DO EMPRESÁRIO": "CAMILA NOGUEIRA", "STATUS": "APLICAR T4" }, "geometry": { "type": "Point", "coordinates": [ -50.3214012, -21.2958007 ] } },
{ "type": "Feature", "properties": { "CNPJ14": "12431727000102", "ENDEREÇO COMPLETO": "AVENIDA: DAS ROSAS, Nº 517, BAIRRO: CIDADE JARDIM, CIDADE: BIRIGUI", "RAZÃO SOCIAL": "GRANJA 5 ESTRELAS", "NOME FANTASIA": "GRANJA 5 ESTRELAS", "NOME DO EMPRESÁRIO": "DENISE BARBOSA", "STATUS": "APLICAR T4" }, "geometry": { "type": "Point", "coordinates": [ -50.3231204, -21.2957919 ] } },
{ "type": "Feature", "properties": { "CNPJ14": "65637483000185", "ENDEREÇO COMPLETO": "AVENIDA: DAS ROSAS, Nº 364, BAIRRO: CIDADE JARDIM, CIDADE: BIRIGUI", "RAZÃO SOCIAL": "LUGUINHO", "NOME FANTASIA": "LUGUINHO", "NOME DO EMPRESÁRIO": "CARLOS D SILVA", "STATUS": "APLICAR T4" }, "geometry": { "type": "Point", "coordinates": [ -50.3214729, -21.2957833 ] } },
{ "type": "Feature", "properties": { "CNPJ14": "20507483000122", "ENDEREÇO COMPLETO": "AVENIDA: DAS ROSAS, Nº 325, BAIRRO: CIDADE JARDIM, CIDADE: BIRIGUI", "RAZÃO SOCIAL": "D M CALÇADOS", "NOME FANTASIA": "D M CALÇADOS", "NOME DO EMPRESÁRIO": "ANAGELICA MOREIRA", "STATUS": "APLICAR T4" }, "geometry": { "type": "Point", "coordinates": [ -50.3215512, -21.2957626 ] } },
{ "type": "Feature", "properties": { "CNPJ14": "22840724000186", "ENDEREÇO COMPLETO": "AVENIDA: DAS ROSAS, Nº 309, BAIRRO: CIDADE JARDIM, CIDADE: BIRIGUI", "RAZÃO SOCIAL": "ENIGMA UTILIDADES", "NOME FANTASIA": "ENIGMA UTILIDADES", "NOME DO EMPRESÁRIO": "LETICIA CRESPI", "STATUS": "APLICAR T4" }, "geometry": { "type": "Point", "coordinates": [ -50.3216574, -21.2957035 ] } },
{ "type": "Feature", "properties": { "CNPJ14": "37306184000122", "ENDEREÇO COMPLETO": "RUA: JOSÉ BUZELLI, Nº 460, BAIRRO: NUCLEO HABITACIONAL IVONE ALVES PALMA, CIDADE: BIRIGUI", "RAZÃO SOCIAL": "NADINHA MODAS", "NOME FANTASIA": "NADINHA MODAS", "NOME DO EMPRESÁRIO": "FERNANDA MARIA RATAO", "STATUS": "APLICAR T4" }, "geometry": { "type": "Point", "coordinates": [ -50.3199198, -21.2956588 ] } },
{ "type": "Feature", "properties": { "CNPJ14": "58753028000180", "ENDEREÇO COMPLETO": "RUA: AUGUSTO MOROSO, Nº 440, BAIRRO: NUCLEO HABITACIONAL IVONE ALVES PALMA, CIDADE: BIRIGUI", "RAZÃO SOCIAL": "ED+", "NOME FANTASIA": "ED+", "NOME DO EMPRESÁRIO": "EDLEUZA DONADONI", "STATUS": "APLICAR T4" }, "geometry": { "type": "Point", "coordinates": [ -50.3203091, -21.2951651 ] } },
{ "type": "Feature", "properties": { "CNPJ14": "61874462000122", "ENDEREÇO COMPLETO": "RUA: BARÃO DO RIO BRANCO, Nº 1005, BAIRRO: CENTRO, CIDADE: BIRIGUI", "RAZÃO SOCIAL": "ARRAZO CALÇADOS", "NOME FANTASIA": "ARRAZO CALÇADOS", "NOME DO EMPRESÁRIO": "ERICA MOREIRA", "STATUS": "APLICAR T4" }, "geometry": { "type": "Point", "coordinates": [ -50.3409679, -21.2950693 ] } },
{ "type": "Feature", "properties": { "CNPJ14": "17435299000100", "ENDEREÇO COMPLETO": "AVENIDA: VITÓRIA RÉGIA, Nº 669, BAIRRO: CIDADE JARDIM, CIDADE: BIRIGUI", "RAZÃO SOCIAL": "PENIEL MAQUINAS", "NOME FANTASIA": "PENIEL MAQUINAS", "NOME DO EMPRESÁRIO": "ALEX TEIXEIRA", "STATUS": "APLICAR T4" }, "geometry": { "type": "Point", "coordinates": [ -50.322547, -21.2949524 ] } },
{ "type": "Feature", "properties": { "CNPJ14": "61315833000136", "ENDEREÇO COMPLETO": "RUA: AMÍLCAR PANTAROTTO, Nº 710, BAIRRO: NÚCLEO HABITACIONAL THEREZA MARIA BARBIERI, CIDADE: BIRIGUI", "RAZÃO SOCIAL": "NODA PET", "NOME FANTASIA": "NODA PET", "NOME DO EMPRESÁRIO": "CAMILA NODA", "STATUS": "APLICAR T4" }, "geometry": { "type": "Point", "coordinates": [ -50.3162604, -21.2936483 ] } },
{ "type": "Feature", "properties": { "CNPJ14": "34301223000100", "ENDEREÇO COMPLETO": "AVENIDA: VITÓRIA RÉGIA, Nº 916, BAIRRO: CIDADE JARDIM, CIDADE: BIRIGUI", "RAZÃO SOCIAL": "AMÉLIA VESTIDOS", "NOME FANTASIA": "AMÉLIA VESTIDOS", "NOME DO EMPRESÁRIO": "GABRIEL FERNANDES", "STATUS": "APLICAR T4" }, "geometry": { "type": "Point", "coordinates": [ -50.321411, -21.2925133 ] } },
{ "type": "Feature", "properties": { "CNPJ14": "06946231000179", "ENDEREÇO COMPLETO": "RUA: SÃO PAULO, Nº 960, BAIRRO: VILA XAVIER, CIDADE: BIRIGUI", "RAZÃO SOCIAL": "ALICE PRESENTES", "NOME FANTASIA": "ALICE PRESENTES", "NOME DO EMPRESÁRIO": "ALICE AMELIA", "STATUS": "APLICAR T4" }, "geometry": { "type": "Point", "coordinates": [ -50.3269846, -21.2921359 ] } },
{ "type": "Feature", "properties": { "CNPJ14": "40323841000154", "ENDEREÇO COMPLETO": "RUA: SÃO PAULO, Nº 924, BAIRRO: JARDIM SÃO PAULO, CIDADE: BIRIGUI", "RAZÃO SOCIAL": "IDEAL MOTOS", "NOME FANTASIA": "IDEAL MOTOS", "NOME DO EMPRESÁRIO": "LUANA CASSIANI", "STATUS": "APLICAR T4" }, "geometry": { "type": "Point", "coordinates": [ -50.3272704, -21.2919916 ] } },
{ "type": "Feature", "properties": { "CNPJ14": "51765209000187", "ENDEREÇO COMPLETO": "RUA: BANDEIRANTES, Nº 65, BAIRRO: JARDIM SUMARÉ, CIDADE: BIRIGUI", "RAZÃO SOCIAL": "GIRASSOL", "NOME FANTASIA": "GIRASSOL", "NOME DO EMPRESÁRIO": "SIDNEIA SOARES", "STATUS": "APLICAR T4" }, "geometry": { "type": "Point", "coordinates": [ -50.3371477, -21.2917896 ] } },
{ "type": "Feature", "properties": { "CNPJ14": "48741743000149", "ENDEREÇO COMPLETO": "RUA: SÃO PAULO, Nº 848, BAIRRO: PARQUE RESIDENCIAL NELSON CALIXTO, CIDADE: BIRIGUI", "RAZÃO SOCIAL": "DICO BICICLETARIA", "NOME FANTASIA": "DICO BICICLETARIA", "NOME DO EMPRESÁRIO": "OSIMAR LIMA", "STATUS": "APLICAR T4" }, "geometry": { "type": "Point", "coordinates": [ -50.32823, -21.2917877 ] } },
{ "type": "Feature", "properties": { "CNPJ14": "68453968000107", "ENDEREÇO COMPLETO": "RUA: SÃO PAULO, Nº 921, BAIRRO: VILA XAVIER, CIDADE: BIRIGUI", "RAZÃO SOCIAL": "KIKO MOTOS", "NOME FANTASIA": "KIKO MOTOS", "NOME DO EMPRESÁRIO": "THAUANI FREITAS", "STATUS": "APLICAR T4" }, "geometry": { "type": "Point", "coordinates": [ -50.3273104, -21.2917755 ] } },
{ "type": "Feature", "properties": { "CNPJ14": "48548963000150", "ENDEREÇO COMPLETO": "RUA: SÃO PAULO, Nº 905, BAIRRO: JARDIM SÃO PAULO, CIDADE: BIRIGUI", "RAZÃO SOCIAL": "VIA MARTINS", "NOME FANTASIA": "VIA MARTINS", "NOME DO EMPRESÁRIO": "JAQUELINE CAPRISTE", "STATUS": "APLICAR T4" }, "geometry": { "type": "Point", "coordinates": [ -50.3274036, -21.2917371 ] } },
{ "type": "Feature", "properties": { "CNPJ14": "21719272000116", "ENDEREÇO COMPLETO": "RUA: BANDEIRANTES, Nº 18, BAIRRO: JARDIM SUMARÉ, CIDADE: BIRIGUI", "RAZÃO SOCIAL": "BAR DO BRAS", "NOME FANTASIA": "BAR DO BRAS", "NOME DO EMPRESÁRIO": "IETE APARECIDA", "STATUS": "APLICAR T4" }, "geometry": { "type": "Point", "coordinates": [ -50.3371861, -21.2916085 ] } },
{ "type": "Feature", "properties": { "CNPJ14": "21526383000106", "ENDEREÇO COMPLETO": "RUA: SIQUEIRA CAMPOS, Nº 87, BAIRRO: CENTRO, CIDADE: BIRIGUI", "RAZÃO SOCIAL": "CASA DO NORTE", "NOME FANTASIA": "CASA DO NORTE", "NOME DO EMPRESÁRIO": "ANAIRTON BELANCIELE", "STATUS": "APLICAR T4" }, "geometry": { "type": "Point", "coordinates": [ -50.3377538, -21.2915071 ] } },
{ "type": "Feature", "properties": { "CNPJ14": "19031985000140", "ENDEREÇO COMPLETO": "RUA: BANDEIRANTES, Nº 6, BAIRRO: CENTRO, CIDADE: BIRIGUI", "RAZÃO SOCIAL": "FACHINI MODAS", "NOME FANTASIA": "FACHINI MODAS", "NOME DO EMPRESÁRIO": "MICHAEL FACHINI", "STATUS": "APLICAR T4" }, "geometry": { "type": "Point", "coordinates": [ -50.33737, -21.2914979 ] } },
{ "type": "Feature", "properties": { "CNPJ14": "08017801000171", "ENDEREÇO COMPLETO": "RUA: BANDEIRANTES, Nº 11, BAIRRO: CENTRO, CIDADE: BIRIGUI", "RAZÃO SOCIAL": "SP C LUMIERI", "NOME FANTASIA": "SP C LUMIERI", "NOME DO EMPRESÁRIO": "MARILDA LIMIERE", "STATUS": "APLICAR T4" }, "geometry": { "type": "Point", "coordinates": [ -50.3370794, -21.2914115 ] } },
{ "type": "Feature", "properties": { "CNPJ14": "65101220000157", "ENDEREÇO COMPLETO": "RUA: JOÃO GALO, Nº 202, BAIRRO: CENTRO, CIDADE: BIRIGUI", "RAZÃO SOCIAL": "TOP BONES", "NOME FANTASIA": "TOP BONES", "NOME DO EMPRESÁRIO": "ANDRESA SILVA", "STATUS": "APLICAR T4" }, "geometry": { "type": "Point", "coordinates": [ -50.3383169, -21.2914067 ] } },
{ "type": "Feature", "properties": { "CNPJ14": "03841323000104", "ENDEREÇO COMPLETO": "RUA: JOÃO GALO, Nº 192, BAIRRO: CENTRO, CIDADE: BIRIGUI", "RAZÃO SOCIAL": "PETTY BONNI SUCOS NATURAIS", "NOME FANTASIA": "PETTY BONNI SUCOS NATURAIS", "NOME DO EMPRESÁRIO": "TATIANE CUSTÓDIO", "STATUS": "APLICAR T4" }, "geometry": { "type": "Point", "coordinates": [ -50.3383206, -21.2913593 ] } },
{ "type": "Feature", "properties": { "CNPJ14": "40790752000118", "ENDEREÇO COMPLETO": "RUA: BANDEIRANTES, Nº 24, BAIRRO: JARDIM SUMARÉ, CIDADE: BIRIGUI", "RAZÃO SOCIAL": "DOMÍNIOS", "NOME FANTASIA": "DOMÍNIOS", "NOME DO EMPRESÁRIO": "SIDNEY PONTES", "STATUS": "APLICAR T4" }, "geometry": { "type": "Point", "coordinates": [ -50.3371865, -21.2913408 ] } },
{ "type": "Feature", "properties": { "CNPJ14": "22953584000152", "ENDEREÇO COMPLETO": "RUA: BANDEIRANTES, Nº 24, BAIRRO: JARDIM SUMARÉ, CIDADE: BIRIGUI", "RAZÃO SOCIAL": "AKI BARATO", "NOME FANTASIA": "AKI BARATO", "NOME DO EMPRESÁRIO": "VANILSON AMARO", "STATUS": "APLICAR T4" }, "geometry": { "type": "Point", "coordinates": [ -50.3371865, -21.2913408 ] } },
{ "type": "Feature", "properties": { "CNPJ14": "63718335000160", "ENDEREÇO COMPLETO": "RUA: BANDEIRANTES, Nº 7, BAIRRO: JARDIM SUMARÉ, CIDADE: BIRIGUI", "RAZÃO SOCIAL": "CINDERELA VILELA", "NOME FANTASIA": "CINDERELA VILELA", "NOME DO EMPRESÁRIO": "DIONE SOUZA", "STATUS": "APLICAR T4" }, "geometry": { "type": "Point", "coordinates": [ -50.3370863, -21.2913124 ] } },
{ "type": "Feature", "properties": { "CNPJ14": "26750669000194", "ENDEREÇO COMPLETO": "RUA: SIQUEIRA CAMPOS, Nº 528, BAIRRO: CENTRO, CIDADE: BIRIGUI", "RAZÃO SOCIAL": "STILO BRASIL", "NOME FANTASIA": "STILO BRASIL", "NOME DO EMPRESÁRIO": "ANTONIO CARLOS", "STATUS": "APLICAR T4" }, "geometry": { "type": "Point", "coordinates": [ -50.3419422, -21.2912853 ] } },
{ "type": "Feature", "properties": { "CNPJ14": "30688632000150", "ENDEREÇO COMPLETO": "RUA: SIQUEIRA CAMPOS, Nº 65, BAIRRO: CENTRO, CIDADE: BIRIGUI", "RAZÃO SOCIAL": "BAR DO GARRINCHA", "NOME FANTASIA": "BAR DO GARRINCHA", "NOME DO EMPRESÁRIO": "ANDREIA BARBARA", "STATUS": "APLICAR T4" }, "geometry": { "type": "Point", "coordinates": [ -50.3373924, -21.2912456 ] } },
{ "type": "Feature", "properties": { "CNPJ14": "12545401000106", "ENDEREÇO COMPLETO": "RUA: SÃO PAULO, Nº 380, BAIRRO: VILA XAVIER, CIDADE: BIRIGUI", "RAZÃO SOCIAL": "RESTAURANTE KI MANIA", "NOME FANTASIA": "RESTAURANTE KI MANIA", "NOME DO EMPRESÁRIO": "MARIANE MARQUES", "STATUS": "APLICAR T4" }, "geometry": { "type": "Point", "coordinates": [ -50.3328382, -21.2911959 ] } },
{ "type": "Feature", "properties": { "CNPJ14": "56306524000160", "ENDEREÇO COMPLETO": "RUA: SIQUEIRA CAMPOS, Nº 102, BAIRRO: CENTRO, CIDADE: BIRIGUI", "RAZÃO SOCIAL": "ELETRÔNICA BRASIL", "NOME FANTASIA": "ELETRÔNICA BRASIL", "NOME DO EMPRESÁRIO": "DAVID DA SILVA", "STATUS": "APLICAR T4" }, "geometry": { "type": "Point", "coordinates": [ -50.3378683, -21.2910402 ] } },
{ "type": "Feature", "properties": { "CNPJ14": "54258118000143", "ENDEREÇO COMPLETO": "RUA: SÃO PAULO, Nº 429, BAIRRO: VILA XAVIER, CIDADE: BIRIGUI", "RAZÃO SOCIAL": "GR ASSISTÊNCIA TÉCNICA", "NOME FANTASIA": "GR ASSISTÊNCIA TÉCNICA", "NOME DO EMPRESÁRIO": "GABRIEL EMILIO", "STATUS": "APLICAR T4" }, "geometry": { "type": "Point", "coordinates": [ -50.3323562, -21.2909952 ] } },
{ "type": "Feature", "properties": { "CNPJ14": "37279956000184", "ENDEREÇO COMPLETO": "RUA: SIQUEIRA CAMPOS, Nº 120, BAIRRO: CENTRO, CIDADE: BIRIGUI", "RAZÃO SOCIAL": "PAMONHARIA FRUTOS DO MILHO", "NOME FANTASIA": "PAMONHARIA FRUTOS DO MILHO", "NOME DO EMPRESÁRIO": "JOANA GONÇALVES", "STATUS": "APLICAR T4" }, "geometry": { "type": "Point", "coordinates": [ -50.3380478, -21.2909932 ] } },
{ "type": "Feature", "properties": { "CNPJ14": "27333629000100", "ENDEREÇO COMPLETO": "RUA: SIQUEIRA CAMPOS, Nº 116, BAIRRO: CENTRO, CIDADE: BIRIGUI", "RAZÃO SOCIAL": "RUTHS PAES", "NOME FANTASIA": "RUTHS PAES", "NOME DO EMPRESÁRIO": "RUTHI CARDOSO", "STATUS": "APLICAR T4" }, "geometry": { "type": "Point", "coordinates": [ -50.3379897, -21.2909901 ] } },
{ "type": "Feature", "properties": { "CNPJ14": "53814204000122", "ENDEREÇO COMPLETO": "RUA: SÃO PAULO, Nº 223, BAIRRO: VILA XAVIER, CIDADE: BIRIGUI", "RAZÃO SOCIAL": "FANTASIA NEW SHOES", "NOME FANTASIA": "FANTASIA NEW SHOES", "NOME DO EMPRESÁRIO": "ADRIANO CORTEZ", "STATUS": "APLICAR T4" }, "geometry": { "type": "Point", "coordinates": [ -50.3344165, -21.2909874 ] } },
{ "type": "Feature", "properties": { "CNPJ14": "28359050000189", "ENDEREÇO COMPLETO": "RUA: SÃO PAULO, Nº 381, BAIRRO: VILA XAVIER, CIDADE: BIRIGUI", "RAZÃO SOCIAL": "ELÉTRICA E HIDRÁULICA BIRIGUI", "NOME FANTASIA": "ELÉTRICA E HIDRÁULICA BIRIGUI", "NOME DO EMPRESÁRIO": "ANTONIO DONIZETI PINTO", "STATUS": "APLICAR T4" }, "geometry": { "type": "Point", "coordinates": [ -50.3328433, -21.2909649 ] } },
{ "type": "Feature", "properties": { "CNPJ14": "96413265000190", "ENDEREÇO COMPLETO": "RUA: SÃO PAULO, Nº 275, BAIRRO: VILA BANDEIRANTES, CIDADE: BIRIGUI", "RAZÃO SOCIAL": "ELETRÔNICA VÍDEO SOM", "NOME FANTASIA": "ELETRÔNICA VÍDEO SOM", "NOME DO EMPRESÁRIO": "RAFAELA LEITE", "STATUS": "APLICAR T4" }, "geometry": { "type": "Point", "coordinates": [ -50.3339317, -21.2909225 ] } },
{ "type": "Feature", "properties": { "CNPJ14": "47303407000151", "ENDEREÇO COMPLETO": "RUA: SÃO PAULO, Nº 187, BAIRRO: VILA XAVIER, CIDADE: BIRIGUI", "RAZÃO SOCIAL": "CP CONVENIÊNCIA", "NOME FANTASIA": "CP CONVENIÊNCIA", "NOME DO EMPRESÁRIO": "FERNANDO OLIVEIRA", "STATUS": "APLICAR T4" }, "geometry": { "type": "Point", "coordinates": [ -50.3347459, -21.2908957 ] } },
{ "type": "Feature", "properties": { "CNPJ14": "11458238000181", "ENDEREÇO COMPLETO": "RUA: SÃO PAULO, Nº 185, BAIRRO: VILA XAVIER, CIDADE: BIRIGUI", "RAZÃO SOCIAL": "NOROESTE COMPONENTES", "NOME FANTASIA": "NOROESTE COMPONENTES", "NOME DO EMPRESÁRIO": "CLEBERSON GONÇALVES", "STATUS": "APLICAR T4" }, "geometry": { "type": "Point", "coordinates": [ -50.334762, -21.290882 ] } },
{ "type": "Feature", "properties": { "CNPJ14": "52528811000163", "ENDEREÇO COMPLETO": "RUA: SÃO PAULO, Nº 319, BAIRRO: VILA XAVIER, CIDADE: BIRIGUI", "RAZÃO SOCIAL": "SONUA COSMÉTICOS", "NOME FANTASIA": "SONUA COSMÉTICOS", "NOME DO EMPRESÁRIO": "SONIA CALDEIRA", "STATUS": "APLICAR T4" }, "geometry": { "type": "Point", "coordinates": [ -50.3333924, -21.2908805 ] } },
{ "type": "Feature", "properties": { "CNPJ14": "05668754000138", "ENDEREÇO COMPLETO": "RUA: BENTO DA CRUZ, Nº 296, BAIRRO: CENTRO, CIDADE: BIRIGUI", "RAZÃO SOCIAL": "BAR ALVORADA", "NOME FANTASIA": "BAR ALVORADA", "NOME DO EMPRESÁRIO": "SERGIO OKAYAMA", "STATUS": "APLICAR T4" }, "geometry": { "type": "Point", "coordinates": [ -50.3398094, -21.290264 ] } },
{ "type": "Feature", "properties": { "CNPJ14": "30693693000106", "ENDEREÇO COMPLETO": "RUA: BENTO DA CRUZ, Nº 274, BAIRRO: CENTRO, CIDADE: BIRIGUI", "RAZÃO SOCIAL": "KI + BARATO", "NOME FANTASIA": "KI + BARATO", "NOME DO EMPRESÁRIO": "ANGELICA VICENTE", "STATUS": "APLICAR T4" }, "geometry": { "type": "Point", "coordinates": [ -50.3395922, -21.2902553 ] } },
{ "type": "Feature", "properties": { "CNPJ14": "11231531000101", "ENDEREÇO COMPLETO": "RUA: BENTO DA CRUZ, Nº 220, BAIRRO: CENTRO, CIDADE: BIRIGUI", "RAZÃO SOCIAL": "GALERIA DA MODA", "NOME FANTASIA": "GALERIA DA MODA", "NOME DO EMPRESÁRIO": "PATRÍCIA LUCAS", "STATUS": "APLICAR T4" }, "geometry": { "type": "Point", "coordinates": [ -50.3390478, -21.2902527 ] } },
{ "type": "Feature", "properties": { "CNPJ14": "48794090000166", "ENDEREÇO COMPLETO": "RUA: BENTO DA CRUZ, Nº 178, BAIRRO: CENTRO, CIDADE: BIRIGUI", "RAZÃO SOCIAL": "PRIMCIA LIVRARIA", "NOME FANTASIA": "PRIMCIA LIVRARIA", "NOME DO EMPRESÁRIO": "DANIEL CARDOZO", "STATUS": "APLICAR T4" }, "geometry": { "type": "Point", "coordinates": [ -50.3386331, -21.2901915 ] } },
{ "type": "Feature", "properties": { "CNPJ14": "13850492000156", "ENDEREÇO COMPLETO": "RUA: JOÃO GALO, Nº 76, BAIRRO: VILA MARIA, CIDADE: BIRIGUI", "RAZÃO SOCIAL": "M.A YONG FASHION", "NOME FANTASIA": "M.A YONG FASHION", "NOME DO EMPRESÁRIO": "ALEXANDRE SOGRO", "STATUS": "APLICAR T4" }, "geometry": { "type": "Point", "coordinates": [ -50.3382987, -21.2901897 ] } },
{ "type": "Feature", "properties": { "CNPJ14": "65608147000104", "ENDEREÇO COMPLETO": "RUA: JOÃO GALO, Nº 64, BAIRRO: VILA MARIA, CIDADE: BIRIGUI", "RAZÃO SOCIAL": "ALEXIA CALÇADOS", "NOME FANTASIA": "ALEXIA CALÇADOS", "NOME DO EMPRESÁRIO": "ALEXIA CASSERO", "STATUS": "APLICAR T4" }, "geometry": { "type": "Point", "coordinates": [ -50.3384468, -21.2901027 ] } },
{ "type": "Feature", "properties": { "CNPJ14": "11892888000130", "ENDEREÇO COMPLETO": "RUA: JOÃO GALO, Nº 54, BAIRRO: VILA MARIA, CIDADE: BIRIGUI", "RAZÃO SOCIAL": "KATIANE MIRELE", "NOME FANTASIA": "KATIANE MIRELE", "NOME DO EMPRESÁRIO": "KATIANE CASSERO", "STATUS": "APLICAR T4" }, "geometry": { "type": "Point", "coordinates": [ -50.3383725, -21.2900595 ] } },
{ "type": "Feature", "properties": { "CNPJ14": "60185803000190", "ENDEREÇO COMPLETO": "AVENIDA: VITÓRIA RÉGIA, Nº 1621, BAIRRO: JARDIM SÃO BRAZ, CIDADE: BIRIGUI", "RAZÃO SOCIAL": "KEROPASSO", "NOME FANTASIA": "KEROPASSO", "NOME DO EMPRESÁRIO": "JOSÉ LUIS PEREIRA", "STATUS": "APLICAR T4" }, "geometry": { "type": "Point", "coordinates": [ -50.3209339, -21.2897593 ] } },
{ "type": "Feature", "properties": { "CNPJ14": "52193264000102", "ENDEREÇO COMPLETO": "RUA: SETE DE DEZEMBRO, Nº 257, BAIRRO: CENTRO, CIDADE: BIRIGUI", "RAZÃO SOCIAL": "APOLO STORE", "NOME FANTASIA": "APOLO STORE", "NOME DO EMPRESÁRIO": "THIAGO FAGUNDES", "STATUS": "APLICAR T4" }, "geometry": { "type": "Point", "coordinates": [ -50.3396281, -21.2896334 ] } },
{ "type": "Feature", "properties": { "CNPJ14": "10571731000140", "ENDEREÇO COMPLETO": "RUA: SETE DE DEZEMBRO, Nº 191, BAIRRO: CENTRO, CIDADE: BIRIGUI", "RAZÃO SOCIAL": "3D GAMES", "NOME FANTASIA": "3D GAMES", "NOME DO EMPRESÁRIO": "CARLA RODRIGUES", "STATUS": "APLICAR T4" }, "geometry": { "type": "Point", "coordinates": [ -50.3389259, -21.2895866 ] } },
{ "type": "Feature", "properties": { "CNPJ14": "02760943000148", "ENDEREÇO COMPLETO": "RUA: SETE DE DEZEMBRO, Nº 219, BAIRRO: CENTRO, CIDADE: BIRIGUI", "RAZÃO SOCIAL": "LARA MÓVEIS", "NOME FANTASIA": "LARA MÓVEIS", "NOME DO EMPRESÁRIO": "MAURO COQUEIRO", "STATUS": "APLICAR T4" }, "geometry": { "type": "Point", "coordinates": [ -50.3391867, -21.2895493 ] } },
{ "type": "Feature", "properties": { "CNPJ14": "52917077000124", "ENDEREÇO COMPLETO": "AVENIDA: GOVERNADOR PEDRO DE TOLEDO, Nº 403, BAIRRO: CENTRO, CIDADE: BIRIGUI", "RAZÃO SOCIAL": "SAB MÓVEIS", "NOME FANTASIA": "SAB MÓVEIS", "NOME DO EMPRESÁRIO": "CLAUDEMIR FERNANDO", "STATUS": "APLICAR T4" }, "geometry": { "type": "Point", "coordinates": [ -50.338753, -21.2888309 ] } },
{ "type": "Feature", "properties": { "CNPJ14": "53283814000147", "ENDEREÇO COMPLETO": "AVENIDA: VITÓRIA RÉGIA, Nº 1731, BAIRRO: JARDIM SÃO BRAZ, CIDADE: BIRIGUI", "RAZÃO SOCIAL": "DEPÓSITO OLIVEIRA", "NOME FANTASIA": "DEPÓSITO OLIVEIRA", "NOME DO EMPRESÁRIO": "LAURA OLIVEIRA", "STATUS": "APLICAR T4" }, "geometry": { "type": "Point", "coordinates": [ -50.3206925, -21.288829 ] } },
{ "type": "Feature", "properties": { "CNPJ14": "23973624000190", "ENDEREÇO COMPLETO": "RUA: TIRADENTES, Nº 1918, BAIRRO: JARDIM SÃO BRAZ, CIDADE: BIRIGUI", "RAZÃO SOCIAL": "MORGADO RAÇÕES", "NOME FANTASIA": "MORGADO RAÇÕES", "NOME DO EMPRESÁRIO": "SOLANGE MORGADO", "STATUS": "APLICAR T4" }, "geometry": { "type": "Point", "coordinates": [ -50.3202579, -21.2888079 ] } },
{ "type": "Feature", "properties": { "CNPJ14": "34888203000188", "ENDEREÇO COMPLETO": "TRAVESSA: DOM PEDRO II, Nº 207, BAIRRO: CENTRO, CIDADE: BIRIGUI", "RAZÃO SOCIAL": "EMPÓRIO BIJU", "NOME FANTASIA": "EMPÓRIO BIJU", "NOME DO EMPRESÁRIO": "PATRÍCIA BRITO", "STATUS": "APLICAR T4" }, "geometry": { "type": "Point", "coordinates": [ -50.3436072, -21.2884202 ] } },
{ "type": "Feature", "properties": { "CNPJ14": "54234388000114", "ENDEREÇO COMPLETO": "RUA: BAHIA, Nº 570, BAIRRO: RESIDENCIAL MONTE LÍBANO, CIDADE: BIRIGUI", "RAZÃO SOCIAL": "TAPEÇARIA BAHIA", "NOME FANTASIA": "TAPEÇARIA BAHIA", "NOME DO EMPRESÁRIO": "ERIKA DA SILVA", "STATUS": "APLICAR T4" }, "geometry": { "type": "Point", "coordinates": [ -50.316427, -21.288238 ] } },
{ "type": "Feature", "properties": { "CNPJ14": "45898469000128", "ENDEREÇO COMPLETO": "RUA: SAUDADES, Nº 168, BAIRRO: CENTRO, CIDADE: BIRIGUI", "RAZÃO SOCIAL": "MARCOS EVARISTO MOTO", "NOME FANTASIA": "MARCOS EVARISTO MOTO", "NOME DO EMPRESÁRIO": "MARCOS EVARISTO", "STATUS": "APLICAR T4" }, "geometry": { "type": "Point", "coordinates": [ -50.3431889, -21.2881395 ] } },
{ "type": "Feature", "properties": { "CNPJ14": "50833867000104", "ENDEREÇO COMPLETO": "RUA: SAUDADES, Nº 162, BAIRRO: CENTRO, CIDADE: BIRIGUI", "RAZÃO SOCIAL": "CENTRAL MOTO PEÇA", "NOME FANTASIA": "CENTRAL MOTO PEÇA", "NOME DO EMPRESÁRIO": "WILLIAN RODRIGUES", "STATUS": "APLICAR T4" }, "geometry": { "type": "Point", "coordinates": [ -50.3431933, -21.2880529 ] } },
{ "type": "Feature", "properties": { "CNPJ14": "27514268000106", "ENDEREÇO COMPLETO": "TRAVESSA: DOM PEDRO II, Nº 40, BAIRRO: CENTRO, CIDADE: BIRIGUI", "RAZÃO SOCIAL": "LUMAGEM", "NOME FANTASIA": "LUMAGEM", "NOME DO EMPRESÁRIO": "JENNIFER PRATA", "STATUS": "APLICAR T4" }, "geometry": { "type": "Point", "coordinates": [ -50.3421663, -21.2880491 ] } },
{ "type": "Feature", "properties": { "CNPJ14": "55388278000170", "ENDEREÇO COMPLETO": "AVENIDA: VITÓRIA RÉGIA, Nº 1835, BAIRRO: CIDADE JARDIM, CIDADE: BIRIGUI", "RAZÃO SOCIAL": "DOCE MALÍCIA", "NOME FANTASIA": "DOCE MALÍCIA", "NOME DO EMPRESÁRIO": "FERNANDA GONÇALVES", "STATUS": "APLICAR T4" }, "geometry": { "type": "Point", "coordinates": [ -50.3203665, -21.2878352 ] } },
{ "type": "Feature", "properties": { "CNPJ14": "52297991000110", "ENDEREÇO COMPLETO": "RUA: RUI BARBOSA, Nº 176, BAIRRO: CENTRO, CIDADE: BIRIGUI", "RAZÃO SOCIAL": "SO COLCHÕES", "NOME FANTASIA": "SO COLCHÕES", "NOME DO EMPRESÁRIO": "EDILZA REIS", "STATUS": "APLICAR T4" }, "geometry": { "type": "Point", "coordinates": [ -50.3415319, -21.2875991 ] } },
{ "type": "Feature", "properties": { "CNPJ14": "03944200000190", "ENDEREÇO COMPLETO": "RUA: ROBERTO CLARK, Nº 310, BAIRRO: CENTRO, CIDADE: BIRIGUI", "RAZÃO SOCIAL": "MIX PAPELARIA", "NOME FANTASIA": "MIX PAPELARIA", "NOME DO EMPRESÁRIO": "LINCON PIRES", "STATUS": "APLICAR T4" }, "geometry": { "type": "Point", "coordinates": [ -50.3392934, -21.2875196 ] } },
{ "type": "Feature", "properties": { "CNPJ14": "33417604000197", "ENDEREÇO COMPLETO": "RUA: CAPITÃO JOSÉ CORDEIRO, Nº 36, BAIRRO: CENTRO, CIDADE: BIRIGUI", "RAZÃO SOCIAL": "BIEL PRO DETAIL", "NOME FANTASIA": "BIEL PRO DETAIL", "NOME DO EMPRESÁRIO": "GABRIEL DE MELO", "STATUS": "APLICAR T4" }, "geometry": { "type": "Point", "coordinates": [ -50.3373883, -21.2870208 ] } },
{ "type": "Feature", "properties": { "CNPJ14": "48751546000100", "ENDEREÇO COMPLETO": "RUA: BAHIA, Nº 444, BAIRRO: JARDIM SÃO GENARO, CIDADE: BIRIGUI", "RAZÃO SOCIAL": "TOCA DOS GASTOS", "NOME FANTASIA": "TOCA DOS GASTOS", "NOME DO EMPRESÁRIO": "MHARIA EDUARDA RIBEIRO", "STATUS": "APLICAR T4" }, "geometry": { "type": "Point", "coordinates": [ -50.3213608, -21.2868459 ] } },
{ "type": "Feature", "properties": { "CNPJ14": "59193270000109", "ENDEREÇO COMPLETO": "AVENIDA: VITÓRIA RÉGIA, Nº 1999, BAIRRO: JARDIM SÃO BRAZ, CIDADE: BIRIGUI", "RAZÃO SOCIAL": "CONTEL TERCEIRIZAÇÃO", "NOME FANTASIA": "CONTEL TERCEIRIZAÇÃO", "NOME DO EMPRESÁRIO": "ADRIANO CONTEL", "STATUS": "APLICAR T4" }, "geometry": { "type": "Point", "coordinates": [ -50.3198646, -21.2862414 ] } },
{ "type": "Feature", "properties": { "CNPJ14": "29925477000160", "ENDEREÇO COMPLETO": "RUA: BAHIA, Nº 1140, BAIRRO: JARDIM SÃO BRAZ, CIDADE: BIRIGUI", "RAZÃO SOCIAL": "BIANCHI COLCHOARIA", "NOME FANTASIA": "BIANCHI COLCHOARIA", "NOME DO EMPRESÁRIO": "ELDER RENATO BIANCHI", "STATUS": "APLICAR T4" }, "geometry": { "type": "Point", "coordinates": [ -50.3223893, -21.2862108 ] } },
{ "type": "Feature", "properties": { "CNPJ14": "29099910000155", "ENDEREÇO COMPLETO": "RUA: SILVARES, Nº 62, BAIRRO: CENTRO, CIDADE: BIRIGUI", "RAZÃO SOCIAL": "ZERO GRAU", "NOME FANTASIA": "ZERO GRAU", "NOME DO EMPRESÁRIO": "EDMILSON CHAVES", "STATUS": "APLICAR T4" }, "geometry": { "type": "Point", "coordinates": [ -50.337946, -21.2860879 ] } },
{ "type": "Feature", "properties": { "CNPJ14": "43768055000159", "ENDEREÇO COMPLETO": "AVENIDA: VITÓRIA RÉGIA, Nº 2029, BAIRRO: CIDADE JARDIM, CIDADE: BIRIGUI", "RAZÃO SOCIAL": "AÇOUGUE SANTA MARIA", "NOME FANTASIA": "AÇOUGUE SANTA MARIA", "NOME DO EMPRESÁRIO": "MARIA LUCIA", "STATUS": "APLICAR T4" }, "geometry": { "type": "Point", "coordinates": [ -50.3197561, -21.2859997 ] } },
{ "type": "Feature", "properties": { "CNPJ14": "15507628000155", "ENDEREÇO COMPLETO": "RUA: TIRADENTES, Nº 853, BAIRRO: VILA MOIMAZ, CIDADE: BIRIGUI", "RAZÃO SOCIAL": "BRASIL CAR", "NOME FANTASIA": "BRASIL CAR", "NOME DO EMPRESÁRIO": "DIEGO FREITAS", "STATUS": "APLICAR T4" }, "geometry": { "type": "Point", "coordinates": [ -50.3310844, -21.2858688 ] } },
{ "type": "Feature", "properties": { "CNPJ14": "53834535000124", "ENDEREÇO COMPLETO": "RUA: BAHIA, Nº 1061, BAIRRO: JARDIM SÃO GENARO, CIDADE: BIRIGUI", "RAZÃO SOCIAL": "ULTRA EMBALAGENS", "NOME FANTASIA": "ULTRA EMBALAGENS", "NOME DO EMPRESÁRIO": "GONÇALO MENEZES", "STATUS": "APLICAR T4" }, "geometry": { "type": "Point", "coordinates": [ -50.3233032, -21.2856623 ] } },
{ "type": "Feature", "properties": { "CNPJ14": "54025340000104", "ENDEREÇO COMPLETO": "RUA: BAHIA, Nº 941, BAIRRO: VILA MOIMAZ, CIDADE: BIRIGUI", "RAZÃO SOCIAL": "BA PEÇAS", "NOME FANTASIA": "BA PEÇAS", "NOME DO EMPRESÁRIO": "BRUNA SANTANA", "STATUS": "APLICAR T4" }, "geometry": { "type": "Point", "coordinates": [ -50.3235345, -21.2855469 ] } },
{ "type": "Feature", "properties": { "CNPJ14": "63434894000148", "ENDEREÇO COMPLETO": "AVENIDA: VITÓRIA RÉGIA, Nº 2100, BAIRRO: JARDIM SÃO BRAZ, CIDADE: BIRIGUI", "RAZÃO SOCIAL": "FARMA VIDA MAIS", "NOME FANTASIA": "FARMA VIDA MAIS", "NOME DO EMPRESÁRIO": "RAFAEL GOMES", "STATUS": "APLICAR T4" }, "geometry": { "type": "Point", "coordinates": [ -50.3190586, -21.2851268 ] } },
{ "type": "Feature", "properties": { "CNPJ14": "19269931000118", "ENDEREÇO COMPLETO": "RUA: BAHIA, Nº 694, BAIRRO: RESIDENCIAL MONTE LÍBANO, CIDADE: BIRIGUI", "RAZÃO SOCIAL": "GUSTAVO MOTOS E AUTOMÓVEIS", "NOME FANTASIA": "GUSTAVO MOTOS E AUTOMÓVEIS", "NOME DO EMPRESÁRIO": "GUSTAVO HENRIQUE", "STATUS": "APLICAR T4" }, "geometry": { "type": "Point", "coordinates": [ -50.3263647, -21.2850934 ] } },
{ "type": "Feature", "properties": { "CNPJ14": "57154207000138", "ENDEREÇO COMPLETO": "RUA: TIRADENTES, Nº 844, BAIRRO: JARDIM SÃO BRAZ, CIDADE: BIRIGUI", "RAZÃO SOCIAL": "GÊNESIS VEÍCULOS", "NOME FANTASIA": "GÊNESIS VEÍCULOS", "NOME DO EMPRESÁRIO": "TIAGO ANTONIO", "STATUS": "APLICAR T4" }, "geometry": { "type": "Point", "coordinates": [ -50.3325336, -21.2850174 ] } },
{ "type": "Feature", "properties": { "CNPJ14": "19519534000157", "ENDEREÇO COMPLETO": "RUA: BAHIA, Nº 674, BAIRRO: RESIDENCIAL MONTE LÍBANO, CIDADE: BIRIGUI", "RAZÃO SOCIAL": "TOM PETENA", "NOME FANTASIA": "TOM PETENA", "NOME DO EMPRESÁRIO": "EVERTON PETENA", "STATUS": "APLICAR T4" }, "geometry": { "type": "Point", "coordinates": [ -50.3265518, -21.2849545 ] } },
{ "type": "Feature", "properties": { "CNPJ14": "40973093000155", "ENDEREÇO COMPLETO": "RUA: BAHIA, Nº 634, BAIRRO: JARDIM SÃO GENARO, CIDADE: BIRIGUI", "RAZÃO SOCIAL": "PERFECT", "NOME FANTASIA": "PERFECT", "NOME DO EMPRESÁRIO": "RICARDO FERNANDES", "STATUS": "APLICAR T4" }, "geometry": { "type": "Point", "coordinates": [ -50.3268416, -21.2848666 ] } },
{ "type": "Feature", "properties": { "CNPJ14": "61685052000133", "ENDEREÇO COMPLETO": "RUA: DOUTOR ARTHUR CORDEIRO, Nº 869, BAIRRO: PATRIMÔNIO SILVARES, CIDADE: BIRIGUI", "RAZÃO SOCIAL": "LEVÍTICO", "NOME FANTASIA": "LEVÍTICO", "NOME DO EMPRESÁRIO": "ISABELLY AIME", "STATUS": "APLICAR T4" }, "geometry": { "type": "Point", "coordinates": [ -50.3329201, -21.284859 ] } },
{ "type": "Feature", "properties": { "CNPJ14": "47642916000109", "ENDEREÇO COMPLETO": "RUA: BAHIA, Nº 629, BAIRRO: VILA MOIMAZ, CIDADE: BIRIGUI", "RAZÃO SOCIAL": "BIRI PET", "NOME FANTASIA": "BIRI PET", "NOME DO EMPRESÁRIO": "STEFANY OLIVEIRA", "STATUS": "APLICAR T4" }, "geometry": { "type": "Point", "coordinates": [ -50.3270297, -21.2846205 ] } },
{ "type": "Feature", "properties": { "CNPJ14": "19186867000101", "ENDEREÇO COMPLETO": "RUA: DOUTOR ARTHUR CORDEIRO, Nº 930, BAIRRO: PATRIMÔNIO SILVARES, CIDADE: BIRIGUI", "RAZÃO SOCIAL": "BY BELA PRESENTES", "NOME FANTASIA": "BY BELA PRESENTES", "NOME DO EMPRESÁRIO": "WESLEY TENÓRIO", "STATUS": "APLICAR T4" }, "geometry": { "type": "Point", "coordinates": [ -50.3324724, -21.2845828 ] } },
{ "type": "Feature", "properties": { "CNPJ14": "04464295000108", "ENDEREÇO COMPLETO": "RUA: OCTACÍLIO CAMARGO FÁVERO, Nº 1292, BAIRRO: RESIDENCIAL MONTE LÍBANO, CIDADE: BIRIGUI", "RAZÃO SOCIAL": "DONA CIDA", "NOME FANTASIA": "DONA CIDA", "NOME DO EMPRESÁRIO": "APARECIDA MASSON", "STATUS": "APLICAR T4" }, "geometry": { "type": "Point", "coordinates": [ -50.3187155, -21.2844698 ] } },
{ "type": "Feature", "properties": { "CNPJ14": "17195932000130", "ENDEREÇO COMPLETO": "AVENIDA: VITÓRIA RÉGIA, Nº 2172, BAIRRO: JARDIM SÃO BRAZ, CIDADE: BIRIGUI", "RAZÃO SOCIAL": "BELLA VISTA PET", "NOME FANTASIA": "BELLA VISTA PET", "NOME DO EMPRESÁRIO": "DOUGLAS ROBERTO", "STATUS": "APLICAR T4" }, "geometry": { "type": "Point", "coordinates": [ -50.3188175, -21.284468 ] } },
{ "type": "Feature", "properties": { "CNPJ14": "11561226000188", "ENDEREÇO COMPLETO": "RUA: BAHIA, Nº 419, BAIRRO: JARDIM SÃO GENARO, CIDADE: BIRIGUI", "RAZÃO SOCIAL": "MANDADO LIMPEZA", "NOME FANTASIA": "MANDADO LIMPEZA", "NOME DO EMPRESÁRIO": "ROSEMEIRE JUCIANI", "STATUS": "APLICAR T4" }, "geometry": { "type": "Point", "coordinates": [ -50.3279462, -21.2843994 ] } },
{ "type": "Feature", "properties": { "CNPJ14": "61142680000172", "ENDEREÇO COMPLETO": "RUA: DOUTOR CARLOS CARVALHO ROSA, Nº 570, BAIRRO: PATRIMÔNIO SILVARES, CIDADE: BIRIGUI", "RAZÃO SOCIAL": "REFRIGERAÇÃO GLOBO", "NOME FANTASIA": "REFRIGERAÇÃO GLOBO", "NOME DO EMPRESÁRIO": "BRYAN FELIPE", "STATUS": "APLICAR T4" }, "geometry": { "type": "Point", "coordinates": [ -50.3328605, -21.2843932 ] } },
{ "type": "Feature", "properties": { "CNPJ14": "25140720000183", "ENDEREÇO COMPLETO": "AVENIDA: VITÓRIA RÉGIA, Nº 2201, BAIRRO: JARDIM SÃO BRAZ, CIDADE: BIRIGUI", "RAZÃO SOCIAL": "MANACIAL", "NOME FANTASIA": "MANACIAL", "NOME DO EMPRESÁRIO": "DOUGLAS GABRIEL", "STATUS": "APLICAR T4" }, "geometry": { "type": "Point", "coordinates": [ -50.3192128, -21.2842777 ] } },
{ "type": "Feature", "properties": { "CNPJ14": "12336011000126", "ENDEREÇO COMPLETO": "RUA: DOUTOR ARTHUR CORDEIRO, Nº 958, BAIRRO: PATRIMÔNIO SILVARES, CIDADE: BIRIGUI", "RAZÃO SOCIAL": "BABY FOTO", "NOME FANTASIA": "BABY FOTO", "NOME DO EMPRESÁRIO": "GERSON ALMEIDA", "STATUS": "APLICAR T4" }, "geometry": { "type": "Point", "coordinates": [ -50.3325309, -21.2841451 ] } },
{ "type": "Feature", "properties": { "CNPJ14": "58489333000106", "ENDEREÇO COMPLETO": "RUA: SILVARES, Nº 400, BAIRRO: PATRIMÔNIO SILVARES, CIDADE: BIRIGUI", "RAZÃO SOCIAL": "PANIFICADORA SILVARES", "NOME FANTASIA": "PANIFICADORA SILVARES", "NOME DO EMPRESÁRIO": "CINTIA MONTEFUSCO", "STATUS": "APLICAR T4" }, "geometry": { "type": "Point", "coordinates": [ -50.3355442, -21.2841113 ] } },
{ "type": "Feature", "properties": { "CNPJ14": "61821574000115", "ENDEREÇO COMPLETO": "RUA: SILVARES, Nº 400, BAIRRO: PATRIMÔNIO SILVARES, CIDADE: BIRIGUI", "RAZÃO SOCIAL": "VIDRAÇARIA CRISTAL", "NOME FANTASIA": "VIDRAÇARIA CRISTAL", "NOME DO EMPRESÁRIO": "SUELI STANISCHESCHI", "STATUS": "APLICAR T4" }, "geometry": { "type": "Point", "coordinates": [ -50.3355442, -21.2841113 ] } },
{ "type": "Feature", "properties": { "CNPJ14": "50004618000106", "ENDEREÇO COMPLETO": "RUA: BAHIA, Nº 286, BAIRRO: JARDIM SÃO GENARO, CIDADE: BIRIGUI", "RAZÃO SOCIAL": "SUELI E ANDRÉ", "NOME FANTASIA": "SUELI E ANDRÉ", "NOME DO EMPRESÁRIO": "SUELI BOATO", "STATUS": "APLICAR T4" }, "geometry": { "type": "Point", "coordinates": [ -50.3300436, -21.2839541 ] } },
{ "type": "Feature", "properties": { "CNPJ14": "43997491000108", "ENDEREÇO COMPLETO": "RUA: JOSÉ ROMERA, Nº 1107, BAIRRO: PARQUE RESIDENCIAL AMÉRICA, CIDADE: BIRIGUI", "RAZÃO SOCIAL": "MCAR AUTO MECANICA", "NOME FANTASIA": "MCAR AUTO MECANICA", "NOME DO EMPRESÁRIO": "MATHEUS RAMOS", "STATUS": "APLICAR T4" }, "geometry": { "type": "Point", "coordinates": [ -50.3178312, -21.283858 ] } },
{ "type": "Feature", "properties": { "CNPJ14": "59533206000120", "ENDEREÇO COMPLETO": "RUA: BAHIA, Nº 279, BAIRRO: RESIDENCIAL MONTE LÍBANO, CIDADE: BIRIGUI", "RAZÃO SOCIAL": "ULIAN PRADO CALÇADOS", "NOME FANTASIA": "ULIAN PRADO CALÇADOS", "NOME DO EMPRESÁRIO": "ALESSANDRO DO PRADO", "STATUS": "APLICAR T4" }, "geometry": { "type": "Point", "coordinates": [ -50.3299607, -21.2837022 ] } },
{ "type": "Feature", "properties": { "CNPJ14": "45122459000104", "ENDEREÇO COMPLETO": "RUA: JOSÉ ROMERA, Nº 1077, BAIRRO: RESIDENCIAL MONTE LÍBANO, CIDADE: BIRIGUI", "RAZÃO SOCIAL": "BELLA ARTES", "NOME FANTASIA": "BELLA ARTES", "NOME DO EMPRESÁRIO": "GABRIELA MORALES", "STATUS": "APLICAR T4" }, "geometry": { "type": "Point", "coordinates": [ -50.318084, -21.2836952 ] } },
{ "type": "Feature", "properties": { "CNPJ14": "45751540000145", "ENDEREÇO COMPLETO": "AVENIDA: VITÓRIA RÉGIA, Nº 3030, BAIRRO: RESIDENCIAL MONTE LÍBANO, CIDADE: BIRIGUI", "RAZÃO SOCIAL": "10000 CORES", "NOME FANTASIA": "10000 CORES", "NOME DO EMPRESÁRIO": "MICHEL MOREIRA", "STATUS": "APLICAR T4" }, "geometry": { "type": "Point", "coordinates": [ -50.3185062, -21.2832115 ] } },
{ "type": "Feature", "properties": { "CNPJ14": "55929337000170", "ENDEREÇO COMPLETO": "RUA: ANTÔNIO AGATIELO, Nº 1033, BAIRRO: RESIDENCIAL MONTE LÍBANO, CIDADE: BIRIGUI", "RAZÃO SOCIAL": "JOHNYCAR", "NOME FANTASIA": "JOHNYCAR", "NOME DO EMPRESÁRIO": "JHONY MASSON", "STATUS": "APLICAR T4" }, "geometry": { "type": "Point", "coordinates": [ -50.317899, -21.2830139 ] } },
{ "type": "Feature", "properties": { "CNPJ14": "16539339000109", "ENDEREÇO COMPLETO": "RUA: JOSÉ ROMERA, Nº 937, BAIRRO: PARQUE RESIDENCIAL AMÉRICA, CIDADE: BIRIGUI", "RAZÃO SOCIAL": "SANDINO MOTOS", "NOME FANTASIA": "SANDINO MOTOS", "NOME DO EMPRESÁRIO": "REGINA SEGURA", "STATUS": "APLICAR T4" }, "geometry": { "type": "Point", "coordinates": [ -50.3190534, -21.2828744 ] } },
{ "type": "Feature", "properties": { "CNPJ14": "58404345000190", "ENDEREÇO COMPLETO": "RUA: SILVARES, Nº 628, BAIRRO: PATRIMÔNIO SILVARES, CIDADE: BIRIGUI", "RAZÃO SOCIAL": "KAROL MULTMARCAS", "NOME FANTASIA": "KAROL MULTMARCAS", "NOME DO EMPRESÁRIO": "TATIANE RAIMUNDO", "STATUS": "APLICAR T4" }, "geometry": { "type": "Point", "coordinates": [ -50.3337705, -21.2827252 ] } },
{ "type": "Feature", "properties": { "CNPJ14": "46339259000162", "ENDEREÇO COMPLETO": "RUA: SILVARES, Nº 605, BAIRRO: PATRIMÔNIO SILVARES, CIDADE: BIRIGUI", "RAZÃO SOCIAL": "AMOSHOP", "NOME FANTASIA": "AMOSHOP", "NOME DO EMPRESÁRIO": "ANDERSON OLIVEIRA", "STATUS": "APLICAR T4" }, "geometry": { "type": "Point", "coordinates": [ -50.3343212, -21.2826581 ] } },
{ "type": "Feature", "properties": { "CNPJ14": "27040718000168", "ENDEREÇO COMPLETO": "RUA: SILVARES, Nº 619, BAIRRO: PATRIMÔNIO SILVARES, CIDADE: BIRIGUI", "RAZÃO SOCIAL": "BOATOS MARCAS", "NOME FANTASIA": "BOATOS MARCAS", "NOME DO EMPRESÁRIO": "TAINA COLLI", "STATUS": "APLICAR T4" }, "geometry": { "type": "Point", "coordinates": [ -50.3341063, -21.2826074 ] } },
{ "type": "Feature", "properties": { "CNPJ14": "24423902000107", "ENDEREÇO COMPLETO": "RUA: SILVARES, Nº 619, BAIRRO: PATRIMÔNIO SILVARES, CIDADE: BIRIGUI", "RAZÃO SOCIAL": "CARLINHOS DESPACHANTE", "NOME FANTASIA": "CARLINHOS DESPACHANTE", "NOME DO EMPRESÁRIO": "CARLOS RUBIN", "STATUS": "APLICAR T4" }, "geometry": { "type": "Point", "coordinates": [ -50.3341063, -21.2826074 ] } },
{ "type": "Feature", "properties": { "CNPJ14": "40140418000119", "ENDEREÇO COMPLETO": "RUA: DOUTOR ARTHUR CORDEIRO, Nº 1141, BAIRRO: PATRIMÔNIO SILVARES, CIDADE: BIRIGUI", "RAZÃO SOCIAL": "GARAGE BRAVURA", "NOME FANTASIA": "GARAGE BRAVURA", "NOME DO EMPRESÁRIO": "ANDERSON APARECIDO PINTO", "STATUS": "APLICAR T4" }, "geometry": { "type": "Point", "coordinates": [ -50.3327716, -21.2823807 ] } },
{ "type": "Feature", "properties": { "CNPJ14": "43962541000103", "ENDEREÇO COMPLETO": "RUA: LUIZ OBA, Nº 37, BAIRRO: VILA SILVARES, CIDADE: BIRIGUI", "RAZÃO SOCIAL": "VIDRO BOX", "NOME FANTASIA": "VIDRO BOX", "NOME DO EMPRESÁRIO": "ESTER ALMEIDA", "STATUS": "APLICAR T4" }, "geometry": { "type": "Point", "coordinates": [ -50.3340208, -21.2823634 ] } },
{ "type": "Feature", "properties": { "CNPJ14": "16543370000105", "ENDEREÇO COMPLETO": "RUA: SILVARES, Nº 681, BAIRRO: PATRIMÔNIO SILVARES, CIDADE: BIRIGUI", "RAZÃO SOCIAL": "BAR RIGUDOS", "NOME FANTASIA": "BAR RIGUDOS", "NOME DO EMPRESÁRIO": "RICARDO TIENGO SANTOS", "STATUS": "APLICAR T4" }, "geometry": { "type": "Point", "coordinates": [ -50.333431, -21.2822889 ] } },
{ "type": "Feature", "properties": { "CNPJ14": "47377641000123", "ENDEREÇO COMPLETO": "RUA: MAURÍCIO STÁBILE, Nº 1129, BAIRRO: JARDIM SANT'ANA, CIDADE: BIRIGUI", "RAZÃO SOCIAL": "A L MATERIAIS PARA TAPEÇARIA", "NOME FANTASIA": "A L MATERIAIS PARA TAPEÇARIA", "NOME DO EMPRESÁRIO": "ANDRÉ SANTOS", "STATUS": "APLICAR T4" }, "geometry": { "type": "Point", "coordinates": [ -50.3110304, -21.2822502 ] } },
{ "type": "Feature", "properties": { "CNPJ14": "62057607000165", "ENDEREÇO COMPLETO": "RUA: SILVARES, Nº 779, BAIRRO: PATRIMÔNIO SILVARES, CIDADE: BIRIGUI", "RAZÃO SOCIAL": "COLCHOARIA POPULAR", "NOME FANTASIA": "COLCHOARIA POPULAR", "NOME DO EMPRESÁRIO": "JAQUELINE BIANCHI", "STATUS": "APLICAR T4" }, "geometry": { "type": "Point", "coordinates": [ -50.3329227, -21.2816818 ] } },
{ "type": "Feature", "properties": { "CNPJ14": "65851845000136", "ENDEREÇO COMPLETO": "RUA: SILVARES, Nº 787, BAIRRO: PATRIMÔNIO SILVARES, CIDADE: BIRIGUI", "RAZÃO SOCIAL": "PAÍS E FILHOS", "NOME FANTASIA": "PAÍS E FILHOS", "NOME DO EMPRESÁRIO": "ABIGAIL RODRIGUES", "STATUS": "APLICAR T4" }, "geometry": { "type": "Point", "coordinates": [ -50.3328836, -21.2815493 ] } },
{ "type": "Feature", "properties": { "CNPJ14": "18606692000181", "ENDEREÇO COMPLETO": "RUA: DOUTOR ARTHUR CORDEIRO, Nº 33, BAIRRO: VILA XAVIER, CIDADE: BIRIGUI", "RAZÃO SOCIAL": "REI DAS CHAVES", "NOME FANTASIA": "REI DAS CHAVES", "NOME DO EMPRESÁRIO": "THIAGO MANTOVANI", "STATUS": "APLICAR T4" }, "geometry": { "type": "Point", "coordinates": [ -50.3328356, -21.2813332 ] } },
{ "type": "Feature", "properties": { "CNPJ14": "62382844000100", "ENDEREÇO COMPLETO": "AVENIDA: AFIF JOSÉ ABDO, Nº 201, BAIRRO: RESIDENCIAL PORTAL DA PÉROLA II, CIDADE: BIRIGUI", "RAZÃO SOCIAL": "PÉROLA GÁS E AGUA", "NOME FANTASIA": "PÉROLA GÁS E AGUA", "NOME DO EMPRESÁRIO": "LUIZ ANTONIO BUONO", "STATUS": "APLICAR T4" }, "geometry": { "type": "Point", "coordinates": [ -50.3326577, -21.2810302 ] } },
{ "type": "Feature", "properties": { "CNPJ14": "61222750000100", "ENDEREÇO COMPLETO": "RUA: LEONORA FIOROTTO, Nº 270, BAIRRO: RECANTO VERDE, CIDADE: BIRIGUI", "RAZÃO SOCIAL": "IMPERIO MALTE", "NOME FANTASIA": "IMPERIO MALTE", "NOME DO EMPRESÁRIO": "FELIPE ALMEIDA", "STATUS": "APLICAR T4" }, "geometry": { "type": "Point", "coordinates": [ -50.3326577, -21.2810302 ] } },
{ "type": "Feature", "properties": { "CNPJ14": "60905318000143", "ENDEREÇO COMPLETO": "RUA: LEONORA FIOROTTO, Nº 271, BAIRRO: RECANTO VERDE, CIDADE: BIRIGUI", "RAZÃO SOCIAL": "C&C CONGELADOS", "NOME FANTASIA": "C&C CONGELADOS", "NOME DO EMPRESÁRIO": "CESAR ELIAS", "STATUS": "APLICAR T4" }, "geometry": { "type": "Point", "coordinates": [ -50.3326577, -21.2810302 ] } },
{ "type": "Feature", "properties": { "CNPJ14": "47351880000104", "ENDEREÇO COMPLETO": "RUA: LEONORA FIOROTTO, Nº 207, BAIRRO: RECANTO VERDE, CIDADE: BIRIGUI", "RAZÃO SOCIAL": "SILVA GAS", "NOME FANTASIA": "SILVA GAS", "NOME DO EMPRESÁRIO": "AMANDA CONSONI", "STATUS": "APLICAR T4" }, "geometry": { "type": "Point", "coordinates": [ -50.3326577, -21.2810302 ] } },
{ "type": "Feature", "properties": { "CNPJ14": "44076290000122", "ENDEREÇO COMPLETO": "RUA: LEONORA FIOROTTO, Nº 661, BAIRRO: RECANTO VERDE, CIDADE: BIRIGUI", "RAZÃO SOCIAL": "LORD CARNES", "NOME FANTASIA": "LORD CARNES", "NOME DO EMPRESÁRIO": "JANINA SOUZA", "STATUS": "APLICAR T4" }, "geometry": { "type": "Point", "coordinates": [ -50.3326577, -21.2810302 ] } },
{ "type": "Feature", "properties": { "CNPJ14": "48481715000130", "ENDEREÇO COMPLETO": "RUA: LEONORA FIOROTTO, Nº 669, BAIRRO: RECANTO VERDE, CIDADE: BIRIGUI", "RAZÃO SOCIAL": "BIRI PATAS", "NOME FANTASIA": "BIRI PATAS", "NOME DO EMPRESÁRIO": "RAFAEL VALLE", "STATUS": "APLICAR T4" }, "geometry": { "type": "Point", "coordinates": [ -50.3326577, -21.2810302 ] } },
{ "type": "Feature", "properties": { "CNPJ14": "48555030000190", "ENDEREÇO COMPLETO": "RUA: LEONORA FIOROTTO, Nº 615, BAIRRO: RECANTO VERDE, CIDADE: BIRIGUI", "RAZÃO SOCIAL": "CASA DE RAÇÃO RECANTO VERDE", "NOME FANTASIA": "CASA DE RAÇÃO RECANTO VERDE", "NOME DO EMPRESÁRIO": "VALDEIR RODRIGUES", "STATUS": "APLICAR T4" }, "geometry": { "type": "Point", "coordinates": [ -50.3326577, -21.2810302 ] } },
{ "type": "Feature", "properties": { "CNPJ14": "49688432000126", "ENDEREÇO COMPLETO": "RUA: EUCLIDES DA CUNHA, Nº 91, BAIRRO: PATRIMÔNIO SILVARES, CIDADE: BIRIGUI", "RAZÃO SOCIAL": "SOS CONSERTO DE ROUPA", "NOME FANTASIA": "SOS CONSERTO DE ROUPA", "NOME DO EMPRESÁRIO": "GUISA TEIXEIRA", "STATUS": "APLICAR T4" }, "geometry": { "type": "Point", "coordinates": [ -50.3326267, -21.2808349 ] } },
{ "type": "Feature", "properties": { "CNPJ14": "33964781000274", "ENDEREÇO COMPLETO": "RUA: EUCLIDES DA CUNHA, Nº 120, BAIRRO: VILA SILVARES, CIDADE: BIRIGUI", "RAZÃO SOCIAL": "FARMAIS", "NOME FANTASIA": "FARMAIS", "NOME DO EMPRESÁRIO": "DANIEL MIRANDA", "STATUS": "APLICAR T4" }, "geometry": { "type": "Point", "coordinates": [ -50.3324987, -21.2803112 ] } },
{ "type": "Feature", "properties": { "CNPJ14": "33256821000142", "ENDEREÇO COMPLETO": "RUA: EUCLIDES DA CUNHA, Nº 141, BAIRRO: VILA SILVARES, CIDADE: BIRIGUI", "RAZÃO SOCIAL": "KANABARA AÇAÍ", "NOME FANTASIA": "KANABARA AÇAÍ", "NOME DO EMPRESÁRIO": "JOZÉ KAIKY DA SILVA", "STATUS": "APLICAR T4" }, "geometry": { "type": "Point", "coordinates": [ -50.3327546, -21.2802107 ] } },
{ "type": "Feature", "properties": { "CNPJ14": "53170312000100", "ENDEREÇO COMPLETO": "AVENIDA: ISAURA MACARINI ALBANI, Nº 169, BAIRRO: JARDIM FLAMENGO, CIDADE: BIRIGUI", "RAZÃO SOCIAL": "AGRÍCOLA JJ", "NOME FANTASIA": "AGRÍCOLA JJ", "NOME DO EMPRESÁRIO": "JOAO BRITTO", "STATUS": "APLICAR T4" }, "geometry": { "type": "Point", "coordinates": [ -50.3318828, -21.279867 ] } },
{ "type": "Feature", "properties": { "CNPJ14": "01323524000186", "ENDEREÇO COMPLETO": "RUA: NATAL MASSON, Nº 275, BAIRRO: JARDIM RECANTO DOS PÁSSAROS, CIDADE: BIRIGUI", "RAZÃO SOCIAL": "SABBO STORE", "NOME FANTASIA": "SABBO STORE", "NOME DO EMPRESÁRIO": "NEIDE SABBO", "STATUS": "APLICAR T4" }, "geometry": { "type": "Point", "coordinates": [ -50.3300887, -21.2795941 ] } },
{ "type": "Feature", "properties": { "CNPJ14": "21437437000167", "ENDEREÇO COMPLETO": "RUA: NATAL MASSON, Nº 281, BAIRRO: JARDIM RECANTO DOS PÁSSAROS, CIDADE: BIRIGUI", "RAZÃO SOCIAL": "PADARIA FRANCESA", "NOME FANTASIA": "PADARIA FRANCESA", "NOME DO EMPRESÁRIO": "LILIAN SABBO", "STATUS": "APLICAR T4" }, "geometry": { "type": "Point", "coordinates": [ -50.3300265, -21.2795303 ] } },
{ "type": "Feature", "properties": { "CNPJ14": "53363828000170", "ENDEREÇO COMPLETO": "RUA: NATAL MASSON, Nº 321, BAIRRO: RESIDENCIAL QUINTA DA MATA, CIDADE: BIRIGUI", "RAZÃO SOCIAL": "MECÂNICA B S CAR", "NOME FANTASIA": "MECÂNICA B S CAR", "NOME DO EMPRESÁRIO": "AYDANO SIQUEIRA", "STATUS": "APLICAR T4" }, "geometry": { "type": "Point", "coordinates": [ -50.3297067, -21.2794317 ] } },
{ "type": "Feature", "properties": { "CNPJ14": "65128210000105", "ENDEREÇO COMPLETO": "RUA: NATAL MASSON, Nº 323, BAIRRO: JARDIM RECANTO DOS PÁSSAROS, CIDADE: BIRIGUI", "RAZÃO SOCIAL": "MIGUEL MOTOS", "NOME FANTASIA": "MIGUEL MOTOS", "NOME DO EMPRESÁRIO": "BRUNO REIS", "STATUS": "APLICAR T4" }, "geometry": { "type": "Point", "coordinates": [ -50.3295929, -21.2793879 ] } },
{ "type": "Feature", "properties": { "CNPJ14": "33201198000120", "ENDEREÇO COMPLETO": "RUA: NATAL MASSON, Nº 325, BAIRRO: JARDIM RECANTO DOS PÁSSAROS, CIDADE: BIRIGUI", "RAZÃO SOCIAL": "STUDIO KAROL AMBROSIO", "NOME FANTASIA": "STUDIO KAROL AMBROSIO", "NOME DO EMPRESÁRIO": "KAROLINE AMBROSIO", "STATUS": "APLICAR T4" }, "geometry": { "type": "Point", "coordinates": [ -50.3295728, -21.2793815 ] } },
{ "type": "Feature", "properties": { "CNPJ14": "11480396000138", "ENDEREÇO COMPLETO": "RUA: NATAL MASSON, Nº 378, BAIRRO: RESIDENCIAL MOIMAZ, CIDADE: BIRIGUI", "RAZÃO SOCIAL": "SAFARI AGRO RAÇÕES", "NOME FANTASIA": "SAFARI AGRO RAÇÕES", "NOME DO EMPRESÁRIO": "CARLOS MELO", "STATUS": "APLICAR T4" }, "geometry": { "type": "Point", "coordinates": [ -50.3291745, -21.2793603 ] } },
{ "type": "Feature", "properties": { "CNPJ14": "59930608000168", "ENDEREÇO COMPLETO": "RUA: NATAL MASSON, Nº 451, BAIRRO: RESIDENCIAL MOIMAZ, CIDADE: BIRIGUI", "RAZÃO SOCIAL": "COMERCIAL 4F", "NOME FANTASIA": "COMERCIAL 4F", "NOME DO EMPRESÁRIO": "MARIA TALITA MACHADO", "STATUS": "APLICAR T4" }, "geometry": { "type": "Point", "coordinates": [ -50.3290533, -21.279133 ] } },
{ "type": "Feature", "properties": { "CNPJ14": "49238575000136", "ENDEREÇO COMPLETO": "RUA: NATAL MASSON, Nº 451, BAIRRO: RESIDENCIAL MOIMAZ, CIDADE: BIRIGUI", "RAZÃO SOCIAL": "ATELIÊ NEIDE", "NOME FANTASIA": "ATELIÊ NEIDE", "NOME DO EMPRESÁRIO": "NEIDE GONÇALVES", "STATUS": "APLICAR T4" }, "geometry": { "type": "Point", "coordinates": [ -50.3290533, -21.279133 ] } },
{ "type": "Feature", "properties": { "CNPJ14": "36547181000118", "ENDEREÇO COMPLETO": "RUA: EUCLIDES DA CUNHA, Nº 286, BAIRRO: VILA SILVARES, CIDADE: BIRIGUI", "RAZÃO SOCIAL": "NATURAL DA TERRA", "NOME FANTASIA": "NATURAL DA TERRA", "NOME DO EMPRESÁRIO": "MARIZETE MARTINS", "STATUS": "APLICAR T4" }, "geometry": { "type": "Point", "coordinates": [ -50.3325205, -21.2790766 ] } },
{ "type": "Feature", "properties": { "CNPJ14": "11515620000180", "ENDEREÇO COMPLETO": "RUA: NICOLAU DA SILVA NUNES, Nº 614, BAIRRO: JARDIM POPI, CIDADE: BIRIGUI", "RAZÃO SOCIAL": "FERREIRA AUTO CENTER", "NOME FANTASIA": "FERREIRA AUTO CENTER", "NOME DO EMPRESÁRIO": "JANETE FERREIRA", "STATUS": "APLICAR T4" }, "geometry": { "type": "Point", "coordinates": [ -50.3346977, -21.2790445 ] } },
{ "type": "Feature", "properties": { "CNPJ14": "61622479000192", "ENDEREÇO COMPLETO": "RUA: NATAL MASSON, Nº 476, BAIRRO: JARDIM RECANTO DOS PÁSSAROS, CIDADE: BIRIGUI", "RAZÃO SOCIAL": "VISTORIA ATUAL", "NOME FANTASIA": "VISTORIA ATUAL", "NOME DO EMPRESÁRIO": "MURILO SILVA", "STATUS": "APLICAR T4" }, "geometry": { "type": "Point", "coordinates": [ -50.3282566, -21.2789198 ] } },
{ "type": "Feature", "properties": { "CNPJ14": "29463045000184", "ENDEREÇO COMPLETO": "RUA: NICOLAU DA SILVA NUNES, Nº 583, BAIRRO: JARDIM POPI, CIDADE: BIRIGUI", "RAZÃO SOCIAL": "PEDRO BARBOSA ELÉTRICA E HIDRÁULICA", "NOME FANTASIA": "PEDRO BARBOSA ELÉTRICA E HIDRÁULICA", "NOME DO EMPRESÁRIO": "PEDRO FILHO", "STATUS": "APLICAR T4" }, "geometry": { "type": "Point", "coordinates": [ -50.3350883, -21.278865 ] } },
{ "type": "Feature", "properties": { "CNPJ14": "14221012000150", "ENDEREÇO COMPLETO": "RUA: NATAL MASSON, Nº 488, BAIRRO: JARDIM RECANTO DOS PÁSSAROS, CIDADE: BIRIGUI", "RAZÃO SOCIAL": "JR BORRACHARIA", "NOME FANTASIA": "JR BORRACHARIA", "NOME DO EMPRESÁRIO": "JOSE PALEC", "STATUS": "APLICAR T4" }, "geometry": { "type": "Point", "coordinates": [ -50.3279401, -21.2788177 ] } },
{ "type": "Feature", "properties": { "CNPJ14": "18218710000158", "ENDEREÇO COMPLETO": "RUA: JOAQUIM CICILIATTI, Nº 1392, BAIRRO: PARQUE RESIDENCIAL AMÉRICA, CIDADE: BIRIGUI", "RAZÃO SOCIAL": "PET MUNIZ LOJA 2", "NOME FANTASIA": "PET MUNIZ LOJA 2", "NOME DO EMPRESÁRIO": "MARILDA POSSETTI", "STATUS": "APLICAR T4" }, "geometry": { "type": "Point", "coordinates": [ -50.322587, -21.2787681 ] } },
{ "type": "Feature", "properties": { "CNPJ14": "39405156000198", "ENDEREÇO COMPLETO": "RUA: NATAL MASSON, Nº 497, BAIRRO: JARDIM RECANTO DOS PÁSSAROS, CIDADE: BIRIGUI", "RAZÃO SOCIAL": "TEMPERO BAIANO", "NOME FANTASIA": "TEMPERO BAIANO", "NOME DO EMPRESÁRIO": "RODRIGO MUNIZ", "STATUS": "APLICAR T4" }, "geometry": { "type": "Point", "coordinates": [ -50.3282191, -21.2786177 ] } },
{ "type": "Feature", "properties": { "CNPJ14": "65895914000103", "ENDEREÇO COMPLETO": "AVENIDA: ISAURA MACARINI ALBANI, Nº 345, BAIRRO: JARDIM FLAMENGO, CIDADE: BIRIGUI", "RAZÃO SOCIAL": "NATAMEL", "NOME FANTASIA": "NATAMEL", "NOME DO EMPRESÁRIO": "LEONARDO SANTOS", "STATUS": "APLICAR T4" }, "geometry": { "type": "Point", "coordinates": [ -50.3307462, -21.2783166 ] } },
{ "type": "Feature", "properties": { "CNPJ14": "64535347000111", "ENDEREÇO COMPLETO": "RUA: EUCLIDES DA CUNHA, Nº 388, BAIRRO: JARDIM POPI, CIDADE: BIRIGUI", "RAZÃO SOCIAL": "AGRO BEZERRA", "NOME FANTASIA": "AGRO BEZERRA", "NOME DO EMPRESÁRIO": "CRISTINA CARDOSO", "STATUS": "APLICAR T4" }, "geometry": { "type": "Point", "coordinates": [ -50.3324155, -21.2781954 ] } },
{ "type": "Feature", "properties": { "CNPJ14": "45259792000151", "ENDEREÇO COMPLETO": "RUA: NATAL MASSON, Nº 718, BAIRRO: RESIDENCIAL MOIMAZ, CIDADE: BIRIGUI", "RAZÃO SOCIAL": "SABRINA ARTIGOS", "NOME FANTASIA": "SABRINA ARTIGOS", "NOME DO EMPRESÁRIO": "SABRINA PARDINO", "STATUS": "APLICAR T4" }, "geometry": { "type": "Point", "coordinates": [ -50.326404, -21.278119 ] } },
{ "type": "Feature", "properties": { "CNPJ14": "09298568000105", "ENDEREÇO COMPLETO": "RUA: NATAL MASSON, Nº 653, BAIRRO: RESIDENCIAL MOIMAZ, CIDADE: BIRIGUI", "RAZÃO SOCIAL": "LOJA CRIATIVA", "NOME FANTASIA": "LOJA CRIATIVA", "NOME DO EMPRESÁRIO": "SIRLEI TOFOLO", "STATUS": "APLICAR T4" }, "geometry": { "type": "Point", "coordinates": [ -50.3266358, -21.277904 ] } },
{ "type": "Feature", "properties": { "CNPJ14": "55432817000120", "ENDEREÇO COMPLETO": "RUA: JOSÉ SCARPIN, Nº 40, BAIRRO: JARDIM RECANTO DOS PÁSSAROS, CIDADE: BIRIGUI", "RAZÃO SOCIAL": "FÊNIX LAR", "NOME FANTASIA": "FÊNIX LAR", "NOME DO EMPRESÁRIO": "KARLA RAMIRES", "STATUS": "APLICAR T4" }, "geometry": { "type": "Point", "coordinates": [ -50.3310546, -21.2778807 ] } },
{ "type": "Feature", "properties": { "CNPJ14": "46144753000171", "ENDEREÇO COMPLETO": "RUA: ANDRÉ CONTEL, Nº 18, BAIRRO: JARDIM RECANTO DOS PÁSSAROS, CIDADE: BIRIGUI", "RAZÃO SOCIAL": "TOLEDO MULTICERVICE", "NOME FANTASIA": "TOLEDO MULTICERVICE", "NOME DO EMPRESÁRIO": "RENATO TOLEDO", "STATUS": "APLICAR T4" }, "geometry": { "type": "Point", "coordinates": [ -50.3324211, -21.2778677 ] } },
{ "type": "Feature", "properties": { "CNPJ14": "31610935000113", "ENDEREÇO COMPLETO": "RUA: JOSÉ MASSON, Nº 469, BAIRRO: JARDIM RECANTO DOS PÁSSAROS, CIDADE: BIRIGUI", "RAZÃO SOCIAL": "BAR DO GUINA", "NOME FANTASIA": "BAR DO GUINA", "NOME DO EMPRESÁRIO": "ANNE TENÓRIO", "STATUS": "APLICAR T4" }, "geometry": { "type": "Point", "coordinates": [ -50.3301058, -21.2777228 ] } },
{ "type": "Feature", "properties": { "CNPJ14": "51066977000142", "ENDEREÇO COMPLETO": "RUA: EUCLIDES DA CUNHA, Nº 479, BAIRRO: VILA SILVARES, CIDADE: BIRIGUI", "RAZÃO SOCIAL": "VERSSANI", "NOME FANTASIA": "VERSSANI", "NOME DO EMPRESÁRIO": "LUCIANO VERSSANI", "STATUS": "APLICAR T4" }, "geometry": { "type": "Point", "coordinates": [ -50.3327261, -21.2775051 ] } },
{ "type": "Feature", "properties": { "CNPJ14": "46385193000147", "ENDEREÇO COMPLETO": "RUA: JOÃO PATRÍCIO SANTOS, Nº 2274, BAIRRO: JARDIM RECANTO DOS PÁSSAROS, CIDADE: BIRIGUI", "RAZÃO SOCIAL": "MINI MERCADO PATATIVA", "NOME FANTASIA": "MINI MERCADO PATATIVA", "NOME DO EMPRESÁRIO": "JOSE ASSIS", "STATUS": "APLICAR M2" }, "geometry": { "type": "Point", "coordinates": [ -50.3278314, -21.2773863 ] } },
{ "type": "Feature", "properties": { "CNPJ14": "24325244000102", "ENDEREÇO COMPLETO": "RUA: FIORAVANTE ZIN, Nº 35, BAIRRO: JARDIM POPI, CIDADE: BIRIGUI", "RAZÃO SOCIAL": "UNI ONE MODAS E PRESENTES", "NOME FANTASIA": "UNI ONE MODAS E PRESENTES", "NOME DO EMPRESÁRIO": "CLAUDIA FERTRIN", "STATUS": "APLICAR T4" }, "geometry": { "type": "Point", "coordinates": [ -50.3327645, -21.2773509 ] } },
{ "type": "Feature", "properties": { "CNPJ14": "65352793000153", "ENDEREÇO COMPLETO": "RUA: EUCLIDES DA CUNHA, Nº 920, BAIRRO: VILA SILVARES, CIDADE: BIRIGUI", "RAZÃO SOCIAL": "GAÚCHO ELETRÔNICOS", "NOME FANTASIA": "GAÚCHO ELETRÔNICOS", "NOME DO EMPRESÁRIO": "WELLINGTON NOGUEIRA", "STATUS": "APLICAR T4" }, "geometry": { "type": "Point", "coordinates": [ -50.332554, -21.2773404 ] } },
{ "type": "Feature", "properties": { "CNPJ14": "50685400000156", "ENDEREÇO COMPLETO": "RUA: EUCLIDES DA CUNHA, Nº 906, BAIRRO: VILA SILVARES, CIDADE: BIRIGUI", "RAZÃO SOCIAL": "EL SHADAY KIDS", "NOME FANTASIA": "EL SHADAY KIDS", "NOME DO EMPRESÁRIO": "EDSON BRITO", "STATUS": "APLICAR T4" }, "geometry": { "type": "Point", "coordinates": [ -50.332554, -21.2773404 ] } },
{ "type": "Feature", "properties": { "CNPJ14": "24090592000148", "ENDEREÇO COMPLETO": "RUA: EUCLIDES DA CUNHA, Nº 884, BAIRRO: VILA SILVARES, CIDADE: BIRIGUI", "RAZÃO SOCIAL": "IMPORT TENIS", "NOME FANTASIA": "IMPORT TENIS", "NOME DO EMPRESÁRIO": "MARIA EDUARDA CARNEIRO", "STATUS": "APLICAR T4" }, "geometry": { "type": "Point", "coordinates": [ -50.332554, -21.2773404 ] } },
{ "type": "Feature", "properties": { "CNPJ14": "21231780000150", "ENDEREÇO COMPLETO": "RUA: EUCLIDES DA CUNHA, Nº 714, BAIRRO: JARDIM POPI, CIDADE: BIRIGUI", "RAZÃO SOCIAL": "MDF KIDYS", "NOME FANTASIA": "MDF KIDYS", "NOME DO EMPRESÁRIO": "JOSÉ CARLOS BARBOSA", "STATUS": "APLICAR T4" }, "geometry": { "type": "Point", "coordinates": [ -50.332554, -21.2773404 ] } },
{ "type": "Feature", "properties": { "CNPJ14": "29463045000265", "ENDEREÇO COMPLETO": "RUA: NICOLAU DA SILVA NUNES, Nº 830, BAIRRO: JARDIM POPI, CIDADE: BIRIGUI", "RAZÃO SOCIAL": "PEDRO BARBOSA OIS MENINOS", "NOME FANTASIA": "PEDRO BARBOSA OIS MENINOS", "NOME DO EMPRESÁRIO": "MILENE BARBOSA", "STATUS": "APLICAR T4" }, "geometry": { "type": "Point", "coordinates": [ -50.3329778, -21.27732 ] } },
{ "type": "Feature", "properties": { "CNPJ14": "62555367000129", "ENDEREÇO COMPLETO": "AVENIDA: ANTÔNIO DA SILVA NUNES, Nº 498, BAIRRO: JARDIM SÃO CONRADO, CIDADE: BIRIGUI", "RAZÃO SOCIAL": "FOCO TOTAL SUPLEMENTOS", "NOME FANTASIA": "FOCO TOTAL SUPLEMENTOS", "NOME DO EMPRESÁRIO": "MARCOS DOS SANTOS", "STATUS": "APLICAR T4" }, "geometry": { "type": "Point", "coordinates": [ -50.3324565, -21.2771663 ] } },
{ "type": "Feature", "properties": { "CNPJ14": "31039454000108", "ENDEREÇO COMPLETO": "AVENIDA: ISAURA MACARINI ALBANI, Nº 519, BAIRRO: JARDIM FLAMENGO, CIDADE: BIRIGUI", "RAZÃO SOCIAL": "NELMAR ELETRICA", "NOME FANTASIA": "NELMAR ELETRICA", "NOME DO EMPRESÁRIO": "RICARDO MASSON", "STATUS": "APLICAR T4" }, "geometry": { "type": "Point", "coordinates": [ -50.3299178, -21.2771294 ] } },
{ "type": "Feature", "properties": { "CNPJ14": "10700129000166", "ENDEREÇO COMPLETO": "RUA: JOSÉ MASSON, Nº 548, BAIRRO: JARDIM RECANTO DOS PÁSSAROS, CIDADE: BIRIGUI", "RAZÃO SOCIAL": "BRASIL VEÍCULOS", "NOME FANTASIA": "BRASIL VEÍCULOS", "NOME DO EMPRESÁRIO": "LEONARDO LOPES", "STATUS": "APLICAR T4" }, "geometry": { "type": "Point", "coordinates": [ -50.3293054, -21.2770599 ] } },
{ "type": "Feature", "properties": { "CNPJ14": "06093970000165", "ENDEREÇO COMPLETO": "AVENIDA: ISAURA MACARINI ALBANI, Nº 529, BAIRRO: JARDIM FLAMENGO, CIDADE: BIRIGUI", "RAZÃO SOCIAL": "BORRACHARIA 3 IRMÃOS", "NOME FANTASIA": "BORRACHARIA 3 IRMÃOS", "NOME DO EMPRESÁRIO": "CASSIO FERRAZ", "STATUS": "APLICAR T4" }, "geometry": { "type": "Point", "coordinates": [ -50.3297552, -21.277045 ] } },
{ "type": "Feature", "properties": { "CNPJ14": "63448129000187", "ENDEREÇO COMPLETO": "RUA: JOSÉ FONZAR, Nº 212, BAIRRO: JARDIM RECANTO DOS PÁSSAROS, CIDADE: BIRIGUI", "RAZÃO SOCIAL": "MUSTACHE", "NOME FANTASIA": "MUSTACHE", "NOME DO EMPRESÁRIO": "GABRIEL MASSON", "STATUS": "APLICAR T4" }, "geometry": { "type": "Point", "coordinates": [ -50.3318682, -21.2770274 ] } },
{ "type": "Feature", "properties": { "CNPJ14": "49697769000108", "ENDEREÇO COMPLETO": "RUA: JOSÉ FONZAR, Nº 212, BAIRRO: JARDIM RECANTO DOS PÁSSAROS, CIDADE: BIRIGUI", "RAZÃO SOCIAL": "DG COMÉRCIO DE ÁGUA E GÁS", "NOME FANTASIA": "DG COMÉRCIO DE ÁGUA E GÁS", "NOME DO EMPRESÁRIO": "DANIEL GARCIA", "STATUS": "APLICAR T4" }, "geometry": { "type": "Point", "coordinates": [ -50.3318682, -21.2770274 ] } },
{ "type": "Feature", "properties": { "CNPJ14": "59211144000130", "ENDEREÇO COMPLETO": "RUA: JOSÉ MASSON, Nº 558, BAIRRO: JARDIM RECANTO DOS PÁSSAROS, CIDADE: BIRIGUI", "RAZÃO SOCIAL": "BAR DO LUIZINHO", "NOME FANTASIA": "BAR DO LUIZINHO", "NOME DO EMPRESÁRIO": "LUIZ AMADOR", "STATUS": "APLICAR T4" }, "geometry": { "type": "Point", "coordinates": [ -50.3292408, -21.276979 ] } },
{ "type": "Feature", "properties": { "CNPJ14": "43589433000137", "ENDEREÇO COMPLETO": "RUA: EUCLIDES DA CUNHA, Nº 530, BAIRRO: JARDIM POPI, CIDADE: BIRIGUI", "RAZÃO SOCIAL": "BIRI TEM", "NOME FANTASIA": "BIRI TEM", "NOME DO EMPRESÁRIO": "LAURO SALUSTRIANO", "STATUS": "APLICAR T4" }, "geometry": { "type": "Point", "coordinates": [ -50.3324241, -21.2768688 ] } },
{ "type": "Feature", "properties": { "CNPJ14": "36532046000107", "ENDEREÇO COMPLETO": "RUA: EUCLIDES DA CUNHA, Nº 530, BAIRRO: PATRIMÔNIO SILVARES, CIDADE: BIRIGUI", "RAZÃO SOCIAL": "ADRIANA SANTOS", "NOME FANTASIA": "ADRIANA SANTOS", "NOME DO EMPRESÁRIO": "ADRIANA PEREIRA", "STATUS": "APLICAR T4" }, "geometry": { "type": "Point", "coordinates": [ -50.3324241, -21.2768688 ] } },
{ "type": "Feature", "properties": { "CNPJ14": "48977088000122", "ENDEREÇO COMPLETO": "RUA: JOSÉ FONZAR, Nº 252, BAIRRO: JARDIM RECANTO DOS PÁSSAROS, CIDADE: BIRIGUI", "RAZÃO SOCIAL": "ENPROLUZ", "NOME FANTASIA": "ENPROLUZ", "NOME DO EMPRESÁRIO": "IGOR GALLO JOASI", "STATUS": "APLICAR T4" }, "geometry": { "type": "Point", "coordinates": [ -50.3323593, -21.2765991 ] } },
{ "type": "Feature", "properties": { "CNPJ14": "20333265000119", "ENDEREÇO COMPLETO": "RUA: EUCLIDES DA CUNHA, Nº 655, BAIRRO: JARDIM POPI, CIDADE: BIRIGUI", "RAZÃO SOCIAL": "THIAGO", "NOME FANTASIA": "THIAGO", "NOME DO EMPRESÁRIO": "THIAGO MENDES", "STATUS": "APLICAR T4" }, "geometry": { "type": "Point", "coordinates": [ -50.3326572, -21.2763132 ] } },
{ "type": "Feature", "properties": { "CNPJ14": "61063297000129", "ENDEREÇO COMPLETO": "RUA: JOAQUIM CICILIATTI, Nº 970, BAIRRO: JARDIM SANT'ANA, CIDADE: BIRIGUI", "RAZÃO SOCIAL": "PÉROLA MODAS", "NOME FANTASIA": "PÉROLA MODAS", "NOME DO EMPRESÁRIO": "FRANCISCO FEITOSA", "STATUS": "APLICAR T4" }, "geometry": { "type": "Point", "coordinates": [ -50.3262233, -21.2761598 ] } },
{ "type": "Feature", "properties": { "CNPJ14": "33281524000157", "ENDEREÇO COMPLETO": "RUA: EUCLIDES DA CUNHA, Nº 654, BAIRRO: JARDIM POPI, CIDADE: BIRIGUI", "RAZÃO SOCIAL": "JUNINHOS SUPER ATACADOS", "NOME FANTASIA": "JUNINHOS SUPER ATACADOS", "NOME DO EMPRESÁRIO": "WALDIR REATTO", "STATUS": "APLICAR T4" }, "geometry": { "type": "Point", "coordinates": [ -50.3323838, -21.2760484 ] } },
{ "type": "Feature", "properties": { "CNPJ14": "16691292000196", "ENDEREÇO COMPLETO": "AVENIDA: ISAURA MACARINI ALBANI, Nº 682, BAIRRO: RESIDENCIAL SIMÕES, CIDADE: BIRIGUI", "RAZÃO SOCIAL": "CERVEJARIA TUTTY BEER", "NOME FANTASIA": "CERVEJARIA TUTTY BEER", "NOME DO EMPRESÁRIO": "LEANDRO DAMETTO", "STATUS": "APLICAR T4" }, "geometry": { "type": "Point", "coordinates": [ -50.3284787, -21.2759668 ] } },
{ "type": "Feature", "properties": { "CNPJ14": "48373479000138", "ENDEREÇO COMPLETO": "RUA: JOAQUIM CICILIATTI, Nº 940, BAIRRO: JARDIM SANT'ANA, CIDADE: BIRIGUI", "RAZÃO SOCIAL": "FLAMENGO RAÇÕES", "NOME FANTASIA": "FLAMENGO RAÇÕES", "NOME DO EMPRESÁRIO": "LUIS ALVES", "STATUS": "APLICAR T4" }, "geometry": { "type": "Point", "coordinates": [ -50.3263857, -21.2759328 ] } },
{ "type": "Feature", "properties": { "CNPJ14": "15353186000130", "ENDEREÇO COMPLETO": "RUA: JOAQUIM CICILIATTI, Nº 945, BAIRRO: JARDIM FLAMENGO, CIDADE: BIRIGUI", "RAZÃO SOCIAL": "HIDOSHOCK", "NOME FANTASIA": "HIDOSHOCK", "NOME DO EMPRESÁRIO": "FABRÍCIO DE OLIVEIRA", "STATUS": "APLICAR M1" }, "geometry": { "type": "Point", "coordinates": [ -50.3260991, -21.2758123 ] } },
{ "type": "Feature", "properties": { "CNPJ14": "55802371000189", "ENDEREÇO COMPLETO": "RUA: JOAQUIM CICILIATTI, Nº 935, BAIRRO: JARDIM FLAMENGO, CIDADE: BIRIGUI", "RAZÃO SOCIAL": "PANIFICADORA VENEZA", "NOME FANTASIA": "PANIFICADORA VENEZA", "NOME DO EMPRESÁRIO": "JOSE ROBERTO ALVES", "STATUS": "APLICAR T4" }, "geometry": { "type": "Point", "coordinates": [ -50.3263194, -21.2757638 ] } },
{ "type": "Feature", "properties": { "CNPJ14": "07545318000105", "ENDEREÇO COMPLETO": "RUA: EUCLIDES DA CUNHA, Nº 730, BAIRRO: JARDIM POPI, CIDADE: BIRIGUI", "RAZÃO SOCIAL": "BAL MOTO TAXI", "NOME FANTASIA": "BAL MOTO TAXI", "NOME DO EMPRESÁRIO": "ELIEZER ROQUE", "STATUS": "APLICAR T4" }, "geometry": { "type": "Point", "coordinates": [ -50.3323418, -21.2752359 ] } },
{ "type": "Feature", "properties": { "CNPJ14": "65896648000133", "ENDEREÇO COMPLETO": "AVENIDA: ANTÔNIO DA SILVA NUNES, Nº 750, BAIRRO: JARDIM SÃO CONRADO, CIDADE: BIRIGUI", "RAZÃO SOCIAL": "PONTO DO BOLINHO", "NOME FANTASIA": "PONTO DO BOLINHO", "NOME DO EMPRESÁRIO": "JESSICA OLIVEIRA", "STATUS": "APLICAR T4" }, "geometry": { "type": "Point", "coordinates": [ -50.3323408, -21.2751074 ] } },
{ "type": "Feature", "properties": { "CNPJ14": "07771078000159", "ENDEREÇO COMPLETO": "AVENIDA: CIDADE JARDIM, Nº 5988, BAIRRO: JARDIM SÃO BRAZ, CIDADE: BIRIGUI", "RAZÃO SOCIAL": "IMPÉRIO DO TEMPERO", "NOME FANTASIA": "IMPÉRIO DO TEMPERO", "NOME DO EMPRESÁRIO": "EOLA ESPERANÇA", "STATUS": "APLICAR T4" }, "geometry": { "type": "Point", "coordinates": [ -50.3163937, -21.2750733 ] } },
{ "type": "Feature", "properties": { "CNPJ14": "17427047000139", "ENDEREÇO COMPLETO": "AVENIDA: ANTÔNIO DA SILVA NUNES, Nº 837, BAIRRO: JARDIM SÃO CONRADO, CIDADE: BIRIGUI", "RAZÃO SOCIAL": "MEGA IDEAL", "NOME FANTASIA": "MEGA IDEAL", "NOME DO EMPRESÁRIO": "NATALIA PESSOA", "STATUS": "APLICAR T4" }, "geometry": { "type": "Point", "coordinates": [ -50.3327829, -21.2744703 ] } },
{ "type": "Feature", "properties": { "CNPJ14": "50991828000127", "ENDEREÇO COMPLETO": "AVENIDA: ANTÔNIO DA SILVA NUNES, Nº 856, BAIRRO: JARDIM SÃO CONRADO, CIDADE: BIRIGUI", "RAZÃO SOCIAL": "ESQUIANDO PASTEL", "NOME FANTASIA": "ESQUIANDO PASTEL", "NOME DO EMPRESÁRIO": "CESAR ESTABILE", "STATUS": "APLICAR T4" }, "geometry": { "type": "Point", "coordinates": [ -50.3322359, -21.2742414 ] } },
{ "type": "Feature", "properties": { "CNPJ14": "41713909000174", "ENDEREÇO COMPLETO": "AVENIDA: NATAL MASSON, Nº 3050, BAIRRO: RESIDENCIAL SIMÕES, CIDADE: BIRIGUI", "RAZÃO SOCIAL": "QUINTA DA MATA RAÇÕES", "NOME FANTASIA": "QUINTA DA MATA RAÇÕES", "NOME DO EMPRESÁRIO": "JALIANA PEREIRA", "STATUS": "APLICAR T4" }, "geometry": { "type": "Point", "coordinates": [ -50.3172178, -21.2736959 ] } },
{ "type": "Feature", "properties": { "CNPJ14": "33398222000163", "ENDEREÇO COMPLETO": "RUA: FRANCISCO LAMACCHIA, Nº 165, BAIRRO: CHÁCARAS CAIÇARA, CIDADE: BIRIGUI", "RAZÃO SOCIAL": "FINO SABOR", "NOME FANTASIA": "FINO SABOR", "NOME DO EMPRESÁRIO": "FRANCIELI BUZO", "STATUS": "APLICAR T4" }, "geometry": { "type": "Point", "coordinates": [ -50.3329266, -21.2730803 ] } },
{ "type": "Feature", "properties": { "CNPJ14": "52927419000197", "ENDEREÇO COMPLETO": "AVENIDA: ISAURA MACARINI ALBANI, Nº 1215, BAIRRO: PARQUE DAS NAÇÕES, CIDADE: BIRIGUI", "RAZÃO SOCIAL": "LAU MOTOS", "NOME FANTASIA": "LAU MOTOS", "NOME DO EMPRESÁRIO": "GEIZA CAPELARI", "STATUS": "APLICAR T4" }, "geometry": { "type": "Point", "coordinates": [ -50.3264157, -21.2729842 ] } },
{ "type": "Feature", "properties": { "CNPJ14": "57238204000182", "ENDEREÇO COMPLETO": "RUA: EUCLIDES DA CUNHA, Nº 1010, BAIRRO: VILA SILVARES, CIDADE: BIRIGUI", "RAZÃO SOCIAL": "CÉLIA MODAS", "NOME FANTASIA": "CÉLIA MODAS", "NOME DO EMPRESÁRIO": "NILCELIA BARROS", "STATUS": "APLICAR T4" }, "geometry": { "type": "Point", "coordinates": [ -50.3321681, -21.2729361 ] } },
{ "type": "Feature", "properties": { "CNPJ14": "37419387000125", "ENDEREÇO COMPLETO": "RUA: ROSA SEGURA PERES, Nº 1001, BAIRRO: PARQUE DAS NAÇÕES, CIDADE: BIRIGUI", "RAZÃO SOCIAL": "BIRIAGRO", "NOME FANTASIA": "BIRIAGRO", "NOME DO EMPRESÁRIO": "MIGUEL GARCIA", "STATUS": "APLICAR T4" }, "geometry": { "type": "Point", "coordinates": [ -50.3296332, -21.272793 ] } },
{ "type": "Feature", "properties": { "CNPJ14": "65465109000140", "ENDEREÇO COMPLETO": "AVENIDA: ISAURA MACARINI ALBANI, Nº 1237, BAIRRO: RESIDENCIAL SÃO JOSÉ, CIDADE: BIRIGUI", "RAZÃO SOCIAL": "A FERRAGISTA", "NOME FANTASIA": "A FERRAGISTA", "NOME DO EMPRESÁRIO": "NILZA BARBOSA", "STATUS": "APLICAR T4" }, "geometry": { "type": "Point", "coordinates": [ -50.3261274, -21.2726898 ] } },
{ "type": "Feature", "properties": { "CNPJ14": "65310970000139", "ENDEREÇO COMPLETO": "AVENIDA: ISAURA MACARINI ALBANI, Nº 1302, BAIRRO: RESIDENCIAL SIMÕES, CIDADE: BIRIGUI", "RAZÃO SOCIAL": "BICICLETARIA JACARÉ", "NOME FANTASIA": "BICICLETARIA JACARÉ", "NOME DO EMPRESÁRIO": "JOSE FIRMINO", "STATUS": "APLICAR T4" }, "geometry": { "type": "Point", "coordinates": [ -50.3254448, -21.2723749 ] } },
{ "type": "Feature", "properties": { "CNPJ14": "12467285000154", "ENDEREÇO COMPLETO": "AVENIDA: ISAURA MACARINI ALBANI, Nº 1322, BAIRRO: RESIDENCIAL ATENAS, CIDADE: BIRIGUI", "RAZÃO SOCIAL": "RETIFICA DE MOTOR JM", "NOME FANTASIA": "RETIFICA DE MOTOR JM", "NOME DO EMPRESÁRIO": "MATEUS SANTOS", "STATUS": "APLICAR T4" }, "geometry": { "type": "Point", "coordinates": [ -50.325347, -21.2722592 ] } },
{ "type": "Feature", "properties": { "CNPJ14": "47377224000180", "ENDEREÇO COMPLETO": "AVENIDA: ISAURA MACARINI ALBANI, Nº 1309, BAIRRO: RESIDENCIAL ATENAS, CIDADE: BIRIGUI", "RAZÃO SOCIAL": "PERALTIN", "NOME FANTASIA": "PERALTIN", "NOME DO EMPRESÁRIO": "TIAGO BERTOLINO", "STATUS": "APLICAR T4" }, "geometry": { "type": "Point", "coordinates": [ -50.3257482, -21.2720817 ] } },
{ "type": "Feature", "properties": { "CNPJ14": "45618817000166", "ENDEREÇO COMPLETO": "AVENIDA: ISAURA MACARINI ALBANI, Nº 1398, BAIRRO: JARDIM FLAMENGO, CIDADE: BIRIGUI", "RAZÃO SOCIAL": "MARMORARIA VITÓRIA", "NOME FANTASIA": "MARMORARIA VITÓRIA", "NOME DO EMPRESÁRIO": "ELIAS MANTOVAN", "STATUS": "APLICAR T4" }, "geometry": { "type": "Point", "coordinates": [ -50.3247752, -21.2714821 ] } },
{ "type": "Feature", "properties": { "CNPJ14": "58997612000180", "ENDEREÇO COMPLETO": "RUA: JOÃO PALUDETTO, Nº 480, BAIRRO: RESIDENCIAL SIMÕES, CIDADE: BIRIGUI", "RAZÃO SOCIAL": "GABI SHOES", "NOME FANTASIA": "GABI SHOES", "NOME DO EMPRESÁRIO": "ANDERSON PORIGUELA", "STATUS": "APLICAR T4" }, "geometry": { "type": "Point", "coordinates": [ -50.3242882, -21.2714277 ] } },
{ "type": "Feature", "properties": { "CNPJ14": "47324978000172", "ENDEREÇO COMPLETO": "AVENIDA: ISAURA MACARINI ALBANI, Nº 1450, BAIRRO: RESIDENCIAL SIMÕES, CIDADE: BIRIGUI", "RAZÃO SOCIAL": "SENHOR DAS CARNES", "NOME FANTASIA": "SENHOR DAS CARNES", "NOME DO EMPRESÁRIO": "ANE CAROLINE", "STATUS": "APLICAR T4" }, "geometry": { "type": "Point", "coordinates": [ -50.3245638, -21.2712405 ] } },
{ "type": "Feature", "properties": { "CNPJ14": "19172770000140", "ENDEREÇO COMPLETO": "AVENIDA: ISAURA MACARINI ALBANI, Nº 1494, BAIRRO: RESIDENCIAL SIMÕES, CIDADE: BIRIGUI", "RAZÃO SOCIAL": "AGRO VALU", "NOME FANTASIA": "AGRO VALU", "NOME DO EMPRESÁRIO": "JUAREZ LACERDA", "STATUS": "APLICAR T4" }, "geometry": { "type": "Point", "coordinates": [ -50.3245033, -21.2709611 ] } },
{ "type": "Feature", "properties": { "CNPJ14": "00549610000149", "ENDEREÇO COMPLETO": "AVENIDA: ISAURA MACARINI ALBANI, Nº 1524, BAIRRO: RESIDENCIAL SIMÕES, CIDADE: BIRIGUI", "RAZÃO SOCIAL": "FANI", "NOME FANTASIA": "FANI", "NOME DO EMPRESÁRIO": "FABIANO SIMOES", "STATUS": "APLICAR T4" }, "geometry": { "type": "Point", "coordinates": [ -50.3241798, -21.2708011 ] } },
{ "type": "Feature", "properties": { "CNPJ14": "32775366000129", "ENDEREÇO COMPLETO": "RUA: JOAQUIM CICILIATTI, Nº 75, BAIRRO: JARDIM FLAMENGO, CIDADE: BIRIGUI", "RAZÃO SOCIAL": "ATACADÃO CASA LASER", "NOME FANTASIA": "ATACADÃO CASA LASER", "NOME DO EMPRESÁRIO": "LETÍCIA KELLY DA SILVA", "STATUS": "APLICAR T4" }, "geometry": { "type": "Point", "coordinates": [ -50.3319666, -21.2707548 ] } },
{ "type": "Feature", "properties": { "CNPJ14": "36727679000162", "ENDEREÇO COMPLETO": "AVENIDA: ISAURA MACARINI ALBANI, Nº 1552, BAIRRO: RESIDENCIAL ACAPULCO, CIDADE: BIRIGUI", "RAZÃO SOCIAL": "STILLER MOTO", "NOME FANTASIA": "STILLER MOTO", "NOME DO EMPRESÁRIO": "JOSIANE VENTURW", "STATUS": "APLICAR T4" }, "geometry": { "type": "Point", "coordinates": [ -50.3239353, -21.2706566 ] } },
{ "type": "Feature", "properties": { "CNPJ14": "27437312000113", "ENDEREÇO COMPLETO": "RUA: JOAQUIM CICILIATTI, Nº 45, BAIRRO: PARQUE RESIDENCIAL AMÉRICA, CIDADE: BIRIGUI", "RAZÃO SOCIAL": "BRUTOS SORVETES", "NOME FANTASIA": "BRUTOS SORVETES", "NOME DO EMPRESÁRIO": "MARIA TEREZA", "STATUS": "APLICAR T4" }, "geometry": { "type": "Point", "coordinates": [ -50.3320861, -21.2706136 ] } },
{ "type": "Feature", "properties": { "CNPJ14": "04094915000164", "ENDEREÇO COMPLETO": "AVENIDA: ISAURA MACARINI ALBANI, Nº 2063, BAIRRO: JARDIM FLAMENGO, CIDADE: BIRIGUI", "RAZÃO SOCIAL": "FRUTDELLYS RECANTO VERDE", "NOME FANTASIA": "FRUTDELLYS RECANTO VERDE", "NOME DO EMPRESÁRIO": "BRENDA VELONI", "STATUS": "APLICAR T4" }, "geometry": { "type": "Point", "coordinates": [ -50.3236504, -21.269896 ] } },
{ "type": "Feature", "properties": { "CNPJ14": "18673534000144", "ENDEREÇO COMPLETO": "AVENIDA: ANTÔNIO DA SILVA NUNES, Nº 818, BAIRRO: JARDIM SÃO CONRADO, CIDADE: BIRIGUI", "RAZÃO SOCIAL": "BANCA RONDON", "NOME FANTASIA": "BANCA RONDON", "NOME DO EMPRESÁRIO": "LION IGNACIO FACHINI", "STATUS": "APLICAR T4" }, "geometry": { "type": "Point", "coordinates": [ -50.3320352, -21.2693382 ] } },
{ "type": "Feature", "properties": { "CNPJ14": "60775083000112", "ENDEREÇO COMPLETO": "RUA: SANTIAGO TRONCOSO, Nº 161, BAIRRO: JARDIM DO LAGO, CIDADE: BIRIGUI", "RAZÃO SOCIAL": "CERVEJARIA MASSON", "NOME FANTASIA": "CERVEJARIA MASSON", "NOME DO EMPRESÁRIO": "WILLIAN MASSOM", "STATUS": "APLICAR T4" }, "geometry": { "type": "Point", "coordinates": [ -50.330828, -21.2677851 ] } },
{ "type": "Feature", "properties": { "CNPJ14": "33911332000187", "ENDEREÇO COMPLETO": "RUA: IMRICH PÉCHY, Nº 976, BAIRRO: RESIDENCIAL SÃO JOSÉ, CIDADE: BIRIGUI", "RAZÃO SOCIAL": "ANJO DE PATAS", "NOME FANTASIA": "ANJO DE PATAS", "NOME DO EMPRESÁRIO": "EDILAINE CERVELATTI", "STATUS": "APLICAR T4" }, "geometry": { "type": "Point", "coordinates": [ -50.3210205, -21.2662209 ] } },
{ "type": "Feature", "properties": { "CNPJ14": "24919371000130", "ENDEREÇO COMPLETO": "RUA: IMRICH PÉCHY, Nº 948, BAIRRO: RESIDENCIAL SÃO JOSÉ, CIDADE: BIRIGUI", "RAZÃO SOCIAL": "MERCADO SÃO JOSE", "NOME FANTASIA": "MERCADO SÃO JOSE", "NOME DO EMPRESÁRIO": "LARISSA FANI", "STATUS": "APLICAR T4" }, "geometry": { "type": "Point", "coordinates": [ -50.3211631, -21.2661452 ] } },
{ "type": "Feature", "properties": { "CNPJ14": "63555531000160", "ENDEREÇO COMPLETO": "AVENIDA: ISAURA MACARINI ALBANI, Nº 2214, BAIRRO: RESIDENCIAL ART VILLE, CIDADE: BIRIGUI", "RAZÃO SOCIAL": "TUDINHO TEM", "NOME FANTASIA": "TUDINHO TEM", "NOME DO EMPRESÁRIO": "ALESSANDRA DOS SANTOS", "STATUS": "APLICAR T4" }, "geometry": { "type": "Point", "coordinates": [ -50.3196717, -21.2652738 ] } },
{ "type": "Feature", "properties": { "CNPJ14": "56088770000192", "ENDEREÇO COMPLETO": "RUA: EUCLIDES DE ALMEIDA, Nº 94, BAIRRO: RESIDENCIAL ART VILLE, CIDADE: BIRIGUI", "RAZÃO SOCIAL": "PADARIA ARTIVILLE", "NOME FANTASIA": "PADARIA ARTIVILLE", "NOME DO EMPRESÁRIO": "JOÃO SILVEIRA", "STATUS": "APLICAR T4" }, "geometry": { "type": "Point", "coordinates": [ -50.3185947, -21.2651267 ] } },
{ "type": "Feature", "properties": { "CNPJ14": "54383736000115", "ENDEREÇO COMPLETO": "AVENIDA: ISAURA MACARINI ALBANI, Nº 2224, BAIRRO: RESIDENCIAL ATENAS, CIDADE: BIRIGUI", "RAZÃO SOCIAL": "ACAI DO NUNES", "NOME FANTASIA": "ACAI DO NUNES", "NOME DO EMPRESÁRIO": "TALLISON NUNES", "STATUS": "APLICAR T4" }, "geometry": { "type": "Point", "coordinates": [ -50.3179454, -21.264165 ] } },
{ "type": "Feature", "properties": { "CNPJ14": "06998501000195", "ENDEREÇO COMPLETO": "AVENIDA: ANTÔNIO DA SILVA NUNES, Nº 2198, BAIRRO: RECANTO VERDE, CIDADE: BIRIGUI", "RAZÃO SOCIAL": "TERRA FERTIL", "NOME FANTASIA": "TERRA FERTIL", "NOME DO EMPRESÁRIO": "JOSÉ BRUNO", "STATUS": "APLICAR T4" }, "geometry": { "type": "Point", "coordinates": [ -50.3312653, -21.2633188 ] } },
{ "type": "Feature", "properties": { "CNPJ14": "15088437000104", "ENDEREÇO COMPLETO": "AVENIDA: ANTÔNIO DA SILVA NUNES, Nº 2200, BAIRRO: JARDIM SÃO CONRADO, CIDADE: BIRIGUI", "RAZÃO SOCIAL": "SIGMA DISTRIBUIDORA", "NOME FANTASIA": "SIGMA DISTRIBUIDORA", "NOME DO EMPRESÁRIO": "PRISCILA ZANOTI", "STATUS": "APLICAR T4" }, "geometry": { "type": "Point", "coordinates": [ -50.3311503, -21.2632919 ] } },
{ "type": "Feature", "properties": { "CNPJ14": "04107145000147", "ENDEREÇO COMPLETO": "AVENIDA: ANTÔNIO DA SILVA NUNES, Nº 2400, BAIRRO: JARDIM SÃO CONRADO, CIDADE: BIRIGUI", "RAZÃO SOCIAL": "WAGNER VEÍCULOS", "NOME FANTASIA": "WAGNER VEÍCULOS", "NOME DO EMPRESÁRIO": "LUCIA ZAMAIA", "STATUS": "APLICAR T4" }, "geometry": { "type": "Point", "coordinates": [ -50.3304046, -21.2609389 ] } },
{ "type": "Feature", "properties": { "CNPJ14": "59058373000166", "ENDEREÇO COMPLETO": "AVENIDA: ANTÔNIO DA SILVA NUNES, Nº 2420, BAIRRO: JARDIM SÃO CONRADO, CIDADE: BIRIGUI", "RAZÃO SOCIAL": "LEVITA CALÇADOS", "NOME FANTASIA": "LEVITA CALÇADOS", "NOME DO EMPRESÁRIO": "JULIANA ARALDI", "STATUS": "APLICAR T4" }, "geometry": { "type": "Point", "coordinates": [ -50.3303038, -21.2608527 ] } },
{ "type": "Feature", "properties": { "CNPJ14": "01010512000100", "ENDEREÇO COMPLETO": "AVENIDA: ANTÔNIO DA SILVA NUNES, Nº 2430, BAIRRO: JARDIM SÃO CONRADO, CIDADE: BIRIGUI", "RAZÃO SOCIAL": "ENGENHARIA DO MÓVEL", "NOME FANTASIA": "ENGENHARIA DO MÓVEL", "NOME DO EMPRESÁRIO": "MARCELA SIMOES", "STATUS": "APLICAR T4" }, "geometry": { "type": "Point", "coordinates": [ -50.3304599, -21.2607083 ] } },
{ "type": "Feature", "properties": { "CNPJ14": "45204375000101", "ENDEREÇO COMPLETO": "AVENIDA: ISAURA MACARINI ALBANI, Nº 1299, BAIRRO: RESIDENCIAL ACAPULCO, CIDADE: BIRIGUI", "RAZÃO SOCIAL": "MARCADO NAÇÕES", "NOME FANTASIA": "MARCADO NAÇÕES", "NOME DO EMPRESÁRIO": "VIVIAN FERNANDA", "STATUS": "APLICAR T4" }, "geometry": { "type": "Point", "coordinates": [ -50.3132725, -21.2569121 ] } },
{ "type": "Feature", "properties": { "CNPJ14": "56264860000197", "ENDEREÇO COMPLETO": "AVENIDA: AFIF JOSÉ ABDO, Nº 669, BAIRRO: RESIDENCIAL PORTAL DA PÉROLA II, CIDADE: BIRIGUI", "RAZÃO SOCIAL": "CENTRAL RAÇÕES", "NOME FANTASIA": "CENTRAL RAÇÕES", "NOME DO EMPRESÁRIO": "KAIO MADUREIRA", "STATUS": "APLICAR T4" }, "geometry": { "type": "Point", "coordinates": [ -50.3165449, -21.2503522 ] } }
]
}
