{
"type": "FeatureCollection",
"name": "MUNICIPIO_BOTELHOS",
"crs": { "type": "name", "properties": { "name": "urn:ogc:def:crs:OGC:1.3:CRS84" } },
"xy_coordinate_resolution": 1e-15,
"features": [
{ "type": "Feature", "properties": { "NROCNPJ_PAD": "22502310000147", "STATUS_MAILING": "PRIMEIRA CONSULTORIA REALIZADA PRESENCIAL", "NOME_FANTASIA": null, "RAZAO_SOCIAL": "ELIZANGELA CARVALHO 98491547649", "RESPONSAVEL": "ELIZANGELACARVALHO", "MUNICIPIO": "BOTELHOS", "ENDEE": "DA BIQUINHA, 72, CENTRO, 37720-000, BOTELHOS, MG, BRASIL", "BANCO": "SICOOB AGROCREDI", "LINHA_AVAL_NOME": "GIRO", "LATITUDE": "-21.647777", "LONGITUDE": "-46.395252", "STATUS_OPERACIONAL": "APLICAR T2", "STATUS": "APLICAR T2", "field_14": null, "field_15": null, "field_16": null }, "geometry": { "type": "Point", "coordinates": [ -46.395252, -21.647777 ] } },
{ "type": "Feature", "properties": { "NROCNPJ_PAD": "59343068000116", "STATUS_MAILING": "PRIMEIRA CONSULTORIA REALIZADA PRESENCIAL", "NOME_FANTASIA": null, "RAZAO_SOCIAL": "59.343.068 MARIA EUGENIA DA CRUZ SILVA", "RESPONSAVEL": "MARIA EUGENIA DA CRUZ SILVA", "MUNICIPIO": "BOTELHOS", "ENDEE": "DA BIQUINHA, 135, CENTRO, 37720-000, BOTELHOS, MG, BRASIL", "BANCO": "SICREDI UNIESTADOS", "LINHA_AVAL_NOME": "EMPREENDEDORISMO FEM", "LATITUDE": "-21.6474313", "LONGITUDE": "-46.3960331", "STATUS_OPERACIONAL": "APLICAR T2", "STATUS": "APLICAR T2", "field_14": null, "field_15": null, "field_16": null }, "geometry": { "type": "Point", "coordinates": [ -46.3960331, -21.6474313 ] } },
{ "type": "Feature", "properties": { "NROCNPJ_PAD": "09579679000190", "STATUS_MAILING": "PRIMEIRA CONSULTORIA REALIZADA PRESENCIAL", "NOME_FANTASIA": "ACADEMIA GINASTIC CENTER", "RAZAO_SOCIAL": "ACADEMIA GINASTIC CENTER LTDA", "RESPONSAVEL": "CRISTINAHELENAGARCIADEAGUIARSIQUEIRA|FABIODONIZETESIQUEIRA", "MUNICIPIO": "BOTELHOS", "ENDEE": "DR GUILHERME BOLZAN, 392, CENTRO, 37720-000, BOTELHOS, MG, BRASIL", "BANCO": "SICOOB AGROCREDI", "LINHA_AVAL_NOME": "GIRO", "LATITUDE": "-21.6475621", "LONGITUDE": "-46.396115", "STATUS_OPERACIONAL": "APLICAR T2", "STATUS": "APLICAR T2", "field_14": null, "field_15": null, "field_16": null }, "geometry": { "type": "Point", "coordinates": [ -46.396115, -21.6475621 ] } },
{ "type": "Feature", "properties": { "NROCNPJ_PAD": "07791410000147", "STATUS_MAILING": "PRIMEIRA CONSULTORIA REALIZADA PRESENCIAL", "NOME_FANTASIA": "STERLING TINTAS", "RAZAO_SOCIAL": "EVANDRO VILAS BOAS", "RESPONSAVEL": "EVANDROVILASBOAS", "MUNICIPIO": "BOTELHOS", "ENDEE": "DOUTOR GUILHERME BOLZAN, 324, CENTRO, 37720-000, BOTELHOS, MG, BRASIL", "BANCO": "SICOOB AGROCREDI", "LINHA_AVAL_NOME": "GIRO", "LATITUDE": "-21.6469873", "LONGITUDE": "-46.3960312", "STATUS_OPERACIONAL": "APLICAR T2", "STATUS": "APLICAR T2", "field_14": null, "field_15": null, "field_16": null }, "geometry": { "type": "Point", "coordinates": [ -46.3960312, -21.6469873 ] } },
{ "type": "Feature", "properties": { "NROCNPJ_PAD": "04326847000111", "STATUS_MAILING": "PRIMEIRA CONSULTORIA REALIZADA PRESENCIAL", "NOME_FANTASIA": "RESTAURANTE CASARAO", "RAZAO_SOCIAL": "LEILA M DE PAULA", "RESPONSAVEL": "LEILA MARIA DE PAULA", "MUNICIPIO": "BOTELHOS", "ENDEE": "GABRIEL BOTELHO, 18, CENTRO, 37720-000, BOTELHOS, MG, BRASIL", "BANCO": "SICREDI UNIESTADOS", "LINHA_AVAL_NOME": "EMPREENDEDORISMO FEM", "LATITUDE": "-21.6493285", "LONGITUDE": "-46.3957878", "STATUS_OPERACIONAL": "APLICAR T2", "STATUS": "APLICAR T2", "field_14": null, "field_15": null, "field_16": null }, "geometry": { "type": "Point", "coordinates": [ -46.3957878, -21.6493285 ] } },
{ "type": "Feature", "properties": { "NROCNPJ_PAD": "20043967000168", "STATUS_MAILING": "PRIMEIRA CONSULTORIA REALIZADA PRESENCIAL", "NOME_FANTASIA": "PETIT POA LACOS ESPECIAIS", "RAZAO_SOCIAL": "GERMANA ABREU FIGUEIREDO DUARTE DE CARVALHO 07180126667", "RESPONSAVEL": "GERMANA ABREU FIGUEIREDO DUARTE DE CARVALHO", "MUNICIPIO": "BOTELHOS", "ENDEE": "ADORNIRIO GONCALVES, 170, CENTRO, 37720-000, BOTELHOS, MG, BRASIL", "BANCO": "SICREDI UNIESTADOS", "LINHA_AVAL_NOME": "EMPREENDEDORISMO FEM", "LATITUDE": "-21.6490554", "LONGITUDE": "-46.3957893", "STATUS_OPERACIONAL": "APLICAR T2", "STATUS": "APLICAR T2", "field_14": null, "field_15": null, "field_16": null }, "geometry": { "type": "Point", "coordinates": [ -46.3957893, -21.6490554 ] } },
{ "type": "Feature", "properties": { "NROCNPJ_PAD": "23722024000150", "STATUS_MAILING": "PRIMEIRA CONSULTORIA REALIZADA PRESENCIAL", "NOME_FANTASIA": "MOVEIS PE DE FERRO", "RAZAO_SOCIAL": "JOAO MARQUES RIBEIRO 73148687604", "RESPONSAVEL": "JOAO MARQUES RIBEIRO", "MUNICIPIO": "BOTELHOS", "ENDEE": "TREZE DE MAIO, 690, CENTRO, 37720-000, BOTELHOS, MG, BRASIL", "BANCO": "SICREDI UNIESTADOS", "LINHA_AVAL_NOME": "GIRO", "LATITUDE": "-21.6486665", "LONGITUDE": "-46.3950171", "STATUS_OPERACIONAL": "APLICAR T2", "STATUS": "APLICAR T2", "field_14": null, "field_15": null, "field_16": null }, "geometry": { "type": "Point", "coordinates": [ -46.3950171, -21.6486665 ] } },
{ "type": "Feature", "properties": { "NROCNPJ_PAD": "46571514000106", "STATUS_MAILING": "PRIMEIRA CONSULTORIA REALIZADA PRESENCIAL", "NOME_FANTASIA": "EBA NATURE", "RAZAO_SOCIAL": "KAROLINE NAYARA CARVALHO", "RESPONSAVEL": "KAROLINENAYARACARVALHO", "MUNICIPIO": "BOTELHOS", "ENDEE": "TREZE DE MAIO, 535, CENTRO, 37720-000, BOTELHOS, MG, BRASIL", "BANCO": "SICOOB AGROCREDI", "LINHA_AVAL_NOME": "EMPREENDEDORISMO FEM", "LATITUDE": "-21.6500999", "LONGITUDE": "-46.395094", "STATUS_OPERACIONAL": "APLICAR T2", "STATUS": "APLICAR T2", "field_14": null, "field_15": null, "field_16": null }, "geometry": { "type": "Point", "coordinates": [ -46.395094, -21.6500999 ] } },
{ "type": "Feature", "properties": { "NROCNPJ_PAD": "37577198000180", "STATUS_MAILING": "PRIMEIRA CONSULTORIA REALIZADA PRESENCIAL", "NOME_FANTASIA": "DANIEL LANCHES", "RAZAO_SOCIAL": "DANIEL DE ARAUJO 97838284600", "RESPONSAVEL": "DANIEL DE ARAUJO", "MUNICIPIO": "BOTELHOS", "ENDEE": "DR ULISSES SILVA, 170, CENTRO, 37720-000, BOTELHOS, MG, BRASIL", "BANCO": "SICREDI UNIESTADOS", "LINHA_AVAL_NOME": "GIRO", "LATITUDE": "-21.6522543", "LONGITUDE": "-46.3953427", "STATUS_OPERACIONAL": "APLICAR T2", "STATUS": "APLICAR T2", "field_14": null, "field_15": null, "field_16": null }, "geometry": { "type": "Point", "coordinates": [ -46.3953427, -21.6522543 ] } },
{ "type": "Feature", "properties": { "NROCNPJ_PAD": "19057348000496", "STATUS_MAILING": "PRIMEIRA CONSULTORIA REALIZADA PRESENCIAL", "NOME_FANTASIA": null, "RAZAO_SOCIAL": "LABORATORIO DE ANALISES CLINICAS VIOTTI LTDA", "RESPONSAVEL": "LILIANEBARBOSADEFREITASARAUJO|OTAVIOARAUJORIBEIRO", "MUNICIPIO": "BOTELHOS", "ENDEE": "MAJOR ANTONIO ALBERTO FERNANDES, 457, CENTRO, 37720-000, BOTELHOS, MG, BRASIL", "BANCO": "SICOOB AGROCREDI", "LINHA_AVAL_NOME": "GIRO", "LATITUDE": "-21.6416569", "LONGITUDE": "-46.3916012", "STATUS_OPERACIONAL": "APLICAR T2", "STATUS": "APLICAR T2", "field_14": null, "field_15": null, "field_16": null }, "geometry": { "type": "Point", "coordinates": [ -46.3916012, -21.6416569 ] } },
{ "type": "Feature", "properties": { "NROCNPJ_PAD": "18212701000150", "STATUS_MAILING": "PRIMEIRA CONSULTORIA REALIZADA PRESENCIAL", "NOME_FANTASIA": "BAR E LANCHONETE DO DIL", "RAZAO_SOCIAL": "EDMILSON CARLOS BARBOSA", "RESPONSAVEL": "EDMILSONCARLOSBARBOSA", "MUNICIPIO": "BOTELHOS", "ENDEE": "MAJOR ANTONIO ALBERTO FERNANDES, 353, CENTRO, 37720-000, BOTELHOS, MG, BRASIL", "BANCO": "SICOOB AGROCREDI", "LINHA_AVAL_NOME": "GIRO", "LATITUDE": "-21.6416569", "LONGITUDE": "-46.3916012", "STATUS_OPERACIONAL": "APLICAR T2", "STATUS": "APLICAR T2", "field_14": null, "field_15": null, "field_16": null }, "geometry": { "type": "Point", "coordinates": [ -46.3916012, -21.6416569 ] } },
{ "type": "Feature", "properties": { "NROCNPJ_PAD": "17392803000131", "STATUS_MAILING": "PRIMEIRA CONSULTORIA REALIZADA PRESENCIAL", "NOME_FANTASIA": null, "RAZAO_SOCIAL": "ARISLENE CAROLINA FERREIRA DOS SANTOS 06284368666", "RESPONSAVEL": "ARISLENE CAROLINA FERREIRA DOS SANTOS", "MUNICIPIO": "BOTELHOS", "ENDEE": "Major Antonio Alberto Fernandes, 356, CENTRO, 37720-000, BOTELHOS, MG, BRASIL", "BANCO": "SICREDI UNIESTADOS", "LINHA_AVAL_NOME": "EMPREENDEDORISMO FEM", "LATITUDE": "-21.6416569", "LONGITUDE": "-46.3916012", "STATUS_OPERACIONAL": "APLICAR T2", "STATUS": "APLICAR T2", "field_14": null, "field_15": null, "field_16": null }, "geometry": { "type": "Point", "coordinates": [ -46.3916012, -21.6416569 ] } },
{ "type": "Feature", "properties": { "NROCNPJ_PAD": "38215383000198", "STATUS_MAILING": "PRIMEIRA CONSULTORIA REALIZADA PRESENCIAL", "NOME_FANTASIA": "MOES CONVENIENCIA.", "RAZAO_SOCIAL": "FABIO PAULO DOS REIS", "RESPONSAVEL": "FABIOPAULODOSREIS|JOBERSONDASILVACUSTODIO", "MUNICIPIO": "BOTELHOS", "ENDEE": "MAJOR ANTONIO ALBERTO FERNANDES, 185, CENTRO, 37720-000, BOTELHOS, MG, BRASIL", "BANCO": "SICOOB AGROCREDI", "LINHA_AVAL_NOME": "GIRO", "LATITUDE": "-21.6416569", "LONGITUDE": "-46.3916012", "STATUS_OPERACIONAL": "APLICAR T2", "STATUS": "APLICAR T2", "field_14": null, "field_15": null, "field_16": null }, "geometry": { "type": "Point", "coordinates": [ -46.3916012, -21.6416569 ] } },
{ "type": "Feature", "properties": { "NROCNPJ_PAD": "32035276000100", "STATUS_MAILING": "PRIMEIRA CONSULTORIA REALIZADA PRESENCIAL", "NOME_FANTASIA": "FABRICA DE OCULOS - PRODUTOS OPTICOS", "RAZAO_SOCIAL": "FABRICA DE OCULOS - PRODUTOS OPTICOS LTDA", "RESPONSAVEL": "VIVIANELUIZABARBOSASULEIMAN", "MUNICIPIO": "BOTELHOS", "ENDEE": "MAJOR ANTONIO ALBERTO FERNANDES, 200, CENTRO, 37720-000, BOTELHOS, MG, BRASIL", "BANCO": "SICOOB AGROCREDI", "LINHA_AVAL_NOME": "EMPREENDEDORISMO FEM", "LATITUDE": "-21.6416569", "LONGITUDE": "-46.3916012", "STATUS_OPERACIONAL": "APLICAR T2", "STATUS": "APLICAR T2", "field_14": null, "field_15": null, "field_16": null }, "geometry": { "type": "Point", "coordinates": [ -46.3916012, -21.6416569 ] } },
{ "type": "Feature", "properties": { "NROCNPJ_PAD": "18235637000122", "STATUS_MAILING": "PRIMEIRA CONSULTORIA REALIZADA PRESENCIAL", "NOME_FANTASIA": "ESPACO COUNTRY", "RAZAO_SOCIAL": "18.235.637 TULIO JOSE NEDER SIQUEIRA", "RESPONSAVEL": "TULIO JOSE NEDER SIQUEIRA", "MUNICIPIO": "BOTELHOS", "ENDEE": "TREZE DE MAIO, 714, CENTRO, 37720-000, BOTELHOS, MG, BRASIL", "BANCO": "SICREDI UNIESTADOS", "LINHA_AVAL_NOME": "GIRO", "LATITUDE": "-21.6480631", "LONGITUDE": "-46.3946273", "STATUS_OPERACIONAL": "APLICAR T2", "STATUS": "APLICAR T2", "field_14": null, "field_15": null, "field_16": null }, "geometry": { "type": "Point", "coordinates": [ -46.3946273, -21.6480631 ] } },
{ "type": "Feature", "properties": { "NROCNPJ_PAD": "61882317000193", "STATUS_MAILING": "EMPRESA ELEGÍVEL ONLINE SEM SUCESSO NO CONTATO TELEFÔNICO/EMPRESA ELEGÍVEL PRESENCIAL NÃO VISITADA", "NOME_FANTASIA": null, "RAZAO_SOCIAL": "61.882.317 CELIO ROBERTO GARCIA", "RESPONSAVEL": "CELIO ROBERTO GARCIA", "MUNICIPIO": "BOTELHOS", "ENDEE": "JOAO BATISTA NOGUEIRA, 449, PALMEIRAL, 37720-000, BOTELHOS, MG, BRASIL", "BANCO": "SICREDI UNIESTADOS", "LINHA_AVAL_NOME": "GIRO", "LATITUDE": "-21.6376211", "LONGITUDE": "-46.5174188", "STATUS_OPERACIONAL": "CARTEIRA", "STATUS": "CARTEIRA", "field_14": null, "field_15": null, "field_16": null }, "geometry": { "type": "Point", "coordinates": [ -46.5174188, -21.6376211 ] } },
{ "type": "Feature", "properties": { "NROCNPJ_PAD": "61251253000122", "STATUS_MAILING": "EMPRESA ELEGÍVEL ONLINE SEM SUCESSO NO CONTATO TELEFÔNICO/EMPRESA ELEGÍVEL PRESENCIAL NÃO VISITADA", "NOME_FANTASIA": null, "RAZAO_SOCIAL": "61.251.253 PAMELA CRISTINA BERNARDO", "RESPONSAVEL": "PAMELA CRISTINA BERNARDO", "MUNICIPIO": "BOTELHOS", "ENDEE": "RUA, 415, PALMEIRAL, 37725-000, BOTELHOS, MG, BRASIL", "BANCO": "SICREDI UNIESTADOS", "LINHA_AVAL_NOME": "EMPREENDEDORISMO FEM", "LATITUDE": "-21.6377618", "LONGITUDE": "-46.5174497", "STATUS_OPERACIONAL": "CARTEIRA", "STATUS": "CARTEIRA", "field_14": null, "field_15": null, "field_16": null }, "geometry": { "type": "Point", "coordinates": [ -46.5174497, -21.6377618 ] } },
{ "type": "Feature", "properties": { "NROCNPJ_PAD": "27240838000109", "STATUS_MAILING": "EMPRESA ELEGÍVEL ONLINE SEM SUCESSO NO CONTATO TELEFÔNICO/EMPRESA ELEGÍVEL PRESENCIAL NÃO VISITADA", "NOME_FANTASIA": "SALAO BRILHUS", "RAZAO_SOCIAL": "TALITA LUIZA VILELA BENELLI 11000196690", "RESPONSAVEL": "TALITA LUIZA VILELA BENELLI", "MUNICIPIO": "BOTELHOS", "ENDEE": "PROFESSORA ISALTINA, 556, PALMEIRAL, 37720-000, BOTELHOS, MG, BRASIL", "BANCO": "SICREDI UNIESTADOS", "LINHA_AVAL_NOME": "EMPREENDEDORISMO FEM", "LATITUDE": "-21.6377618", "LONGITUDE": "-46.5174497", "STATUS_OPERACIONAL": "CARTEIRA", "STATUS": "CARTEIRA", "field_14": null, "field_15": null, "field_16": null }, "geometry": { "type": "Point", "coordinates": [ -46.5174497, -21.6377618 ] } },
{ "type": "Feature", "properties": { "NROCNPJ_PAD": "21634748000116", "STATUS_MAILING": "EMPRESA ELEGÍVEL ONLINE SEM SUCESSO NO CONTATO TELEFÔNICO/EMPRESA ELEGÍVEL PRESENCIAL NÃO VISITADA", "NOME_FANTASIA": "CONFECCOES BENELLI", "RAZAO_SOCIAL": "21.634.748 MARIA JOSE DE LIMA BENELLI", "RESPONSAVEL": "MARIA JOSE DE LIMA BENELLI", "MUNICIPIO": "BOTELHOS", "ENDEE": "PROFESSORA IZALTINA, 556, PALMEIRAL, 37725-000, BOTELHOS, MG, BRASIL", "BANCO": "SICREDI UNIESTADOS", "LINHA_AVAL_NOME": "EMPREENDEDORISMO FEM", "LATITUDE": "-21.6384625", "LONGITUDE": "-46.5147335", "STATUS_OPERACIONAL": "CARTEIRA", "STATUS": "CARTEIRA", "field_14": null, "field_15": null, "field_16": null }, "geometry": { "type": "Point", "coordinates": [ -46.5147335, -21.6384625 ] } },
{ "type": "Feature", "properties": { "NROCNPJ_PAD": "40419668000192", "STATUS_MAILING": "EMPRESA ELEGÍVEL ONLINE SEM SUCESSO NO CONTATO TELEFÔNICO/EMPRESA ELEGÍVEL PRESENCIAL NÃO VISITADA", "NOME_FANTASIA": null, "RAZAO_SOCIAL": "NELSON DE BRITO 51045281620", "RESPONSAVEL": "NELSON DE BRITO", "MUNICIPIO": "BOTELHOS", "ENDEE": "GUANABARA, 380, BOTELHINHO, 37720-000, BOTELHOS, MG, BRASIL", "BANCO": "SICREDI UNIESTADOS", "LINHA_AVAL_NOME": "GIRO", "LATITUDE": "-21.6412492", "LONGITUDE": "-46.397324", "STATUS_OPERACIONAL": "CARTEIRA", "STATUS": "CARTEIRA", "field_14": null, "field_15": null, "field_16": null }, "geometry": { "type": "Point", "coordinates": [ -46.397324, -21.6412492 ] } },
{ "type": "Feature", "properties": { "NROCNPJ_PAD": "61614919000160", "STATUS_MAILING": "EMPRESA ELEGÍVEL ONLINE SEM SUCESSO NO CONTATO TELEFÔNICO/EMPRESA ELEGÍVEL PRESENCIAL NÃO VISITADA", "NOME_FANTASIA": null, "RAZAO_SOCIAL": "61.614.919 NILTON CESAR DINIZ", "RESPONSAVEL": "NILTON CESAR DINIZ", "MUNICIPIO": "BOTELHOS", "ENDEE": "SERGIO TIBURCIO, 43, JARDIM SAO BENTO, 37720-000, BOTELHOS, MG, BRASIL", "BANCO": "SICREDI UNIESTADOS", "LINHA_AVAL_NOME": "GIRO", "LATITUDE": "-21.6416225", "LONGITUDE": "-46.4011233", "STATUS_OPERACIONAL": "CARTEIRA", "STATUS": "CARTEIRA", "field_14": null, "field_15": null, "field_16": null }, "geometry": { "type": "Point", "coordinates": [ -46.4011233, -21.6416225 ] } },
{ "type": "Feature", "properties": { "NROCNPJ_PAD": "97530289000192", "STATUS_MAILING": "EMPRESA ELEGÍVEL ONLINE SEM SUCESSO NO CONTATO TELEFÔNICO/EMPRESA ELEGÍVEL PRESENCIAL NÃO VISITADA", "NOME_FANTASIA": "NO ALGE", "RAZAO_SOCIAL": "JORDANA LINA FONSECA DA SILVA 06858828613", "RESPONSAVEL": "JORDANA LINA FONSECA DA SILVA", "MUNICIPIO": "BOTELHOS", "ENDEE": "MAJOR ANTONIO ALBERTO FERNANDES, 301, CENTRO, 37720-000, BOTELHOS, MG, BRASIL", "BANCO": "SICREDI UNIESTADOS", "LINHA_AVAL_NOME": "EMPREENDEDORISMO FEM", "LATITUDE": "-21.6416569", "LONGITUDE": "-46.3916012", "STATUS_OPERACIONAL": "CARTEIRA", "STATUS": "CARTEIRA", "field_14": null, "field_15": null, "field_16": null }, "geometry": { "type": "Point", "coordinates": [ -46.3916012, -21.6416569 ] } },
{ "type": "Feature", "properties": { "NROCNPJ_PAD": "45005609000191", "STATUS_MAILING": "EMPRESA ELEGÍVEL ONLINE SEM SUCESSO NO CONTATO TELEFÔNICO/EMPRESA ELEGÍVEL PRESENCIAL NÃO VISITADA", "NOME_FANTASIA": "WANNY CARULINE HAIR STYLIST", "RAZAO_SOCIAL": "WANNY CARULINE MENDES 10423334670", "RESPONSAVEL": "WANNY CARULINE MENDES", "MUNICIPIO": "BOTELHOS", "ENDEE": "MAJOR ANTONIO ALBERTO FERNANDES, 283, CENTRO, 37720-000, BOTELHOS, MG, BRASIL", "BANCO": "SICREDI UNIESTADOS", "LINHA_AVAL_NOME": "EMPREENDEDORISMO FEM", "LATITUDE": "-21.6416569", "LONGITUDE": "-46.3916012", "STATUS_OPERACIONAL": "CARTEIRA", "STATUS": "CARTEIRA", "field_14": null, "field_15": null, "field_16": null }, "geometry": { "type": "Point", "coordinates": [ -46.3916012, -21.6416569 ] } },
{ "type": "Feature", "properties": { "NROCNPJ_PAD": "61548865000181", "STATUS_MAILING": "EMPRESA ELEGÍVEL ONLINE SEM SUCESSO NO CONTATO TELEFÔNICO/EMPRESA ELEGÍVEL PRESENCIAL NÃO VISITADA", "NOME_FANTASIA": null, "RAZAO_SOCIAL": "AMIR DOS REIS FIGUEIREDO - ELETRICISTA", "RESPONSAVEL": "AMIR DOS REIS FIGUEIREDO", "MUNICIPIO": "BOTELHOS", "ENDEE": "AFFONSO ROMAO SIQUEIRA, 235, JARDIM IPE, 37720-000, BOTELHOS, MG, BRASIL", "BANCO": "SICREDI UNIESTADOS", "LINHA_AVAL_NOME": "GIRO", "LATITUDE": "-21.6424315", "LONGITUDE": "-46.3990522", "STATUS_OPERACIONAL": "CARTEIRA", "STATUS": "CARTEIRA", "field_14": null, "field_15": null, "field_16": null }, "geometry": { "type": "Point", "coordinates": [ -46.3990522, -21.6424315 ] } },
{ "type": "Feature", "properties": { "NROCNPJ_PAD": "46628093000102", "STATUS_MAILING": "EMPRESA ELEGÍVEL ONLINE SEM SUCESSO NO CONTATO TELEFÔNICO/EMPRESA ELEGÍVEL PRESENCIAL NÃO VISITADA", "NOME_FANTASIA": null, "RAZAO_SOCIAL": "46.628.093 ADRIANO DUARTE", "RESPONSAVEL": "ADRIANODUARTE", "MUNICIPIO": "BOTELHOS", "ENDEE": "CORONEL VIRGILIO SILVA, 139, CENTRO, 37720-000, BOTELHOS, MG, BRASIL", "BANCO": "SICOOB AGROCREDI", "LINHA_AVAL_NOME": "GIRO", "LATITUDE": "-21.6425984", "LONGITUDE": "-46.3961751", "STATUS_OPERACIONAL": "CARTEIRA", "STATUS": "CARTEIRA", "field_14": null, "field_15": null, "field_16": null }, "geometry": { "type": "Point", "coordinates": [ -46.3961751, -21.6425984 ] } },
{ "type": "Feature", "properties": { "NROCNPJ_PAD": "41346406000108", "STATUS_MAILING": "EMPRESA ELEGÍVEL ONLINE SEM SUCESSO NO CONTATO TELEFÔNICO/EMPRESA ELEGÍVEL PRESENCIAL NÃO VISITADA", "NOME_FANTASIA": "ISABELLA RAMOS CONTABILIDADE", "RAZAO_SOCIAL": "ISABELLA RAMOS NOGUEIRA", "RESPONSAVEL": "ISABELLA RAMOS NOGUEIRA", "MUNICIPIO": "BOTELHOS", "ENDEE": "PADRES OBLATOS, 69, PALMEIRAL, 37725-000, BOTELHOS, MG, BRASIL", "BANCO": "SICREDI UNIESTADOS", "LINHA_AVAL_NOME": "EMPREENDEDORISMO FEM", "LATITUDE": "-21.6428096", "LONGITUDE": "-46.397468", "STATUS_OPERACIONAL": "CARTEIRA", "STATUS": "CARTEIRA", "field_14": null, "field_15": null, "field_16": null }, "geometry": { "type": "Point", "coordinates": [ -46.397468, -21.6428096 ] } },
{ "type": "Feature", "properties": { "NROCNPJ_PAD": "52662311000110", "STATUS_MAILING": "EMPRESA ELEGÍVEL ONLINE SEM SUCESSO NO CONTATO TELEFÔNICO/EMPRESA ELEGÍVEL PRESENCIAL NÃO VISITADA", "NOME_FANTASIA": "EXCURSOES J&E", "RAZAO_SOCIAL": "52.662.311 EVELIZ APARECIDA FERREIRA BERNARDES", "RESPONSAVEL": "EVELIZ APARECIDA FERREIRA BERNARDES", "MUNICIPIO": "BOTELHOS", "ENDEE": "ANTONIO SILVEIRA LIMA, 60, JARDIM ELDORADO, 37720-000, BOTELHOS, MG, BRASIL", "BANCO": "SICREDI UNIESTADOS", "LINHA_AVAL_NOME": "EMPREENDEDORISMO FEM", "LATITUDE": "-21.642963", "LONGITUDE": "-46.3934763", "STATUS_OPERACIONAL": "CARTEIRA", "STATUS": "CARTEIRA", "field_14": null, "field_15": null, "field_16": null }, "geometry": { "type": "Point", "coordinates": [ -46.3934763, -21.642963 ] } },
{ "type": "Feature", "properties": { "NROCNPJ_PAD": "61854223000100", "STATUS_MAILING": "EMPRESA ELEGÍVEL ONLINE SEM SUCESSO NO CONTATO TELEFÔNICO/EMPRESA ELEGÍVEL PRESENCIAL NÃO VISITADA", "NOME_FANTASIA": null, "RAZAO_SOCIAL": "61.854.223 VALDELI DE OLIVEIRA", "RESPONSAVEL": "VALDELI DE OLIVEIRA", "MUNICIPIO": "BOTELHOS", "ENDEE": "SEBASTIAO MENDES FILHO, 84, JARDIM YPE, 37720-000, BOTELHOS, MG, BRASIL", "BANCO": "SICREDI UNIESTADOS", "LINHA_AVAL_NOME": "GIRO", "LATITUDE": "-21.6431042", "LONGITUDE": "-46.3991118", "STATUS_OPERACIONAL": "CARTEIRA", "STATUS": "CARTEIRA", "field_14": null, "field_15": null, "field_16": null }, "geometry": { "type": "Point", "coordinates": [ -46.3991118, -21.6431042 ] } },
{ "type": "Feature", "properties": { "NROCNPJ_PAD": "56951723000120", "STATUS_MAILING": "EMPRESA ELEGÍVEL ONLINE SEM SUCESSO NO CONTATO TELEFÔNICO/EMPRESA ELEGÍVEL PRESENCIAL NÃO VISITADA", "NOME_FANTASIA": null, "RAZAO_SOCIAL": "56.951.723 KEILA MARCIA GONCALVES", "RESPONSAVEL": "KEILA MARCIA GONCALVES", "MUNICIPIO": "BOTELHOS", "ENDEE": "CLOVIS XAVIER LOPES, 11, JARDIM ELDORADO, 37720-000, BOTELHOS, MG, BRASIL", "BANCO": "SICREDI UNIESTADOS", "LINHA_AVAL_NOME": "EMPREENDEDORISMO FEM", "LATITUDE": "-21.6433748", "LONGITUDE": "-46.3902398", "STATUS_OPERACIONAL": "CARTEIRA", "STATUS": "CARTEIRA", "field_14": null, "field_15": null, "field_16": null }, "geometry": { "type": "Point", "coordinates": [ -46.3902398, -21.6433748 ] } },
{ "type": "Feature", "properties": { "NROCNPJ_PAD": "62049877000124", "STATUS_MAILING": "EMPRESA ELEGÍVEL ONLINE SEM SUCESSO NO CONTATO TELEFÔNICO/EMPRESA ELEGÍVEL PRESENCIAL NÃO VISITADA", "NOME_FANTASIA": null, "RAZAO_SOCIAL": "62.049.877 CAMILA APARECIDA JUSTINO", "RESPONSAVEL": "CAMILA APARECIDA JUSTINO", "MUNICIPIO": "BOTELHOS", "ENDEE": "MIGUEL CARDILHO, 270, JARDIM ELDORADO, 37720-000, BOTELHOS, MG, BRASIL", "BANCO": "SICREDI UNIESTADOS", "LINHA_AVAL_NOME": "EMPREENDEDORISMO FEM", "LATITUDE": "-21.6450264", "LONGITUDE": "-46.3927761", "STATUS_OPERACIONAL": "CARTEIRA", "STATUS": "CARTEIRA", "field_14": null, "field_15": null, "field_16": null }, "geometry": { "type": "Point", "coordinates": [ -46.3927761, -21.6450264 ] } },
{ "type": "Feature", "properties": { "NROCNPJ_PAD": "05878347000155", "STATUS_MAILING": "EMPRESA ELEGÍVEL ONLINE SEM SUCESSO NO CONTATO TELEFÔNICO/EMPRESA ELEGÍVEL PRESENCIAL NÃO VISITADA", "NOME_FANTASIA": "GRAFICA NOSSA SENHORA APARECIDA", "RAZAO_SOCIAL": "NERINTON CARMO DA SILVA CPF 15751524870", "RESPONSAVEL": "NERINTON CARMO DA SILVA", "MUNICIPIO": "BOTELHOS", "ENDEE": "DR GUILHERME BOLZAN, 00134, CENTRO, 37720-000, BOTELHOS, MG, BRASIL", "BANCO": "SICREDI UNIESTADOS", "LINHA_AVAL_NOME": "GIRO", "LATITUDE": "-21.6452465", "LONGITUDE": "-46.3958774", "STATUS_OPERACIONAL": "CARTEIRA", "STATUS": "CARTEIRA", "field_14": null, "field_15": null, "field_16": null }, "geometry": { "type": "Point", "coordinates": [ -46.3958774, -21.6452465 ] } },
{ "type": "Feature", "properties": { "NROCNPJ_PAD": "49003318000115", "STATUS_MAILING": "EMPRESA ELEGÍVEL ONLINE SEM SUCESSO NO CONTATO TELEFÔNICO/EMPRESA ELEGÍVEL PRESENCIAL NÃO VISITADA", "NOME_FANTASIA": null, "RAZAO_SOCIAL": "49.003.318 GEOVANI APARECIDO MARTINS", "RESPONSAVEL": "GEOVANI APARECIDO MARTINS", "MUNICIPIO": "BOTELHOS", "ENDEE": "JUVENCIO PRAXEDES ARAUJO, 312, JARDIM ELDORADO, 37720-000, BOTELHOS, MG, BRASIL", "BANCO": "SICREDI UNIESTADOS", "LINHA_AVAL_NOME": "GIRO", "LATITUDE": "-21.6455238", "LONGITUDE": "-46.3917971", "STATUS_OPERACIONAL": "CARTEIRA", "STATUS": "CARTEIRA", "field_14": null, "field_15": null, "field_16": null }, "geometry": { "type": "Point", "coordinates": [ -46.3917971, -21.6455238 ] } },
{ "type": "Feature", "properties": { "NROCNPJ_PAD": "50343566000194", "STATUS_MAILING": "EMPRESA ELEGÍVEL ONLINE SEM SUCESSO NO CONTATO TELEFÔNICO/EMPRESA ELEGÍVEL PRESENCIAL NÃO VISITADA", "NOME_FANTASIA": null, "RAZAO_SOCIAL": "50.343.566 MURILO MENDES DE SOUZA JUNIOR", "RESPONSAVEL": "MURILO MENDES DE SOUZA JUNIOR", "MUNICIPIO": "BOTELHOS", "ENDEE": "FRANCISCO TREZZA, 335, JARDIM ELDORADO, 37720-000, BOTELHOS, MG, BRASIL", "BANCO": "SICREDI UNIESTADOS", "LINHA_AVAL_NOME": "GIRO", "LATITUDE": "-21.6457705", "LONGITUDE": "-46.391138", "STATUS_OPERACIONAL": "CARTEIRA", "STATUS": "CARTEIRA", "field_14": null, "field_15": null, "field_16": null }, "geometry": { "type": "Point", "coordinates": [ -46.391138, -21.6457705 ] } },
{ "type": "Feature", "properties": { "NROCNPJ_PAD": "30380027000118", "STATUS_MAILING": "EMPRESA ELEGÍVEL ONLINE SEM SUCESSO NO CONTATO TELEFÔNICO/EMPRESA ELEGÍVEL PRESENCIAL NÃO VISITADA", "NOME_FANTASIA": null, "RAZAO_SOCIAL": "RENAN VIEIRA MACIEL 08592961645", "RESPONSAVEL": "RENAN VIEIRA MACIEL", "MUNICIPIO": "BOTELHOS", "ENDEE": "Juvencio Praxedes de Araujo, 415, Jardim Eldorado, 37720-000, BOTELHOS, MG, BRASIL", "BANCO": "SICREDI UNIESTADOS", "LINHA_AVAL_NOME": "GIRO", "LATITUDE": "-21.6464419", "LONGITUDE": "-46.3915906", "STATUS_OPERACIONAL": "CARTEIRA", "STATUS": "CARTEIRA", "field_14": null, "field_15": null, "field_16": null }, "geometry": { "type": "Point", "coordinates": [ -46.3915906, -21.6464419 ] } },
{ "type": "Feature", "properties": { "NROCNPJ_PAD": "57818988000118", "STATUS_MAILING": "EMPRESA ELEGÍVEL ONLINE SEM SUCESSO NO CONTATO TELEFÔNICO/EMPRESA ELEGÍVEL PRESENCIAL NÃO VISITADA", "NOME_FANTASIA": null, "RAZAO_SOCIAL": "57.818.988 STEPHANIE ANDRIELE DE BRITO", "RESPONSAVEL": "STEPHANIE ANDRIELE DE BRITO", "MUNICIPIO": "BOTELHOS", "ENDEE": "ALFREDO MACHADO, 460, JARDIM ELDORADO, 37720-000, BOTELHOS, MG, BRASIL", "BANCO": "SICREDI UNIESTADOS", "LINHA_AVAL_NOME": "EMPREENDEDORISMO FEM", "LATITUDE": "-21.6465456", "LONGITUDE": "-46.3903093", "STATUS_OPERACIONAL": "CARTEIRA", "STATUS": "CARTEIRA", "field_14": null, "field_15": null, "field_16": null }, "geometry": { "type": "Point", "coordinates": [ -46.3903093, -21.6465456 ] } },
{ "type": "Feature", "properties": { "NROCNPJ_PAD": "02312625000114", "STATUS_MAILING": "EMPRESA ELEGÍVEL ONLINE SEM SUCESSO NO CONTATO TELEFÔNICO/EMPRESA ELEGÍVEL PRESENCIAL NÃO VISITADA", "NOME_FANTASIA": "NUTRIMINAS", "RAZAO_SOCIAL": "02.312.625 RILDO REIS DE SOUZA", "RESPONSAVEL": "RILDOREISDESOUZA", "MUNICIPIO": "BOTELHOS", "ENDEE": "BRASIL, 179, CENTRO, 37720-000, BOTELHOS, MG, BRASIL", "BANCO": "SICOOB AGROCREDI", "LINHA_AVAL_NOME": "GIRO", "LATITUDE": "-21.6473355", "LONGITUDE": "-46.3953156", "STATUS_OPERACIONAL": "CARTEIRA", "STATUS": "CARTEIRA", "field_14": null, "field_15": null, "field_16": null }, "geometry": { "type": "Point", "coordinates": [ -46.3953156, -21.6473355 ] } },
{ "type": "Feature", "properties": { "NROCNPJ_PAD": "14874402000120", "STATUS_MAILING": "EMPRESA ELEGÍVEL ONLINE SEM SUCESSO NO CONTATO TELEFÔNICO/EMPRESA ELEGÍVEL PRESENCIAL NÃO VISITADA", "NOME_FANTASIA": "PADARIA SANTA CRUZ", "RAZAO_SOCIAL": "14.874.402 RENEE REIS DIAS", "RESPONSAVEL": "RENEE REIS DIAS", "MUNICIPIO": "BOTELHOS", "ENDEE": "BELA VISTA, 0, ZONA RURAL, 37720-000, BOTELHOS, MG, BRASIL", "BANCO": "SICREDI UNIESTADOS", "LINHA_AVAL_NOME": "EMPREENDEDORISMO FEM", "LATITUDE": "-21.6473355", "LONGITUDE": "-46.3953156", "STATUS_OPERACIONAL": "CARTEIRA", "STATUS": "CARTEIRA", "field_14": null, "field_15": null, "field_16": null }, "geometry": { "type": "Point", "coordinates": [ -46.3953156, -21.6473355 ] } },
{ "type": "Feature", "properties": { "NROCNPJ_PAD": "33252088000198", "STATUS_MAILING": "EMPRESA ELEGÍVEL ONLINE SEM SUCESSO NO CONTATO TELEFÔNICO/EMPRESA ELEGÍVEL PRESENCIAL NÃO VISITADA", "NOME_FANTASIA": null, "RAZAO_SOCIAL": "J H DE SOUZA ENGENHARIA", "RESPONSAVEL": "JOAOHENRIQUEDESOUZA", "MUNICIPIO": "BOTELHOS", "ENDEE": "BRASIL, 382, CENTRO, 37720-000, BOTELHOS, MG, BRASIL", "BANCO": "SICOOB AGROCREDI", "LINHA_AVAL_NOME": "GIRO", "LATITUDE": "-21.6473355", "LONGITUDE": "-46.3953156", "STATUS_OPERACIONAL": "CARTEIRA", "STATUS": "CARTEIRA", "field_14": null, "field_15": null, "field_16": null }, "geometry": { "type": "Point", "coordinates": [ -46.3953156, -21.6473355 ] } },
{ "type": "Feature", "properties": { "NROCNPJ_PAD": "19833813000190", "STATUS_MAILING": "EMPRESA ELEGÍVEL ONLINE SEM SUCESSO NO CONTATO TELEFÔNICO/EMPRESA ELEGÍVEL PRESENCIAL NÃO VISITADA", "NOME_FANTASIA": null, "RAZAO_SOCIAL": "SUPERMERCADOS IDEAL LTDA", "RESPONSAVEL": "ELAINECRISTINADOSREISMELO|RENATODEMELO", "MUNICIPIO": "BOTELHOS", "ENDEE": "MAJOR A A FERNANDES, 560, CENTRO, 37720-000, BOTELHOS, MG, BRASIL", "BANCO": "SICOOB AGROCREDI", "LINHA_AVAL_NOME": "GIRO", "LATITUDE": "-21.6473355", "LONGITUDE": "-46.3953156", "STATUS_OPERACIONAL": "CARTEIRA", "STATUS": "CARTEIRA", "field_14": null, "field_15": null, "field_16": null }, "geometry": { "type": "Point", "coordinates": [ -46.3953156, -21.6473355 ] } },
{ "type": "Feature", "properties": { "NROCNPJ_PAD": "34347224000196", "STATUS_MAILING": "EMPRESA ELEGÍVEL ONLINE SEM SUCESSO NO CONTATO TELEFÔNICO/EMPRESA ELEGÍVEL PRESENCIAL NÃO VISITADA", "NOME_FANTASIA": null, "RAZAO_SOCIAL": "34.347.224 ANA MARIA NEDER SIQUEIRA", "RESPONSAVEL": "ANA MARIA NEDER SIQUEIRA", "MUNICIPIO": "BOTELHOS", "ENDEE": "TREZE DE MAIO, 714, CENTRO, 37720-000, BOTELHOS, MG, BRASIL", "BANCO": "SICREDI UNIESTADOS", "LINHA_AVAL_NOME": "EMPREENDEDORISMO FEM", "LATITUDE": "-21.6480631", "LONGITUDE": "-46.3946273", "STATUS_OPERACIONAL": "CARTEIRA", "STATUS": "CARTEIRA", "field_14": null, "field_15": null, "field_16": null }, "geometry": { "type": "Point", "coordinates": [ -46.3946273, -21.6480631 ] } },
{ "type": "Feature", "properties": { "NROCNPJ_PAD": "40590555000155", "STATUS_MAILING": "EMPRESA ELEGÍVEL ONLINE SEM SUCESSO NO CONTATO TELEFÔNICO/EMPRESA ELEGÍVEL PRESENCIAL NÃO VISITADA", "NOME_FANTASIA": null, "RAZAO_SOCIAL": "CLINICA VEM SER LTDA", "RESPONSAVEL": "DENISE GONCALVES DIAS AMARO", "MUNICIPIO": "BOTELHOS", "ENDEE": "TIRADENTES, 762, CENTRO, 37720-000, BOTELHOS, MG, BRASIL", "BANCO": "SICREDI UNIESTADOS", "LINHA_AVAL_NOME": "EMPREENDEDORISMO FEM", "LATITUDE": "-21.649116", "LONGITUDE": "-46.3968807", "STATUS_OPERACIONAL": "CARTEIRA", "STATUS": "CARTEIRA", "field_14": null, "field_15": null, "field_16": null }, "geometry": { "type": "Point", "coordinates": [ -46.3968807, -21.649116 ] } },
{ "type": "Feature", "properties": { "NROCNPJ_PAD": "53241530000198", "STATUS_MAILING": "EMPRESA ELEGÍVEL ONLINE SEM SUCESSO NO CONTATO TELEFÔNICO/EMPRESA ELEGÍVEL PRESENCIAL NÃO VISITADA", "NOME_FANTASIA": null, "RAZAO_SOCIAL": "FERNANDO AUGUSTO DA SILVA 14273135639", "RESPONSAVEL": "FERNANDO AUGUSTO DA SILVA", "MUNICIPIO": "BOTELHOS", "ENDEE": "ADORNIRIO GONCALVES, 19, CENTRO, 37720-000, BOTELHOS, MG, BRASIL", "BANCO": "SICREDI UNIESTADOS", "LINHA_AVAL_NOME": "GIRO", "LATITUDE": "-21.6492556", "LONGITUDE": "-46.3948571", "STATUS_OPERACIONAL": "CARTEIRA", "STATUS": "CARTEIRA", "field_14": null, "field_15": null, "field_16": null }, "geometry": { "type": "Point", "coordinates": [ -46.3948571, -21.6492556 ] } },
{ "type": "Feature", "properties": { "NROCNPJ_PAD": "26902571000105", "STATUS_MAILING": "EMPRESA ELEGÍVEL ONLINE SEM SUCESSO NO CONTATO TELEFÔNICO/EMPRESA ELEGÍVEL PRESENCIAL NÃO VISITADA", "NOME_FANTASIA": "EVELYN PROFILI", "RAZAO_SOCIAL": "EVELYN PEREIRA PROFILI", "RESPONSAVEL": "EVELYNPEREIRAPROFILI", "MUNICIPIO": "BOTELHOS", "ENDEE": "Luiz Begalli, 115, centro, 37720-000, BOTELHOS, MG, BRASIL", "BANCO": "SICOOB AGROCREDI", "LINHA_AVAL_NOME": "EMPREENDEDORISMO FEM", "LATITUDE": "-21.6507073", "LONGITUDE": "-46.3935328", "STATUS_OPERACIONAL": "CARTEIRA", "STATUS": "CARTEIRA", "field_14": null, "field_15": null, "field_16": null }, "geometry": { "type": "Point", "coordinates": [ -46.3935328, -21.6507073 ] } },
{ "type": "Feature", "properties": { "NROCNPJ_PAD": "10780207000180", "STATUS_MAILING": "EMPRESA ELEGÍVEL ONLINE SEM SUCESSO NO CONTATO TELEFÔNICO/EMPRESA ELEGÍVEL PRESENCIAL NÃO VISITADA", "NOME_FANTASIA": null, "RAZAO_SOCIAL": "DANIELA A BEGALLI HORTIFRUTI", "RESPONSAVEL": "DANIELAALEXANDREBEGALLI", "MUNICIPIO": "BOTELHOS", "ENDEE": "SERGIO PAULO DIAS, 35, CENTRO, 37720-000, BOTELHOS, MG, BRASIL", "BANCO": "SICOOB AGROCREDI", "LINHA_AVAL_NOME": "GIRO", "LATITUDE": "-21.6517763", "LONGITUDE": "-46.3928468", "STATUS_OPERACIONAL": "CARTEIRA", "STATUS": "CARTEIRA", "field_14": null, "field_15": null, "field_16": null }, "geometry": { "type": "Point", "coordinates": [ -46.3928468, -21.6517763 ] } },
{ "type": "Feature", "properties": { "NROCNPJ_PAD": "41736654000165", "STATUS_MAILING": "EMPRESA ELEGÍVEL ONLINE SEM SUCESSO NO CONTATO TELEFÔNICO/EMPRESA ELEGÍVEL PRESENCIAL NÃO VISITADA", "NOME_FANTASIA": null, "RAZAO_SOCIAL": "A. R. CONTABILIDADE SOCIEDADE UNIPESSOAL LTDA", "RESPONSAVEL": "ANARITADOSREIS", "MUNICIPIO": "BOTELHOS", "ENDEE": "DOUTOR ULISSES SILVA, 213, CENTRO, 37720-000, BOTELHOS, MG, BRASIL", "BANCO": "SICOOB AGROCREDI", "LINHA_AVAL_NOME": "EMPREENDEDORISMO FEM", "LATITUDE": "-21.6525252", "LONGITUDE": "-46.3950758", "STATUS_OPERACIONAL": "CARTEIRA", "STATUS": "CARTEIRA", "field_14": null, "field_15": null, "field_16": null }, "geometry": { "type": "Point", "coordinates": [ -46.3950758, -21.6525252 ] } },
{ "type": "Feature", "properties": { "NROCNPJ_PAD": "47887745000188", "STATUS_MAILING": "EMPRESA ELEGÍVEL ONLINE SEM SUCESSO NO CONTATO TELEFÔNICO/EMPRESA ELEGÍVEL PRESENCIAL NÃO VISITADA", "NOME_FANTASIA": "VINICIUS ELETRICISTA", "RAZAO_SOCIAL": "ELAR SOLUCOES ELETRICAS E HIDRAULICAS LTDA", "RESPONSAVEL": "VINICIUSGOMESDESOUZA", "MUNICIPIO": "BOTELHOS", "ENDEE": "JOSE DE ANDRADE, 697, SERRA VERDE, 37720-000, BOTELHOS, MG, BRASIL", "BANCO": "SICOOB AGROCREDI", "LINHA_AVAL_NOME": "GIRO", "LATITUDE": "-21.6529489", "LONGITUDE": "-46.3916336", "STATUS_OPERACIONAL": "CARTEIRA", "STATUS": "CARTEIRA", "field_14": null, "field_15": null, "field_16": null }, "geometry": { "type": "Point", "coordinates": [ -46.3916336, -21.6529489 ] } },
{ "type": "Feature", "properties": { "NROCNPJ_PAD": "33215944000135", "STATUS_MAILING": "EMPRESA ELEGÍVEL ONLINE SEM SUCESSO NO CONTATO TELEFÔNICO/EMPRESA ELEGÍVEL PRESENCIAL NÃO VISITADA", "NOME_FANTASIA": "MERCEARIA VIANA", "RAZAO_SOCIAL": "NEIDE APARECIDA VIANA", "RESPONSAVEL": "NEIDE APARECIDA VIANA", "MUNICIPIO": "BOTELHOS", "ENDEE": "HERCULANO DO LAGO, 342, SANTA CRUZ, 37720-000, BOTELHOS, MG, BRASIL", "BANCO": "SICREDI UNIESTADOS", "LINHA_AVAL_NOME": "EMPREENDEDORISMO FEM", "LATITUDE": "-21.6534513", "LONGITUDE": "-46.3926254", "STATUS_OPERACIONAL": "CARTEIRA", "STATUS": "CARTEIRA", "field_14": null, "field_15": null, "field_16": null }, "geometry": { "type": "Point", "coordinates": [ -46.3926254, -21.6534513 ] } },
{ "type": "Feature", "properties": { "NROCNPJ_PAD": "29778637000195", "STATUS_MAILING": "EMPRESA ELEGÍVEL ONLINE SEM SUCESSO NO CONTATO TELEFÔNICO/EMPRESA ELEGÍVEL PRESENCIAL NÃO VISITADA", "NOME_FANTASIA": null, "RAZAO_SOCIAL": "29.778.637 DAVID ANTONIO DE PAULA", "RESPONSAVEL": "DAVIDANTONIODEPAULA", "MUNICIPIO": "BOTELHOS", "ENDEE": "SEBASTIAO VIEIRA, 241, CENTRO, 37720-000, BOTELHOS, MG, BRASIL", "BANCO": "SICREDI UNIESTADOS", "LINHA_AVAL_NOME": "GIRO", "LATITUDE": "-21.6537748", "LONGITUDE": "-46.3914953", "STATUS_OPERACIONAL": "CARTEIRA", "STATUS": "CARTEIRA", "field_14": null, "field_15": null, "field_16": null }, "geometry": { "type": "Point", "coordinates": [ -46.3914953, -21.6537748 ] } },
{ "type": "Feature", "properties": { "NROCNPJ_PAD": "45662050000172", "STATUS_MAILING": "EMPRESA ELEGÍVEL ONLINE SEM SUCESSO NO CONTATO TELEFÔNICO/EMPRESA ELEGÍVEL PRESENCIAL NÃO VISITADA", "NOME_FANTASIA": "SUL MINAS EMBALAGENS", "RAZAO_SOCIAL": "45.662.050 IZABEL CRISTINA VENANCIO", "RESPONSAVEL": "IZABEL CRISTINA VENANCIO", "MUNICIPIO": "BOTELHOS", "ENDEE": "DR. HELIO ANDRADE ALVES, 724, BOA VISTA, 37720-000, BOTELHOS, MG, BRASIL", "BANCO": "SICREDI UNIESTADOS", "LINHA_AVAL_NOME": "EMPREENDEDORISMO FEM", "LATITUDE": "-21.6540961", "LONGITUDE": "-46.4017372", "STATUS_OPERACIONAL": "CARTEIRA", "STATUS": "CARTEIRA", "field_14": null, "field_15": null, "field_16": null }, "geometry": { "type": "Point", "coordinates": [ -46.4017372, -21.6540961 ] } },
{ "type": "Feature", "properties": { "NROCNPJ_PAD": "13290629000165", "STATUS_MAILING": "EMPRESA ELEGÍVEL ONLINE SEM SUCESSO NO CONTATO TELEFÔNICO/EMPRESA ELEGÍVEL PRESENCIAL NÃO VISITADA", "NOME_FANTASIA": "SULMINAS EMBALAGENS", "RAZAO_SOCIAL": "AMARILDO TEIXEIRA DOS SANTOS", "RESPONSAVEL": "AMARILDO TEIXEIRA DOS SANTOS", "MUNICIPIO": "BOTELHOS", "ENDEE": "DR HELIO ANDRADE ALVES, 724, BOA VISTA, 37720-000, BOTELHOS, MG, BRASIL", "BANCO": "SICREDI UNIESTADOS", "LINHA_AVAL_NOME": "GIRO", "LATITUDE": "-21.6540961", "LONGITUDE": "-46.4017372", "STATUS_OPERACIONAL": "CARTEIRA", "STATUS": "CARTEIRA", "field_14": null, "field_15": null, "field_16": null }, "geometry": { "type": "Point", "coordinates": [ -46.4017372, -21.6540961 ] } },
{ "type": "Feature", "properties": { "NROCNPJ_PAD": "31144575000101", "STATUS_MAILING": "EMPRESA ELEGÍVEL ONLINE SEM SUCESSO NO CONTATO TELEFÔNICO/EMPRESA ELEGÍVEL PRESENCIAL NÃO VISITADA", "NOME_FANTASIA": null, "RAZAO_SOCIAL": "DULCINEA BERNARDES SILVANO 00022577696", "RESPONSAVEL": "DULCINEA BERNARDES SILVANO", "MUNICIPIO": "BOTELHOS", "ENDEE": "DR ULISSES SILVA, 393, CENTRO, 37720-000, BOTELHOS, MG, BRASIL", "BANCO": "SICREDI UNIESTADOS", "LINHA_AVAL_NOME": "EMPREENDEDORISMO FEM", "LATITUDE": "-21.6542028", "LONGITUDE": "-46.394988", "STATUS_OPERACIONAL": "CARTEIRA", "STATUS": "CARTEIRA", "field_14": null, "field_15": null, "field_16": null }, "geometry": { "type": "Point", "coordinates": [ -46.394988, -21.6542028 ] } },
{ "type": "Feature", "properties": { "NROCNPJ_PAD": "30758357000102", "STATUS_MAILING": "EMPRESA ELEGÍVEL ONLINE SEM SUCESSO NO CONTATO TELEFÔNICO/EMPRESA ELEGÍVEL PRESENCIAL NÃO VISITADA", "NOME_FANTASIA": "BAR SANTA RITA", "RAZAO_SOCIAL": "JULIETE DE PAULA ANUNCIACAO 09098334601", "RESPONSAVEL": "JULIETE DE PAULA ANUNCIACAO", "MUNICIPIO": "BOTELHOS", "ENDEE": "SAO GONCALO, 1359, CENTRO, 37720-000, BOTELHOS, MG, BRASIL", "BANCO": "SICREDI UNIESTADOS", "LINHA_AVAL_NOME": "EMPREENDEDORISMO FEM", "LATITUDE": "-21.655042", "LONGITUDE": "-46.3933629", "STATUS_OPERACIONAL": "CARTEIRA", "STATUS": "CARTEIRA", "field_14": null, "field_15": null, "field_16": null }, "geometry": { "type": "Point", "coordinates": [ -46.3933629, -21.655042 ] } },
{ "type": "Feature", "properties": { "NROCNPJ_PAD": "37336272000177", "STATUS_MAILING": "EMPRESA ELEGÍVEL ONLINE SEM SUCESSO NO CONTATO TELEFÔNICO/EMPRESA ELEGÍVEL PRESENCIAL NÃO VISITADA", "NOME_FANTASIA": null, "RAZAO_SOCIAL": "37.336.272 ADRIANA DE FREITAS CAMOSI MARQUES", "RESPONSAVEL": "ADRIANA DE FREITAS CAMOSI MARQUES", "MUNICIPIO": "BOTELHOS", "ENDEE": "AVENIDA DR. ULISSES SILVA, 96, CENTRO, 37720-000, BOTELHOS, MG, BRASIL", "BANCO": "SICREDI UNIESTADOS", "LINHA_AVAL_NOME": "EMPREENDEDORISMO FEM", "LATITUDE": "-21.655237", "LONGITUDE": "-46.3950111", "STATUS_OPERACIONAL": "CARTEIRA", "STATUS": "CARTEIRA", "field_14": null, "field_15": null, "field_16": null }, "geometry": { "type": "Point", "coordinates": [ -46.3950111, -21.655237 ] } },
{ "type": "Feature", "properties": { "NROCNPJ_PAD": "20100393000112", "STATUS_MAILING": "EMPRESA ELEGÍVEL ONLINE SEM SUCESSO NO CONTATO TELEFÔNICO/EMPRESA ELEGÍVEL PRESENCIAL NÃO VISITADA", "NOME_FANTASIA": "DSV CURSOS GERENCIAIS", "RAZAO_SOCIAL": "DANIEL SIQUEIRA VIEIRA 08586026603", "RESPONSAVEL": "DANIELSIQUEIRAVIEIRA", "MUNICIPIO": "BOTELHOS", "ENDEE": "ALFREDO VALQUES, 90, BOA VISTA, 37720-000, BOTELHOS, MG, BRASIL", "BANCO": "SICOOB AGROCREDI", "LINHA_AVAL_NOME": "GIRO", "LATITUDE": "-21.6555458", "LONGITUDE": "-46.399294", "STATUS_OPERACIONAL": "CARTEIRA", "STATUS": "CARTEIRA", "field_14": null, "field_15": null, "field_16": null }, "geometry": { "type": "Point", "coordinates": [ -46.399294, -21.6555458 ] } },
{ "type": "Feature", "properties": { "NROCNPJ_PAD": "43268213000101", "STATUS_MAILING": "EMPRESA ELEGÍVEL ONLINE SEM SUCESSO NO CONTATO TELEFÔNICO/EMPRESA ELEGÍVEL PRESENCIAL NÃO VISITADA", "NOME_FANTASIA": "JTM TELECOM", "RAZAO_SOCIAL": "TIAGO MAIA RIBEIRO DE SOUZA", "RESPONSAVEL": "TIAGO MAIA RIBEIRO DE SOUZA", "MUNICIPIO": "BOTELHOS", "ENDEE": "CARMELA ANUNCIACAO DE ABREU, 123, JOSE ALEXANDRE, 37720-000, BOTELHOS, MG, BRASIL", "BANCO": "SICREDI UNIESTADOS", "LINHA_AVAL_NOME": "GIRO", "LATITUDE": "-21.6555643", "LONGITUDE": "-46.3984478", "STATUS_OPERACIONAL": "CARTEIRA", "STATUS": "CARTEIRA", "field_14": null, "field_15": null, "field_16": null }, "geometry": { "type": "Point", "coordinates": [ -46.3984478, -21.6555643 ] } },
{ "type": "Feature", "properties": { "NROCNPJ_PAD": "46185190000160", "STATUS_MAILING": "EMPRESA ELEGÍVEL ONLINE SEM SUCESSO NO CONTATO TELEFÔNICO/EMPRESA ELEGÍVEL PRESENCIAL NÃO VISITADA", "NOME_FANTASIA": "BORGES CARPINTARIA", "RAZAO_SOCIAL": "46.185.190 JOAB BORGES DA SILVA JUNIOR", "RESPONSAVEL": "JOAB BORGES DA SILVA JUNIOR", "MUNICIPIO": "BOTELHOS", "ENDEE": "CARMELA ANUNCIACAO ABREU, 190, BOA VISTA, 37720-000, BOTELHOS, MG, BRASIL", "BANCO": "SICREDI UNIESTADOS", "LINHA_AVAL_NOME": "GIRO", "LATITUDE": "-21.6557714", "LONGITUDE": "-46.3983644", "STATUS_OPERACIONAL": "CARTEIRA", "STATUS": "CARTEIRA", "field_14": null, "field_15": null, "field_16": null }, "geometry": { "type": "Point", "coordinates": [ -46.3983644, -21.6557714 ] } },
{ "type": "Feature", "properties": { "NROCNPJ_PAD": "32148467000170", "STATUS_MAILING": "EMPRESA ELEGÍVEL ONLINE SEM SUCESSO NO CONTATO TELEFÔNICO/EMPRESA ELEGÍVEL PRESENCIAL NÃO VISITADA", "NOME_FANTASIA": null, "RAZAO_SOCIAL": "DONIZETTI APARECIDO TEIXEIRA 71784799653", "RESPONSAVEL": "DONIZETTI APARECIDO TEIXEIRA", "MUNICIPIO": "BOTELHOS", "ENDEE": "JOAO PEDRO ANUNCIACAO, 649, COHAB, 37720-000, BOTELHOS, MG, BRASIL", "BANCO": "SICREDI UNIESTADOS", "LINHA_AVAL_NOME": "GIRO", "LATITUDE": "-21.6567865", "LONGITUDE": "-46.395596", "STATUS_OPERACIONAL": "CARTEIRA", "STATUS": "CARTEIRA", "field_14": null, "field_15": null, "field_16": null }, "geometry": { "type": "Point", "coordinates": [ -46.395596, -21.6567865 ] } },
{ "type": "Feature", "properties": { "NROCNPJ_PAD": "37983820000150", "STATUS_MAILING": "EMPRESA ELEGÍVEL ONLINE SEM SUCESSO NO CONTATO TELEFÔNICO/EMPRESA ELEGÍVEL PRESENCIAL NÃO VISITADA", "NOME_FANTASIA": null, "RAZAO_SOCIAL": "STEFANY GABRIELA DOS SANTOS 12142586627", "RESPONSAVEL": "STEFANY GABRIELA DOS SANTOS", "MUNICIPIO": "BOTELHOS", "ENDEE": "JOAO PEDRO ANUNCIACAO, 619, JOAO HERCULANO ANUNCIACAO, 37720-000, BOTELHOS, MG, BRASIL", "BANCO": "SICREDI UNIESTADOS", "LINHA_AVAL_NOME": "EMPREENDEDORISMO FEM", "LATITUDE": "-21.6570435", "LONGITUDE": "-46.3960887", "STATUS_OPERACIONAL": "CARTEIRA", "STATUS": "CARTEIRA", "field_14": null, "field_15": null, "field_16": null }, "geometry": { "type": "Point", "coordinates": [ -46.3960887, -21.6570435 ] } },
{ "type": "Feature", "properties": { "NROCNPJ_PAD": "53381271000109", "STATUS_MAILING": "EMPRESA ELEGÍVEL ONLINE SEM SUCESSO NO CONTATO TELEFÔNICO/EMPRESA ELEGÍVEL PRESENCIAL NÃO VISITADA", "NOME_FANTASIA": null, "RAZAO_SOCIAL": "53.381.271 FABRICIO DA SILVA", "RESPONSAVEL": "FABRICIO DA SILVA", "MUNICIPIO": "BOTELHOS", "ENDEE": "UBALDO MARQUES DE SOUZA, 180, SERRA VERDE, 37720-000, BOTELHOS, MG, BRASIL", "BANCO": "SICREDI UNIESTADOS", "LINHA_AVAL_NOME": "GIRO", "LATITUDE": "-21.64686759195", "LONGITUDE": "-46.39501827323", "STATUS_OPERACIONAL": "CARTEIRA", "STATUS": "CARTEIRA", "field_14": null, "field_15": null, "field_16": null }, "geometry": { "type": "Point", "coordinates": [ -46.395018273230001, -21.646867591949999 ] } },
{ "type": "Feature", "properties": { "NROCNPJ_PAD": "28970233000136", "STATUS_MAILING": "EMPRESA ELEGÍVEL ONLINE NÃO TRABALHADA NO CONTATO TELEFÔNICO/EMPRESA ELEGÍVEL PRESENCIAL NÃO VISITADA", "NOME_FANTASIA": "FASTNET INTERNET RURAL", "RAZAO_SOCIAL": "VANESSA DA SILVA REZENDE VILAS BOAS 04243816646", "RESPONSAVEL": "VANESSADASILVAREZENDEVILASBOAS", "MUNICIPIO": "BOTELHOS", "ENDEE": "RUA TIRADENTES, 1000, CENTRO, 37720-000, BOTELHOS, MG, BRASIL", "BANCO": "SICOOB", "LINHA_AVAL_NOME": "Empreendedorismo Fem", "LATITUDE": "-21.6513544", "LONGITUDE": "-46.3970329", "STATUS_OPERACIONAL": "CARTEIRA", "STATUS": "CARTEIRA", "field_14": null, "field_15": null, "field_16": null }, "geometry": { "type": "Point", "coordinates": [ -46.3970329, -21.6513544 ] } }
]
}
