{
"type": "FeatureCollection",
"name": "CASSIA_BATISTA",
"crs": { "type": "name", "properties": { "name": "urn:ogc:def:crs:OGC:1.3:CRS84" } },
"features": [
{ "type": "Feature", "properties": { "NROCNPJ_PAD": "23003909000107", "NOME_FANTASIA": "AGUA MINERAL E CASA DA CERVEJA DULU", "RAZAO_SOCIAL": "23.003.909 LUIZ EDUARDO FERREIRA", "RESPONSAVEL": "LUIZEDUARDOFERREIRA", "ENDEE": "AVENIDA ILDEFONSO DEL BIANCO, 883, SANTA RITA, 37980-000, CASSIA, MG, BRASIL", "BANCO": "SICOOB", "STATUS_OPERACIONAL": "CARTEIRA" }, "geometry": { "type": "Point", "coordinates": [ -46.9268238, -20.5848011 ] } },
{ "type": "Feature", "properties": { "NROCNPJ_PAD": "34779148000198", "NOME_FANTASIA": "TRANS FERREIRA", "RAZAO_SOCIAL": "34.779.148 CELIO FERREIRA PEREIRA JUNIOR", "RESPONSAVEL": "CELIOFERREIRAPEREIRAJUNIOR", "ENDEE": "RUA LAGEADO, 48, SAO FRANCISCO, 37980-000, CASSIA, MG, BRASIL", "BANCO": "SICOOB", "STATUS_OPERACIONAL": "CARTEIRA" }, "geometry": { "type": "Point", "coordinates": [ -46.9298493, -20.5804002 ] } },
{ "type": "Feature", "properties": { "NROCNPJ_PAD": "47357197000184", "NOME_FANTASIA": "0", "RAZAO_SOCIAL": "47.357.197 ANA PAULA COSTA VALERIANO", "RESPONSAVEL": "ANAPAULACOSTAVALERIANO", "ENDEE": "RUA ALAMEDA JOAO DE BARRO, 122, RECANTO DOS PASSAROS, 37980-000, CASSIA, MG, BRASIL", "BANCO": "SICREDI 2", "STATUS_OPERACIONAL": "CARTEIRA" }, "geometry": { "type": "Point", "coordinates": [ -46.914724, -20.578341 ] } },
{ "type": "Feature", "properties": { "NROCNPJ_PAD": "49111000000158", "NOME_FANTASIA": "ROSA FLOR", "RAZAO_SOCIAL": "49.111.000 WEDELON ATALIBA PINTO PASSOS", "RESPONSAVEL": "WEDELONATALIBAPINTOPASSOS", "ENDEE": "RUA PAULO GAMA, 775, CENTRO, 37980-000, CASSIA, MG, BRASIL", "BANCO": "SICOOB", "STATUS_OPERACIONAL": "CARTEIRA" }, "geometry": { "type": "Point", "coordinates": [ -46.9250824, -20.576617 ] } },
{ "type": "Feature", "properties": { "NROCNPJ_PAD": "52651259000104", "NOME_FANTASIA": "JOSE LUCAS CORTES", "RAZAO_SOCIAL": "52.651.259 JOSE LUCAS ROSA FARIA", "RESPONSAVEL": "JOSELUCASROSAFARIA", "ENDEE": "10A RUA ITAU, 109, SANTA RITA, 37980-000, CASSIA, MG, BRASIL", "BANCO": "SICOOB", "STATUS_OPERACIONAL": "CARTEIRA" }, "geometry": { "type": "Point", "coordinates": [ -46.9262657, -20.5861757 ] } },
{ "type": "Feature", "properties": { "NROCNPJ_PAD": "52749784000159", "NOME_FANTASIA": "ESTUDIO ELIZANGELA SANTTOS", "RAZAO_SOCIAL": "52.749.784 ELIZANGELA APARECIDA SANTOS TEIXEIRA", "RESPONSAVEL": "ELIZANGELAAPARECIDASANTOSTEIXEIRA", "ENDEE": "10A RUA MAESTRO GODOFREDO BARROS, 50A, CASA, CENTRO, 37980-000, CASSIA, MG, BRASIL", "BANCO": "SICOOB", "STATUS_OPERACIONAL": "CARTEIRA" }, "geometry": { "type": "Point", "coordinates": [ -46.9228693, -20.5832922 ] } },
{ "type": "Feature", "properties": { "NROCNPJ_PAD": "60857944000101", "NOME_FANTASIA": "AGNALDO MOVEIS PLANEJADOS", "RAZAO_SOCIAL": "AGNALDO MOVEIS PLANEJADOS LTDA", "RESPONSAVEL": "AGNALDOSANTOSPIRES", "ENDEE": "AVENIDA ANTONIO LEMOS, 389, ANEXO 01, PATRIMONIO, 37980-000, CASSIA, MG, BRASIL", "BANCO": "SICOOB", "STATUS_OPERACIONAL": "CARTEIRA" }, "geometry": { "type": "Point", "coordinates": [ -46.9278301, -20.573083 ] } },
{ "type": "Feature", "properties": { "NROCNPJ_PAD": "29575999000189", "NOME_FANTASIA": "CASA DE CARNES DUDU", "RAZAO_SOCIAL": "AMANDA DOS SANTOS ROSA LIMA 10375828613", "RESPONSAVEL": "AMANDADOSSANTOSROSALIMA", "ENDEE": "AVENIDA HUMBERTO DE ALMEIDA, 409, SAO JOSE, 37980-000, CASSIA, MG, BRASIL", "BANCO": "SICOOB", "STATUS_OPERACIONAL": "CARTEIRA" }, "geometry": { "type": "Point", "coordinates": [ -46.9160186, -20.5956412 ] } },
{ "type": "Feature", "properties": { "NROCNPJ_PAD": "00919586000192", "NOME_FANTASIA": "MERCEARIA SOUZA", "RAZAO_SOCIAL": "ANTONIO CARLOS DE SOUZA 711.715.336-91", "RESPONSAVEL": "ANTONIO CARLOS DE SOUZA", "ENDEE": "AVENIDA FRANCA, 136, PATRIMONIO, 37980-000, CASSIA, MG, BRASIL", "BANCO": "BDMG", "STATUS_OPERACIONAL": "CARTEIRA" }, "geometry": { "type": "Point", "coordinates": [ -46.9286457, -20.5701158 ] } },
{ "type": "Feature", "properties": { "NROCNPJ_PAD": "15841931000190", "NOME_FANTASIA": "CASA DO ELETRICISTA E MATERIAIS PARA CONTRUCAO", "RAZAO_SOCIAL": "CASA DO ELETRICISTA E MATERIAIS PARA CONSTRUCAO LTDA", "RESPONSAVEL": "DONIZETEPIRES|EZINETEDASILVARIBEIROPIRES", "ENDEE": "AVENIDA SANTA RITA, 915, CENTRO, 37980-000, CASSIA, MG, BRASIL", "BANCO": "SICOOB", "STATUS_OPERACIONAL": "CARTEIRA" }, "geometry": { "type": "Point", "coordinates": [ -46.923126, -20.5777435 ] } },
{ "type": "Feature", "properties": { "NROCNPJ_PAD": "04901171000142", "NOME_FANTASIA": "0", "RAZAO_SOCIAL": "CASSIFLEX LTDA", "RESPONSAVEL": "APARECIDADASGRACASNASCIMENTO|JORGEDONASCIMENTOJUNIOR|ZELIAFATIMADONASCIMENTO", "ENDEE": "AVENIDA HUMBERTO DE ALMEIDA, 455, SAO JOSE, 37980-000, CASSIA, MG, BRASIL", "BANCO": "SICOOB", "STATUS_OPERACIONAL": "CARTEIRA" }, "geometry": { "type": "Point", "coordinates": [ -46.9156369, -20.5959879 ] } },
{ "type": "Feature", "properties": { "NROCNPJ_PAD": "47461198000174", "NOME_FANTASIA": "COMATEC AUTOMOCAO INDUSTRIAL", "RAZAO_SOCIAL": "COMATEC AUTOMOCAO INDUSTRIAL LTDA", "RESPONSAVEL": "PEDROHENRIQUEBICHACOCOSTA", "ENDEE": "AVENIDA SANTA RITA, 431, CENTRO, 37980-000, CASSIA, MG, BRASIL", "BANCO": "SICOOB", "STATUS_OPERACIONAL": "CARTEIRA" }, "geometry": { "type": "Point", "coordinates": [ -46.920012, -20.581603 ] } },
{ "type": "Feature", "properties": { "NROCNPJ_PAD": "45543341000141", "NOME_FANTASIA": "DANILO MARTINS CABELO E ESTETICA", "RAZAO_SOCIAL": "DANILO MARTINS DOS SANTOS 06768457624", "RESPONSAVEL": "-", "ENDEE": "RUA JOAO JOSE DE BASTOS, 147, PARQUE DOS PINHAIS, 37980-000, CASSIA, MG, BRASIL", "BANCO": "SICOOB", "STATUS_OPERACIONAL": "CARTEIRA" }, "geometry": { "type": "Point", "coordinates": [ -46.9098933, -20.5870687 ] } },
{ "type": "Feature", "properties": { "NROCNPJ_PAD": "04948605000160", "NOME_FANTASIA": "LUERCY SALGADOS & CIA", "RAZAO_SOCIAL": "EDUARDO DIAS ALVES CPF 005.933.776-13", "RESPONSAVEL": "EDUARDODIASALVES", "ENDEE": "ALAMEDA DAS FLORES, 63, FUNDOS, JARDIM DAS ACACIAS, 37980-000, CASSIA, MG, BRASIL", "BANCO": "SICOOB", "STATUS_OPERACIONAL": "CARTEIRA" }, "geometry": { "type": "Point", "coordinates": [ -46.9236993, -20.5753361 ] } },
{ "type": "Feature", "properties": { "NROCNPJ_PAD": "18711578000111", "NOME_FANTASIA": "BELLA STYLLO", "RAZAO_SOCIAL": "ELISA CARLINE DA SILVA 04823871650", "RESPONSAVEL": "ELISACARLINEDASILVA", "ENDEE": "10A RUA ARACAJU, 100, CASA CASA, SAO LUCAS, 37980-000, CASSIA, MG, BRASIL", "BANCO": "SICOOB", "STATUS_OPERACIONAL": "CARTEIRA" }, "geometry": { "type": "Point", "coordinates": [ -46.9135116, -20.5951231 ] } },
{ "type": "Feature", "properties": { "NROCNPJ_PAD": "20948975000153", "NOME_FANTASIA": "CARPINTARIA BARBOSA", "RAZAO_SOCIAL": "EVANDRO RODRIGO BARBOSA 05152808609", "RESPONSAVEL": "EVANDRORODRIGOBARBOSA", "ENDEE": "RUA JOAO JOSE DE BASTOS, 27, PARQUE DOS PINHAIS, 37980-000, CASSIA, MG, BRASIL", "BANCO": "SICOOB", "STATUS_OPERACIONAL": "CARTEIRA" }, "geometry": { "type": "Point", "coordinates": [ -46.9107709, -20.5864008 ] } },
{ "type": "Feature", "properties": { "NROCNPJ_PAD": "60661086000125", "NOME_FANTASIA": "FABINHO TRANSPORTES", "RAZAO_SOCIAL": "FABIO HENRIQUE DA SILVA CRUZ TRANSPORTES LTDA", "RESPONSAVEL": "FABIOHENRIQUEDASILVACRUZ|SABRINAREISDASILVA", "ENDEE": "AVENIDA HUMBERTO DE ALMEIDA, 650, DISTRITO INDUSTRIAL WAF, 37980-000, CASSIA, MG, BRASIL", "BANCO": "SICOOB", "STATUS_OPERACIONAL": "CARTEIRA" }, "geometry": { "type": "Point", "coordinates": [ -46.9147007, -20.5972263 ] } },
{ "type": "Feature", "properties": { "NROCNPJ_PAD": "21051422000166", "NOME_FANTASIA": "0", "RAZAO_SOCIAL": "GERALDO MIGUEL DA SILVA NETO 08850421664", "RESPONSAVEL": "GERALDOMIGUELDASILVANETO", "ENDEE": "FAZENDA SANTA TEREZINHA, S/N, ZONA RURAL, 37980-000, CASSIA, MG, BRASIL", "BANCO": "SICOOB", "STATUS_OPERACIONAL": "CARTEIRA" }, "geometry": { "type": "Point", "coordinates": [ -46.9173921, -20.5927368 ] } },
{ "type": "Feature", "properties": { "NROCNPJ_PAD": "08432235000164", "NOME_FANTASIA": "ASSISTEC", "RAZAO_SOCIAL": "JAYTTHER SOUZA DOS SANTOS", "RESPONSAVEL": "JAYTTHERSOUZADOSSANTOS", "ENDEE": "AVENIDA SANTA RITA, 710, JARDIM ALVORADA, 37980-000, CASSIA, MG, BRASIL", "BANCO": "SICOOB", "STATUS_OPERACIONAL": "CARTEIRA" }, "geometry": { "type": "Point", "coordinates": [ -46.9211546, -20.5796839 ] } },
{ "type": "Feature", "properties": { "NROCNPJ_PAD": "35016819000121", "NOME_FANTASIA": "SERRALHERIA BRASA VIVA", "RAZAO_SOCIAL": "JOSE CAMPOS SILVA 35801719687", "RESPONSAVEL": "JOSECAMPOSSILVA", "ENDEE": "PRACA 13 DE MAIO, 525, JARDIM PARAISO, 37980-000, CASSIA, MG, BRASIL", "BANCO": "SICOOB", "STATUS_OPERACIONAL": "CARTEIRA" }, "geometry": { "type": "Point", "coordinates": [ -46.920396, -20.590437 ] } },
{ "type": "Feature", "properties": { "NROCNPJ_PAD": "34775464000191", "NOME_FANTASIA": "0", "RAZAO_SOCIAL": "JOSIANE SOARES MOUTINHO 38324876898", "RESPONSAVEL": "JOSIANESOARESMOUTINHO", "ENDEE": "RUA ESTRELA DALVA, 329, NOVO MUNDO, 37980-000, CASSIA, MG, BRASIL", "BANCO": "SICOOB", "STATUS_OPERACIONAL": "CARTEIRA" }, "geometry": { "type": "Point", "coordinates": [ -46.9312364, -20.5830908 ] } },
{ "type": "Feature", "properties": { "NROCNPJ_PAD": "08475056000104", "NOME_FANTASIA": "0", "RAZAO_SOCIAL": "JULIO CESAR SILVA MACEDO", "RESPONSAVEL": "JULIO CESAR SILVA MACEDO", "ENDEE": "PRACA TREZE DE MAIO, 607, JARDIM PARAISO, 37980-000, CASSIA, MG, BRASIL", "BANCO": "SICREDI 2", "STATUS_OPERACIONAL": "CARTEIRA" }, "geometry": { "type": "Point", "coordinates": [ -46.920396, -20.590437 ] } },
{ "type": "Feature", "properties": { "NROCNPJ_PAD": "08827894000108", "NOME_FANTASIA": "MADEIREIRA E SERRARIA PEDROSO", "RAZAO_SOCIAL": "MADEIREIRA E SERRARIA PEDROSO LTDA", "RESPONSAVEL": "DONIZETEDASILVAPEDROSO|VALERIAFERREIRAPEDROSOPADUA|VANILDABORGESFERREIRA", "ENDEE": "RUA SAO JOAO, 400, DIST.INDL.WALDOMIRO A.FALEIROS, 37980-000, CASSIA, MG, BRASIL", "BANCO": "SICOOB", "STATUS_OPERACIONAL": "CARTEIRA" }, "geometry": { "type": "Point", "coordinates": [ -46.9145428, -20.5984328 ] } },
{ "type": "Feature", "properties": { "NROCNPJ_PAD": "17227471000130", "NOME_FANTASIA": "MERCEARIA RENATA", "RAZAO_SOCIAL": "MERCEARIA PEDRO PAULO PANISSA FRANCO LTDA.", "RESPONSAVEL": "PEDROPAULOPANISSAFRANCO|RENATASOUSADASILVA", "ENDEE": "AVENIDA HUMBERTO DE ALMEIDA, 600, SAO JOSE, 37980-000, CASSIA, MG, BRASIL", "BANCO": "SICOOB", "STATUS_OPERACIONAL": "CARTEIRA" }, "geometry": { "type": "Point", "coordinates": [ -46.9143369, -20.5966462 ] } },
{ "type": "Feature", "properties": { "NROCNPJ_PAD": "58669207000133", "NOME_FANTASIA": "MERCEARIA PATRIMONIO", "RAZAO_SOCIAL": "MERCEARIA SC LTDA", "RESPONSAVEL": "MARIACLARAMARTINSROSSATODEOLIVEIRA", "ENDEE": "AVENIDA ANTONIO LEMOS, 373, PATRIMONIO, 37980-000, CASSIA, MG, BRASIL", "BANCO": "SICOOB", "STATUS_OPERACIONAL": "CARTEIRA" }, "geometry": { "type": "Point", "coordinates": [ -46.9285532, -20.5736931 ] } },
{ "type": "Feature", "properties": { "NROCNPJ_PAD": "38052595000100", "NOME_FANTASIA": "OTICA FELIX", "RAZAO_SOCIAL": "OTICA FELIX & PEREIRA LTDA", "RESPONSAVEL": "ANABELRITADASILVAPEREIRA|BRUNOFELIXCANDIDOFERREIRA", "ENDEE": "AVENIDA IDELFONSO DEL BIANCO, 780, PARQUE DA NASCENTE, 37980-000, CASSIA, MG, BRASIL", "BANCO": "SICOOB", "STATUS_OPERACIONAL": "CARTEIRA" }, "geometry": { "type": "Point", "coordinates": [ -46.917905, -20.59127 ] } },
{ "type": "Feature", "properties": { "NROCNPJ_PAD": "48496538000165", "NOME_FANTASIA": "MERCEARIA SILVA", "RAZAO_SOCIAL": "SILVIANA DE ARAUJO SILVA 08997434632", "RESPONSAVEL": "SILVIANADEARAUJOSILVA", "ENDEE": "RUA JULIA RODRIGUES PINTO, 182, GARAGE, SANTA MARIA III, 37980-000, CASSIA, MG, BRASIL", "BANCO": "SICOOB", "STATUS_OPERACIONAL": "CARTEIRA" }, "geometry": { "type": "Point", "coordinates": [ -46.9217124, -20.5927202 ] } },
{ "type": "Feature", "properties": { "NROCNPJ_PAD": "44801269000142", "NOME_FANTASIA": "0", "RAZAO_SOCIAL": "VINICIUS AUGUSTO GARDINO DA SILVA 13281779638", "RESPONSAVEL": "VINICIUSAUGUSTOGARDINODASILVA", "ENDEE": "RUA LAZARO QUIRINO, 252, SANTA MARIA II, 37980-000, CASSIA, MG, BRASIL", "BANCO": "SICOOB", "STATUS_OPERACIONAL": "CARTEIRA" }, "geometry": { "type": "Point", "coordinates": [ -46.9249942, -20.5887054 ] } },
{ "type": "Feature", "properties": { "NROCNPJ_PAD": "38946590000112", "NOME_FANTASIA": "MERCEARIA E PANIFICADORA ALVORADA DOS PAES", "RAZAO_SOCIAL": "MERCEARIA E PANIFICADORA ALVORADA DOS PAES LTDA", "RESPONSAVEL": "HENRIQUESANTOSARRUDA", "ENDEE": "AVENIDA SANTA RITA, 872, CENTRO, 37980-000, CÁSSIA, MG, BRASIL", "BANCO": "SICOOB", "STATUS_OPERACIONAL": "CARTEIRA" }, "geometry": { "type": "Point", "coordinates": [ -46.9212592, -20.5796173 ] } },
{ "type": "Feature", "properties": { "NROCNPJ_PAD": "10911851000140", "NOME_FANTASIA": "-", "RAZAO_SOCIAL": "MARIA LUCIA INACIA DA SILVA RIOS", "RESPONSAVEL": "MARIALUCIAINACIADASILVARIOS", "ENDEE": "FAZENDA SAO PEDRO, S/N, ZONA RURAL, 37980-000, CÁSSIA, MG, BRASIL", "BANCO": "SICOOB", "STATUS_OPERACIONAL": "CARTEIRA" }, "geometry": { "type": "Point", "coordinates": [ -46.9163019, -20.5970653 ] } },
{ "type": "Feature", "properties": { "NROCNPJ_PAD": "05381771000190", "NOME_FANTASIA": "FRANGO CASSIA", "RAZAO_SOCIAL": "ABATEDOURO DE FRANGOS FERREIRA LTDA", "RESPONSAVEL": "ELIZABETESILVEIRAFERREIRA|JOSEELIASFERREIRA|WANDERLEYSILVEIRAFERREIRA", "ENDEE": "RUA SAO JOAO, 270, DIST.IND.WA.FALEIROS, 37980-000, CÁSSIA, MG, BRASIL", "BANCO": "SICOOB", "STATUS_OPERACIONAL": "CARTEIRA" }, "geometry": { "type": "Point", "coordinates": [ -46.9154616, -20.5980257 ] } },
{ "type": "Feature", "properties": { "NROCNPJ_PAD": "22264204000172", "NOME_FANTASIA": "-", "RAZAO_SOCIAL": "ZELIA FATIMA DO NASCIMENTO", "RESPONSAVEL": "ZELIAFATIMADONASCIMENTO", "ENDEE": "PRACA BARAO DE CAMBUI, 78, CENTRO, 37980-000, CÁSSIA, MG, BRASIL", "BANCO": "SICOOB", "STATUS_OPERACIONAL": "CARTEIRA" }, "geometry": { "type": "Point", "coordinates": [ -46.923711, -20.5834699 ] } },
{ "type": "Feature", "properties": { "NROCNPJ_PAD": "19937166000167", "NOME_FANTASIA": "-", "RAZAO_SOCIAL": "JOSE LEANDRO DE OLIVEIRA 90377087653", "RESPONSAVEL": "JOSELEANDRODEOLIVEIRA", "ENDEE": "RUA AZARIAS AZEVEDO DE MELO, 191, JARDIM PRIMAVERA, 37980-000, CÁSSIA, MG, BRASIL", "BANCO": "SICOOB", "STATUS_OPERACIONAL": "CARTEIRA" }, "geometry": { "type": "Point", "coordinates": [ -46.9213373, -20.5878341 ] } },
{ "type": "Feature", "properties": { "NROCNPJ_PAD": "52656348000135", "NOME_FANTASIA": "-", "RAZAO_SOCIAL": "52.656.348 DAVI MARQUES CARVALHO", "RESPONSAVEL": "DAVIMARQUESCARVALHO", "ENDEE": "10A RUA IBIRACI, 162, SANTA RITA, 37980-000, CÁSSIA, MG, BRASIL", "BANCO": "SICOOB", "STATUS_OPERACIONAL": "CARTEIRA" }, "geometry": { "type": "Point", "coordinates": [ -46.9264652, -20.5854663 ] } },
{ "type": "Feature", "properties": { "NROCNPJ_PAD": "43580168000126", "NOME_FANTASIA": "-", "RAZAO_SOCIAL": "MICHELLE NEVES SILVA 05644629694", "RESPONSAVEL": "MICHELLENEVESSILVA", "ENDEE": "RUA JOSE DIAS, 336, PEIXOTO, 37980-000, CÁSSIA, MG, BRASIL", "BANCO": "SICOOB", "STATUS_OPERACIONAL": "CARTEIRA" }, "geometry": { "type": "Point", "coordinates": [ -46.919157, -20.5901 ] } },
{ "type": "Feature", "properties": { "NROCNPJ_PAD": "19860524000180", "NOME_FANTASIA": "-", "RAZAO_SOCIAL": "19.860.524 RICARDO RODRIGUES DA SILVA", "RESPONSAVEL": "RICARDORODRIGUESDASILVA", "ENDEE": "RUA AZARIAS AZEVEDO DE MELO, 22, JARDIM PRIMAVERA, 37980-000, CÁSSIA, MG, BRASIL", "BANCO": "SICOOB", "STATUS_OPERACIONAL": "CARTEIRA" }, "geometry": { "type": "Point", "coordinates": [ -46.9215719, -20.5860398 ] } },
{ "type": "Feature", "properties": { "NROCNPJ_PAD": "17556187000107", "NOME_FANTASIA": "FELIPE BELTRAO", "RAZAO_SOCIAL": "17.556.187 FELIPE BELTRAO DE SOUZA MORAIS", "RESPONSAVEL": "FELIPEBELTRAODESOUZAMORAIS", "ENDEE": "RUA JOAO ISRAEL DOS SANTOS, 14, CENTRO, 37920-000, SAO JOAO BATISTA DO GLORIA, MG, BRASIL", "BANCO": "SICOOB", "STATUS_OPERACIONAL": "CARTEIRA" }, "geometry": { "type": "Point", "coordinates": [ -46.509375, -20.6364462 ] } },
{ "type": "Feature", "properties": { "NROCNPJ_PAD": "21567111000154", "NOME_FANTASIA": "ESPACODELAS", "RAZAO_SOCIAL": "21.567.111 MAILA CRISTIANE COSTA AMORIM", "RESPONSAVEL": "MAILACRISTIANECOSTAAMORIM", "ENDEE": "RUA CAMPO GRANDE, 21, SALA 01, CENTRO, 37920-000, SAO JOAO BATISTA DO GLORIA, MG, BRASIL", "BANCO": "SICOOB", "STATUS_OPERACIONAL": "CARTEIRA" }, "geometry": { "type": "Point", "coordinates": [ -46.5048537, -20.63571 ] } },
{ "type": "Feature", "properties": { "NROCNPJ_PAD": "26146606000123", "NOME_FANTASIA": "BELAS UNHAS", "RAZAO_SOCIAL": "26.146.606 PATRICIA LINO", "RESPONSAVEL": "PATRICIALINO", "ENDEE": "RUA TULIPA, 107, JARDIM DAS ACACIAS, 37920-000, SAO JOAO BATISTA DO GLORIA, MG, BRASIL", "BANCO": "SICOOB", "STATUS_OPERACIONAL": "CARTEIRA" }, "geometry": { "type": "Point", "coordinates": [ -46.5001139, -20.6365004 ] } },
{ "type": "Feature", "properties": { "NROCNPJ_PAD": "32030239000109", "NOME_FANTASIA": "J J BOLINHOS", "RAZAO_SOCIAL": "32.030.239 JOAO JOSE MARTINS DE OLIVEIRA", "RESPONSAVEL": "JOAOJOSEMARTINSDEOLIVEIRA", "ENDEE": "RUA PORTO ALEGRE, 42, JARDIM DAS ACACIAS, 37920-000, SAO JOAO BATISTA DO GLORIA, MG, BRASIL", "BANCO": "SICOOB", "STATUS_OPERACIONAL": "CARTEIRA" }, "geometry": { "type": "Point", "coordinates": [ -46.5035198, -20.6381564 ] } },
{ "type": "Feature", "properties": { "NROCNPJ_PAD": "53409254000124", "NOME_FANTASIA": "0", "RAZAO_SOCIAL": "53.409.254 CINTIA MARA MARQUES RIBEIRO", "RESPONSAVEL": "CINTIAMARAMARQUESRIBEIRO", "ENDEE": "10A RUA CAMBAUBAS, 35, CASA, MARIA E VADICO, 37920-000, SAO JOAO BATISTA DO GLORIA, MG, BRASIL", "BANCO": "SICOOB", "STATUS_OPERACIONAL": "CARTEIRA" }, "geometry": { "type": "Point", "coordinates": [ -46.5113667, -20.6346424 ] } },
{ "type": "Feature", "properties": { "NROCNPJ_PAD": "59687254000172", "NOME_FANTASIA": "0", "RAZAO_SOCIAL": "59.687.254 ALEXANDRA DA SILVA", "RESPONSAVEL": "ALEXANDRADASILVA", "ENDEE": "RUA AUGUSTA ANA QUIRINA, 251, JARDIM PLANALTO, 37920-000, SAO JOAO BATISTA DO GLORIA, MG, BRASIL", "BANCO": "SICOOB", "STATUS_OPERACIONAL": "CARTEIRA" }, "geometry": { "type": "Point", "coordinates": [ -46.5124562, -20.6297195 ] } },
{ "type": "Feature", "properties": { "NROCNPJ_PAD": "61067894000121", "NOME_FANTASIA": "0", "RAZAO_SOCIAL": "61.067.894 VITOR HUGO DA SILVA RODRIGUES", "RESPONSAVEL": "VITORHUGODASILVARODRIGUES", "ENDEE": "RUA GOIANIA, 67, CENTRO, 37920-000, SAO JOAO BATISTA DO GLORIA, MG, BRASIL", "BANCO": "SICOOB", "STATUS_OPERACIONAL": "CARTEIRA" }, "geometry": { "type": "Point", "coordinates": [ -46.5081005, -20.6322114 ] } },
{ "type": "Feature", "properties": { "NROCNPJ_PAD": "63634959000107", "NOME_FANTASIA": "0", "RAZAO_SOCIAL": "63.634.959 MARINA EVANGELISTA DE OLIVEIRA", "RESPONSAVEL": "MARINAEVANGELISTADEOLIVEIRA", "ENDEE": "RUA YPE, 423, JARDIM DAS ACACIAS, 37920-000, SAO JOAO BATISTA DO GLORIA, MG, BRASIL", "BANCO": "SICOOB", "STATUS_OPERACIONAL": "CARTEIRA" }, "geometry": { "type": "Point", "coordinates": [ -46.5003701, -20.6373101 ] } },
{ "type": "Feature", "properties": { "NROCNPJ_PAD": "53371229000107", "NOME_FANTASIA": "POUSADA RECANTO DO TIAO", "RAZAO_SOCIAL": "ADRIANA SILVA SILVEIRA", "RESPONSAVEL": "ADRIANASILVASILVEIRA", "ENDEE": "SITIO RECANTO DO TIAO, SN, AREA RURAL, 37920-000, SAO JOAO BATISTA DO GLORIA, MG, BRASIL", "BANCO": "SICOOB", "STATUS_OPERACIONAL": "CARTEIRA" }, "geometry": { "type": "Point", "coordinates": [ -46.4455574, -20.6058876 ] } },
{ "type": "Feature", "properties": { "NROCNPJ_PAD": "13753398000189", "NOME_FANTASIA": "AGRO MINAS PET", "RAZAO_SOCIAL": "AGRO MINAS PET LIMITADA", "RESPONSAVEL": "FABIANOANGELOBARBOSA|JADEGOULARTBARBOSA", "ENDEE": "RUA RECIFE, 46, CENTRO, 37920-000, SAO JOAO BATISTA DO GLORIA, MG, BRASIL", "BANCO": "SICOOB", "STATUS_OPERACIONAL": "CARTEIRA" }, "geometry": { "type": "Point", "coordinates": [ -46.5071181, -20.6327098 ] } },
{ "type": "Feature", "properties": { "NROCNPJ_PAD": "30304234000193", "NOME_FANTASIA": "ARTUR BRENO COSTA GALVAO", "RAZAO_SOCIAL": "ARTUR BRENO COSTA GALVAO 08960197645", "RESPONSAVEL": "ARTURBRENOCOSTAGALVAO", "ENDEE": "RUA JOAO PESSOA, 834, CENTRO, 37920-000, SAO JOAO BATISTA DO GLORIA, MG, BRASIL", "BANCO": "SICOOB", "STATUS_OPERACIONAL": "CARTEIRA" }, "geometry": { "type": "Point", "coordinates": [ -46.5102534, -20.6404911 ] } },
{ "type": "Feature", "properties": { "NROCNPJ_PAD": "10940569000190", "NOME_FANTASIA": "CASA DO PARAFUSO GLORIA", "RAZAO_SOCIAL": "CASA DO PARAFUSO GLORIA LTDA", "RESPONSAVEL": "MARINASILVAPEREIRA", "ENDEE": "RUA RECIFE, 1, CENTRO, 37920-000, SAO JOAO BATISTA DO GLORIA, MG, BRASIL", "BANCO": "SICOOB", "STATUS_OPERACIONAL": "CARTEIRA" }, "geometry": { "type": "Point", "coordinates": [ -46.506652, -20.6351256 ] } },
{ "type": "Feature", "properties": { "NROCNPJ_PAD": "50034795000127", "NOME_FANTASIA": "CONVENIENCIA E DISTRIBUIDORA 3 IRMAOS", "RAZAO_SOCIAL": "CONVENIENCIA E DISTRIBUIDORA 3 IRMAOS LTDA", "RESPONSAVEL": "ADRIANOLUCIOVIEIRA", "ENDEE": "RUA BOA VISTA, 7, CENTRO, 37920-000, SAO JOAO BATISTA DO GLORIA, MG, BRASIL", "BANCO": "SICOOB", "STATUS_OPERACIONAL": "CARTEIRA" }, "geometry": { "type": "Point", "coordinates": [ -46.5084995, -20.6327785 ] } },
{ "type": "Feature", "properties": { "NROCNPJ_PAD": "43792105000133", "NOME_FANTASIA": "DEGAS PISCINA", "RAZAO_SOCIAL": "DEUGNES HENRIQUE GONCALVES 00959342605", "RESPONSAVEL": "DEUGNESHENRIQUEGONCALVES", "ENDEE": "RUA SAO LUIZ, 481, CENTRO, 37920-000, SAO JOAO BATISTA DO GLORIA, MG, BRASIL", "BANCO": "SICOOB", "STATUS_OPERACIONAL": "CARTEIRA" }, "geometry": { "type": "Point", "coordinates": [ -46.5046017, -20.6360447 ] } },
{ "type": "Feature", "properties": { "NROCNPJ_PAD": "26765702000150", "NOME_FANTASIA": "PROJETA IMOVEIS", "RAZAO_SOCIAL": "DIANA DOS REIS 04762049689", "RESPONSAVEL": "DIANA DOS REIS", "ENDEE": "PRACA PRACA DO CRUZEIRO, 06, CENTRO, 37920-000, SAO JOAO BATISTA DO GLORIA, MG, BRASIL", "BANCO": "SICREDI 2", "STATUS_OPERACIONAL": "CARTEIRA" }, "geometry": { "type": "Point", "coordinates": [ -46.5059579, -20.6354688 ] } },
{ "type": "Feature", "properties": { "NROCNPJ_PAD": "21071701000191", "NOME_FANTASIA": "JOAO PEDRO MATERIAIS ELETRICOS", "RAZAO_SOCIAL": "DIUZA DE FATIMA PEREIRA VILELA DE MEDEIROS", "RESPONSAVEL": "DIUZADEFATIMAPEREIRAVILELADEMEDEIROS", "ENDEE": "RUA FORTALEZA, 17, CENTRO, 37920-000, SAO JOAO BATISTA DO GLORIA, MG, BRASIL", "BANCO": "SICOOB", "STATUS_OPERACIONAL": "CARTEIRA" }, "geometry": { "type": "Point", "coordinates": [ -46.5055844, -20.6353459 ] } },
{ "type": "Feature", "properties": { "NROCNPJ_PAD": "02545141000115", "NOME_FANTASIA": "CASA DE CARNES DO EDELCIO", "RAZAO_SOCIAL": "EDELCIO RODRIGUES", "RESPONSAVEL": "EDELCIORODRIGUES", "ENDEE": "AVENIDA AVELINO SOARES DE REZENDE, 41, CENTRO, 37920-000, SAO JOAO BATISTA DO GLORIA, MG, BRASIL", "BANCO": "SICOOB", "STATUS_OPERACIONAL": "CARTEIRA" }, "geometry": { "type": "Point", "coordinates": [ -46.506317, -20.6381715 ] } },
{ "type": "Feature", "properties": { "NROCNPJ_PAD": "18148201000104", "NOME_FANTASIA": "LENDA", "RAZAO_SOCIAL": "EDILENE DE FATIMA REIS 03721047621", "RESPONSAVEL": "EDILENEDEFATIMAREIS", "ENDEE": "RUA AVELINO SOARES DE REZENDE, 40, CENTRO, 37920-000, SAO JOAO BATISTA DO GLORIA, MG, BRASIL", "BANCO": "SICOOB", "STATUS_OPERACIONAL": "CARTEIRA" }, "geometry": { "type": "Point", "coordinates": [ -46.5060874, -20.6388157 ] } },
{ "type": "Feature", "properties": { "NROCNPJ_PAD": "34178994000152", "NOME_FANTASIA": "JT TERRAPLAGEM", "RAZAO_SOCIAL": "ELENICE DIAS SILVEIRA", "RESPONSAVEL": "ELENICEDIASSILVEIRA", "ENDEE": "RUA JONAS GONCALVES DE OLIVEIRA, 1052, SALA 01, RESIDENCIAL RIO GRANDE II, 37920-000, SAO JOAO BATISTA DO GLORIA, MG, BRASIL", "BANCO": "SICOOB", "STATUS_OPERACIONAL": "CARTEIRA" }, "geometry": { "type": "Point", "coordinates": [ -46.5079806, -20.6445263 ] } },
{ "type": "Feature", "properties": { "NROCNPJ_PAD": "48406767000141", "NOME_FANTASIA": "GUIMARAES SERVICOS DE MEDICINA", "RAZAO_SOCIAL": "GUIMARAES SERVICOS DE MEDICINA LTDA", "RESPONSAVEL": "AYSLAFERREIRACHAVESGUIMARAES", "ENDEE": "AVENIDA AVELINO SOARES DE REZENDE, 51, CENTRO, 37920-000, SAO JOAO BATISTA DO GLORIA, MG, BRASIL", "BANCO": "SICOOB", "STATUS_OPERACIONAL": "CARTEIRA" }, "geometry": { "type": "Point", "coordinates": [ -46.5063069, -20.63758 ] } },
{ "type": "Feature", "properties": { "NROCNPJ_PAD": "40061545000122", "NOME_FANTASIA": "OFICINA DAS TINTAS", "RAZAO_SOCIAL": "IVAN SANSONI HOSTALACIO", "RESPONSAVEL": "IVANSANSONIHOSTALACIO", "ENDEE": "RUA NITEROI, 44, CENTRO, 37920-000, SAO JOAO BATISTA DO GLORIA, MG, BRASIL", "BANCO": "SICOOB", "STATUS_OPERACIONAL": "CARTEIRA" }, "geometry": { "type": "Point", "coordinates": [ -46.5059971, -20.6366383 ] } },
{ "type": "Feature", "properties": { "NROCNPJ_PAD": "08763447000124", "NOME_FANTASIA": "FAZENDA POUSADA MIRANTE DA SERRA", "RAZAO_SOCIAL": "JEFERSON BARBOSA LOPES", "RESPONSAVEL": "-", "ENDEE": "ESTRADA PALMEIRA LETREIRO, S/N, KM 19, ZONA RURAL, 37920-000, SAO JOAO BATISTA DO GLORIA, MG, BRASIL", "BANCO": "BRADESCO", "STATUS_OPERACIONAL": "CARTEIRA" }, "geometry": { "type": "Point", "coordinates": [ -46.5116222, -20.6340079 ] } },
{ "type": "Feature", "properties": { "NROCNPJ_PAD": "01729046000109", "NOME_FANTASIA": "SUPERMECADO J.A.", "RAZAO_SOCIAL": "JEFFERSON PEREIRA REIS-CPF 13852856809", "RESPONSAVEL": "JEFFERSONPEREIRAREIS", "ENDEE": "RUA CURITIBA, 09, CENTRO, 37920-000, SAO JOAO BATISTA DO GLORIA, MG, BRASIL", "BANCO": "SICOOB", "STATUS_OPERACIONAL": "CARTEIRA" }, "geometry": { "type": "Point", "coordinates": [ -46.5043222, -20.6409148 ] } },
{ "type": "Feature", "properties": { "NROCNPJ_PAD": "32495247000112", "NOME_FANTASIA": "0", "RAZAO_SOCIAL": "JOAO PEDRO EUGENIO DE MEDEIROS 11695219678", "RESPONSAVEL": "JOAOPEDROEUGENIODEMEDEIROS", "ENDEE": "RUA SEBASTIAO CAETANO ROSA, 77, NOVO HORIZONTE, 37920-000, SAO JOAO BATISTA DO GLORIA, MG, BRASIL", "BANCO": "SICOOB", "STATUS_OPERACIONAL": "CARTEIRA" }, "geometry": { "type": "Point", "coordinates": [ -46.5056606, -20.6322118 ] } },
{ "type": "Feature", "properties": { "NROCNPJ_PAD": "35471921000117", "NOME_FANTASIA": "VENDA DA CANASTRA", "RAZAO_SOCIAL": "JOAO VICTOR VIANA REIS 11102075655", "RESPONSAVEL": "JOAOVICTORVIANAREIS", "ENDEE": "AVENIDA AVELINO SOARES DE REZENDE, 51, BLOCO C, CENTRO, 37920-000, SAO JOAO BATISTA DO GLORIA, MG, BRASIL", "BANCO": "SICOOB", "STATUS_OPERACIONAL": "CARTEIRA" }, "geometry": { "type": "Point", "coordinates": [ -46.5063069, -20.63758 ] } },
{ "type": "Feature", "properties": { "NROCNPJ_PAD": "37840124000195", "NOME_FANTASIA": "JA CONSTRUCAO CIVIL", "RAZAO_SOCIAL": "JOSE AUGUSTO SOARES LOPES 11731258682", "RESPONSAVEL": "JOSEAUGUSTOSOARESLOPES", "ENDEE": "RUA JOSE FRANCISCO DE SOUZA, 104, JOAO LIMIRIO, 37920-000, SAO JOAO BATISTA DO GLORIA, MG, BRASIL", "BANCO": "SICOOB", "STATUS_OPERACIONAL": "CARTEIRA" }, "geometry": { "type": "Point", "coordinates": [ -46.511565, -20.6334252 ] } },
{ "type": "Feature", "properties": { "NROCNPJ_PAD": "08270794000115", "NOME_FANTASIA": "MIO DAS GERAIS", "RAZAO_SOCIAL": "MIO DAS GERAIS LTDA", "RESPONSAVEL": "JOSIMARAISRAELDESOUZASILVA", "ENDEE": "AVENIDA AVELINO SOARES DE REZENDE, 88, LETRA A, CENTRO, 37920-000, SAO JOAO BATISTA DO GLORIA, MG, BRASIL", "BANCO": "SICOOB", "STATUS_OPERACIONAL": "CARTEIRA" }, "geometry": { "type": "Point", "coordinates": [ -46.5060085, -20.6364066 ] } },
{ "type": "Feature", "properties": { "NROCNPJ_PAD": "58233833000182", "NOME_FANTASIA": "0", "RAZAO_SOCIAL": "NINIVE SERVICOS MEDICOS LTDA", "RESPONSAVEL": "NINIVEFERREIRACHAVESGUIMARAES", "ENDEE": "AVENIDA AVELINO SOARES RESENDE, 53, CENTRO, 37920-000, SAO JOAO BATISTA DO GLORIA, MG, BRASIL", "BANCO": "SICOOB", "STATUS_OPERACIONAL": "CARTEIRA" }, "geometry": { "type": "Point", "coordinates": [ -46.5062594, -20.6375343 ] } },
{ "type": "Feature", "properties": { "NROCNPJ_PAD": "56919098000130", "NOME_FANTASIA": "PARTIU CANASTRA", "RAZAO_SOCIAL": "PARTIU CANASTRA LTDA", "RESPONSAVEL": "MARCO AURELIO GONCALVES JUNIOR", "ENDEE": "10A RUA LICO MARTINS, 609, NOVO HORIZONTE, 37920-000, SAO JOAO BATISTA DO GLORIA, MG, BRASIL", "BANCO": "SICREDI 2", "STATUS_OPERACIONAL": "CARTEIRA" }, "geometry": { "type": "Point", "coordinates": [ -46.5053043, -20.6325413 ] } },
{ "type": "Feature", "properties": { "NROCNPJ_PAD": "24233986000108", "NOME_FANTASIA": "POUSADA PAIS E FILHOS", "RAZAO_SOCIAL": "POUSADA PAIS E FILHOS LTDA", "RESPONSAVEL": "FELIPEISRAELFERNANDES|RAFAELISRAELFERNANDES", "ENDEE": "RUA HORACIO CAMPANHA DA SILVA, 185, BELA VISTA, 37920-000, SAO JOAO BATISTA DO GLORIA, MG, BRASIL", "BANCO": "SICOOB", "STATUS_OPERACIONAL": "CARTEIRA" }, "geometry": { "type": "Point", "coordinates": [ -46.5036802, -20.6287542 ] } },
{ "type": "Feature", "properties": { "NROCNPJ_PAD": "40722927000150", "NOME_FANTASIA": "POUSADA RAIO DE SOL", "RAZAO_SOCIAL": "RAQUEL GUIMARAES FERREIRA DE OLIVEIRA 73082082653", "RESPONSAVEL": "RAQUELGUIMARAESFERREIRADEOLIVEIRA", "ENDEE": "AVENIDA AVELINO SOARES DE REZENDE, 51, CASA, CENTRO, 37920-000, SAO JOAO BATISTA DO GLORIA, MG, BRASIL", "BANCO": "SICOOB", "STATUS_OPERACIONAL": "CARTEIRA" }, "geometry": { "type": "Point", "coordinates": [ -46.5063069, -20.63758 ] } },
{ "type": "Feature", "properties": { "NROCNPJ_PAD": "10724919000181", "NOME_FANTASIA": "0", "RAZAO_SOCIAL": "REAL SAT LTDA", "RESPONSAVEL": "ERIKAPARECIDODEPAULA", "ENDEE": "RUA FORTALEZA, 23, CENTRO, 37920-000, SAO JOAO BATISTA DO GLORIA, MG, BRASIL", "BANCO": "SICOOB", "STATUS_OPERACIONAL": "CARTEIRA" }, "geometry": { "type": "Point", "coordinates": [ -46.5057535, -20.6348318 ] } },
{ "type": "Feature", "properties": { "NROCNPJ_PAD": "24165750000181", "NOME_FANTASIA": "REINVENT MENSWEAR", "RAZAO_SOCIAL": "REINVENT COMERCIO LTDA", "RESPONSAVEL": "ALEQUITANAALVESGARCIA", "ENDEE": "RUA RECIFE, 14, LETRA A, CENTRO, 37920-000, SAO JOAO BATISTA DO GLORIA, MG, BRASIL", "BANCO": "SICOOB", "STATUS_OPERACIONAL": "CARTEIRA" }, "geometry": { "type": "Point", "coordinates": [ -46.5065507, -20.6343969 ] } },
{ "type": "Feature", "properties": { "NROCNPJ_PAD": "31001732000120", "NOME_FANTASIA": "RO CAROLINA ADESIVOS ARTESANAIS", "RAZAO_SOCIAL": "ROBERTA CAROLINA FERREIRA MARTINS 05983315650", "RESPONSAVEL": "ROBERTACAROLINAFERREIRAMARTINS", "ENDEE": "RUA PRESIDEU JOSE MARTINS, 54, MARIA ROSA, 37920-000, SAO JOAO BATISTA DO GLORIA, MG, BRASIL", "BANCO": "SICOOB", "STATUS_OPERACIONAL": "CARTEIRA" }, "geometry": { "type": "Point", "coordinates": [ -46.5095398, -20.6371032 ] } },
{ "type": "Feature", "properties": { "NROCNPJ_PAD": "11029541000169", "NOME_FANTASIA": "SUPERMERCADO SAO LUIZ", "RAZAO_SOCIAL": "RODRIGO REZENDE DE SOUZA - SUPERMERCADO", "RESPONSAVEL": "RODRIGOREZENDEDESOUZA", "ENDEE": "RUA SAO LUIZ, 453, NOVO HORIZONTE, 37920-000, SAO JOAO BATISTA DO GLORIA, MG, BRASIL", "BANCO": "SICOOB", "STATUS_OPERACIONAL": "CARTEIRA" }, "geometry": { "type": "Point", "coordinates": [ -46.5046979, -20.6366241 ] } },
{ "type": "Feature", "properties": { "NROCNPJ_PAD": "20037306000120", "NOME_FANTASIA": "ATUAL MODA", "RAZAO_SOCIAL": "SAMELA MEDEIROS DOS REIS", "RESPONSAVEL": "SAMELAMEDEIROSDOSREIS", "ENDEE": "RUA RECIFE, 15, CENTRO, 37920-000, SAO JOAO BATISTA DO GLORIA, MG, BRASIL", "BANCO": "SICOOB", "STATUS_OPERACIONAL": "CARTEIRA" }, "geometry": { "type": "Point", "coordinates": [ -46.5068729, -20.6343962 ] } },
{ "type": "Feature", "properties": { "NROCNPJ_PAD": "53263367000164", "NOME_FANTASIA": "SANTA RITA MODA COUNTRY", "RAZAO_SOCIAL": "SANTA RITA MODA COUNTRY LTDA", "RESPONSAVEL": "GABRIELASOUZARODRIGUES", "ENDEE": "RUA RECIFE, 80, LETRA A, CENTRO, 37920-000, SAO JOAO BATISTA DO GLORIA, MG, BRASIL", "BANCO": "SICOOB", "STATUS_OPERACIONAL": "CARTEIRA" }, "geometry": { "type": "Point", "coordinates": [ -46.5074486, -20.6310095 ] } },
{ "type": "Feature", "properties": { "NROCNPJ_PAD": "10538639000189", "NOME_FANTASIA": "TRANSPORTADORA ORIENTE", "RAZAO_SOCIAL": "TRANSPORTADORA ESTRELA DO ORIENTE LTDA", "RESPONSAVEL": "CLAYTONMARTINS|DAYLONMARTINS", "ENDEE": "RUA MACAPA, 826, CENTRO, 37920-000, SAO JOAO BATISTA DO GLORIA, MG, BRASIL", "BANCO": "SICOOB", "STATUS_OPERACIONAL": "CARTEIRA" }, "geometry": { "type": "Point", "coordinates": [ -46.5070365, -20.6442206 ] } },
{ "type": "Feature", "properties": { "NROCNPJ_PAD": "42279843000119", "NOME_FANTASIA": "PRETINHO FRETES", "RAZAO_SOCIAL": "WELLINGTON HENRIQUE LOPES", "RESPONSAVEL": "WELLINGTONHENRIQUELOPES", "ENDEE": "RUA DOS IPES, 399, JARDIM DAS ACACIAS, 37920-000, SAO JOAO BATISTA DO GLORIA, MG, BRASIL", "BANCO": "SICOOB", "STATUS_OPERACIONAL": "CARTEIRA" }, "geometry": { "type": "Point", "coordinates": [ -46.4953567, -20.6366819 ] } },
{ "type": "Feature", "properties": { "NROCNPJ_PAD": "44444938000176", "NOME_FANTASIA": "ZGM - ZANELLA GROUP", "RAZAO_SOCIAL": "ZANELLA GROUP MARKETING & SERVICOS ADMINISTRATIVOS LTDA", "RESPONSAVEL": "JANSENBAZANELLAANDRADE", "ENDEE": "RUA RUA JOSE COSTA E SILVA, 1120, RIO GRANDE II, 37920-000, SAO JOAO BATISTA DO GLORIA, MG, BRASIL", "BANCO": "SICOOB", "STATUS_OPERACIONAL": "CARTEIRA" }, "geometry": { "type": "Point", "coordinates": [ -46.5077751, -20.6449975 ] } },
{ "type": "Feature", "properties": { "NROCNPJ_PAD": "50866116000186", "NOME_FANTASIA": "JT TERRAPLANAGEM", "RAZAO_SOCIAL": "FLAVIA DIAS SILVEIRA GUIMARAES", "RESPONSAVEL": "FLAVIADIASSILVEIRAGUIMARAES", "ENDEE": "RUA JONAS GONCALVES DE OLIVEIRA, 1052, RESIDENCIAL RIO GRANDE II, 37920-000, SÃO JOÃO BATISTA DO GLÓRIA, MG, BRASIL", "BANCO": "SICOOB", "STATUS_OPERACIONAL": "CARTEIRA" }, "geometry": { "type": "Point", "coordinates": [ -46.5079806, -20.6445263 ] } },
{ "type": "Feature", "properties": { "NROCNPJ_PAD": "43945167000138", "NOME_FANTASIA": "RESTAURANTE FAMILIA SALERMO", "RAZAO_SOCIAL": "POUSADA VILA TADEU LTDA", "RESPONSAVEL": "MARIA EDUARDA SALERMO MELO SILVA|TADEU DA SILVA GALDINO", "ENDEE": "RUA HORACIO CAMPANHA DA SILVA, 17, CONDOMINIO BOA VISTA, 37920-000, SÃO JOÃO BATISTA DO GLÓRIA, MG, BRASIL", "BANCO": "BDMG", "STATUS_OPERACIONAL": "CARTEIRA" }, "geometry": { "type": "Point", "coordinates": [ -46.5036802, -20.6287542 ] } },
{ "type": "Feature", "properties": { "NROCNPJ_PAD": "43249923000194", "NOME_FANTASIA": "-", "RAZAO_SOCIAL": "SAMUEL MILTON SANTOS", "RESPONSAVEL": "SAMUELMILTONSANTOS", "ENDEE": "AVENIDA FLORIANOPOLIS, 66A, JARDIM PLANALTO, 37920-000, SÃO JOÃO BATISTA DO GLÓRIA, MG, BRASIL", "BANCO": "SICOOB", "STATUS_OPERACIONAL": "CARTEIRA" }, "geometry": { "type": "Point", "coordinates": [ -46.5109661, -20.6299101 ] } },
{ "type": "Feature", "properties": { "NROCNPJ_PAD": "33005162000171", "NOME_FANTASIA": "PAULA MARTINS SALAO DE BELEZA", "RAZAO_SOCIAL": "33.005.162 PAULA CRISTINA MARTINS DE BRITO", "RESPONSAVEL": "PAULACRISTINAMARTINSDEBRITO", "ENDEE": "RUA CAMPO GRANDE, 24, CENTRO, 37920-000, SÃO JOÃO BATISTA DO GLÓRIA, MG, BRASIL", "BANCO": "SICOOB", "STATUS_OPERACIONAL": "CARTEIRA" }, "geometry": { "type": "Point", "coordinates": [ -46.5047128, -20.6359724 ] } },
{ "type": "Feature", "properties": { "NROCNPJ_PAD": "20634552000169", "NOME_FANTASIA": "-", "RAZAO_SOCIAL": "MERCEARIA DO RUBAO LTDA", "RESPONSAVEL": "GABRIELASAMPAIORODRIGUES", "ENDEE": "RUA ALVARINO ALVES DOS SANTOS, 90, JARDIM PLANALTO, 37920-000, SÃO JOÃO BATISTA DO GLÓRIA, MG, BRASIL", "BANCO": "SICOOB", "STATUS_OPERACIONAL": "CARTEIRA" }, "geometry": { "type": "Point", "coordinates": [ -46.5133303, -20.6299588 ] } },
{ "type": "Feature", "properties": { "NROCNPJ_PAD": "20779415000112", "NOME_FANTASIA": "-", "RAZAO_SOCIAL": "ADRIANO GARCIA DA SILVA 01622602617", "RESPONSAVEL": "ADRIANOGARCIADASILVA", "ENDEE": "AVENIDA FLORIANOPOLIS, 30, LOJA, JARDIM PLANALTO, 37920-000, SÃO JOÃO BATISTA DO GLÓRIA, MG, BRASIL", "BANCO": "SICOOB", "STATUS_OPERACIONAL": "CARTEIRA" }, "geometry": { "type": "Point", "coordinates": [ -46.5093771, -20.6303263 ] } },
{ "type": "Feature", "properties": { "NROCNPJ_PAD": "48252766000190", "NOME_FANTASIA": "-", "RAZAO_SOCIAL": "48.252.766 MARCELO MARTINS DOS REIS", "RESPONSAVEL": "MARCELOMARTINSDOSREIS", "ENDEE": "AVENIDA FLORIANOPOLIS, 7, CENTRO, 37920-000, SÃO JOÃO BATISTA DO GLÓRIA, MG, BRASIL", "BANCO": "SICOOB", "STATUS_OPERACIONAL": "CARTEIRA" }, "geometry": { "type": "Point", "coordinates": [ -46.5080083, -20.6311104 ] } },
{ "type": "Feature", "properties": { "NROCNPJ_PAD": "47116662000195", "NOME_FANTASIA": "FABIOLA SIQUEIRA NAIL DESIGNER", "RAZAO_SOCIAL": "47.116.662 FABIOLA APARECIDA DE SIQUEIRA", "RESPONSAVEL": "FABIOLAAPARECIDADESIQUEIRA", "ENDEE": "PRACA JK, 12, CENTRO, 37980-000, CASSIA, MG, BRASIL", "BANCO": "SICOOB", "STATUS_OPERACIONAL": "RETORNAR_COMERCIAL" }, "geometry": { "type": "Point", "coordinates": [ -46.9235808, -20.5818793 ] } },
{ "type": "Feature", "properties": { "NROCNPJ_PAD": "07844037000145", "NOME_FANTASIA": "0", "RAZAO_SOCIAL": "FERCICAL COMERCIO DE MATERIAIS PARA CONSTRUCAO LTDA", "RESPONSAVEL": "DELMAPIMENTADESOUZARODRIGUES|EDSONRODRIGUES", "ENDEE": "PRACA 13 DE MAIO, 184, AGUA LIMPA, 37980-000, CASSIA, MG, BRASIL", "BANCO": "SICOOB", "STATUS_OPERACIONAL": "RETORNAR_COMERCIAL" }, "geometry": { "type": "Point", "coordinates": [ -46.9199363, -20.5917245 ] } },
{ "type": "Feature", "properties": { "NROCNPJ_PAD": "41491003000152", "NOME_FANTASIA": "EMBALAGEM E MAGIA", "RAZAO_SOCIAL": "JLB EMBALAGEM LTDA", "RESPONSAVEL": "JANAINALEMOSBARBOSA", "ENDEE": "RUA CORONEL SATURNINO PEREIRA, 236, CENTRO, 37980-000, CASSIA, MG, BRASIL", "BANCO": "SICOOB", "STATUS_OPERACIONAL": "APLICAR T2" }, "geometry": { "type": "Point", "coordinates": [ -46.9252397, -20.5787564 ] } },
{ "type": "Feature", "properties": { "NROCNPJ_PAD": "11272668000104", "NOME_FANTASIA": "ACAI POINT", "RAZAO_SOCIAL": "TEREZINHA GABRIEL DE SOUZA", "RESPONSAVEL": "TEREZINHA GABRIEL DE SOUZA", "ENDEE": "RUA ASTOLFO DE OLIVEIRA FILHO, 200, CENTRO, 37980-000, CASSIA, MG, BRASIL", "BANCO": "SICREDI 2", "STATUS_OPERACIONAL": "APLICAR T2" }, "geometry": { "type": "Point", "coordinates": [ -46.9232461, -20.5819286 ] } },
{ "type": "Feature", "properties": { "NROCNPJ_PAD": "13506144000166", "NOME_FANTASIA": "0", "RAZAO_SOCIAL": "13.506.144 DAMIAO LEITE", "RESPONSAVEL": "DAMIAOLEITE", "ENDEE": "RUA CORONEL SATURNINO PEREIRA, 447, CENTRO, 37980-000, CASSIA, MG, BRASIL", "BANCO": "SICOOB", "STATUS_OPERACIONAL": "APLICAR T2" }, "geometry": { "type": "Point", "coordinates": [ -46.9263827, -20.5770898 ] } }
]
}
