{
"type": "FeatureCollection",
"name": "GAMA",
"crs": { "type": "name", "properties": { "name": "urn:ogc:def:crs:OGC:1.3:CRS84" } },
"features": [
{ "type": "Feature", "properties": { "NROCNPJ_PAD": "34324115000153", "NOME_FANTASIA": "DAS ELETROSOLAR", "RAZAO_SOCIAL": "DAS ELETROSOLAR SOLUCOES ELETRICAS LTDA", "RESPONSAVEL": "DANIEL ALVES DA SILVA", "ENDEE": "RUA DIVINOPOLIS, 42, NITEROI, 32672-074, BETIM", "BANCO": "-", "LINHA_AVAL_NOME": "GIRO", "STATUS_OPERACIONAL": "CARTEIRA" }, "geometry": { "type": "Point", "coordinates": [ -44.1806801, -19.9467234 ] } },
{ "type": "Feature", "properties": { "NROCNPJ_PAD": "51915358000185", "NOME_FANTASIA": "0", "RAZAO_SOCIAL": "4LIFE IMPORTADORA LTDA", "RESPONSAVEL": "CRISTIANMATHEUSDESOUSAESILVA|GUILHERMEMARQUESCARVALHO|MARCOSFERNANDORODRIGUES", "ENDEE": "RUA GERALDO SERRANO, 1105, CASA ., CATALAO, 35501-202, DIVINOPOLIS, MG, BRASIL", "BANCO": "SICOOB", "LINHA_AVAL_NOME": "#N/D", "STATUS_OPERACIONAL": "CARTEIRA" }, "geometry": { "type": "Point", "coordinates": [ -44.9067259, -20.1568904 ] } },
{ "type": "Feature", "properties": { "NROCNPJ_PAD": "14291003000136", "NOME_FANTASIA": "SO REPAROS.", "RAZAO_SOCIAL": "14.291.003 MAURICIO BARROS VILELA", "RESPONSAVEL": "MAURICIOBARROSVILELA", "ENDEE": "RUA VEREADOR MILTON DONIZETE, 171, RESIDENCIAL FONTE BOA, 35502-611, DIVINOPOLIS, MG, BRASIL", "BANCO": "SICOOB", "LINHA_AVAL_NOME": "#N/D", "STATUS_OPERACIONAL": "CARTEIRA" }, "geometry": { "type": "Point", "coordinates": [ -44.8838936, -20.1063179 ] } },
{ "type": "Feature", "properties": { "NROCNPJ_PAD": "15303022000106", "NOME_FANTASIA": "0", "RAZAO_SOCIAL": "15.303.022 RICARDO JOSE DOS SANTOS", "RESPONSAVEL": "RICARDOJOSEDOSSANTOS", "ENDEE": "ALAMEDA RIO XINGU, 108, TIETE, 35501-174, DIVINOPOLIS, MG, BRASIL", "BANCO": "SICOOB", "LINHA_AVAL_NOME": "#N/D", "STATUS_OPERACIONAL": "CARTEIRA" }, "geometry": { "type": "Point", "coordinates": [ -44.9130574, -20.1428234 ] } },
{ "type": "Feature", "properties": { "NROCNPJ_PAD": "29171528000105", "NOME_FANTASIA": "AGROPECUARIA DIAS", "RAZAO_SOCIAL": "29.171.528 FRANCELINO MOREIRA DA CUNHA", "RESPONSAVEL": "FRANCELINOMOREIRADACUNHA", "ENDEE": "RUA JOSE RICARDO, 250, JOAO ANTONIO GONCALVES, 35501-502, DIVINOPOLIS, MG, BRASIL", "BANCO": "SICOOB", "LINHA_AVAL_NOME": "#N/D", "STATUS_OPERACIONAL": "CARTEIRA" }, "geometry": { "type": "Point", "coordinates": [ -44.9334895, -20.1621759 ] } },
{ "type": "Feature", "properties": { "NROCNPJ_PAD": "30905299000194", "NOME_FANTASIA": "ESPACO PET VALENTINA", "RAZAO_SOCIAL": "30.905.299 PEDRO TERRA RODRIGUES", "RESPONSAVEL": "PEDROTERRARODRIGUES", "ENDEE": "RUA SAO PAULO, 1580, LOJA 04, SANTO ANTONIO, 35502-025, DIVINOPOLIS, MG, BRASIL", "BANCO": "SICOOB", "LINHA_AVAL_NOME": "#N/D", "STATUS_OPERACIONAL": "CARTEIRA" }, "geometry": { "type": "Point", "coordinates": [ -44.9003457, -20.1401291 ] } },
{ "type": "Feature", "properties": { "NROCNPJ_PAD": "40789535000108", "NOME_FANTASIA": "ALPINO MARTELINHO DE OURO", "RAZAO_SOCIAL": "40.789.535 ALESSANDRO PAULO ALPINO RODRIGUES", "RESPONSAVEL": "ALESSANDROPAULOALPINORODRIGUES", "ENDEE": "RUA CEARA, 225, CENTRO, 35500-013, DIVINOPOLIS, MG, BRASIL", "BANCO": "SICOOB", "LINHA_AVAL_NOME": "#N/D", "STATUS_OPERACIONAL": "CARTEIRA" }, "geometry": { "type": "Point", "coordinates": [ -44.9262077, -20.1375647 ] } },
{ "type": "Feature", "properties": { "NROCNPJ_PAD": "40904571000175", "NOME_FANTASIA": "0", "RAZAO_SOCIAL": "40.904.571 FELIPE LIMA DE FREITAS", "RESPONSAVEL": "FELIPELIMADEFREITAS", "ENDEE": "AVENIDA APOLO, 451, APT 202, VILA ROMANA, 35500-399, DIVINOPOLIS, MG, BRASIL", "BANCO": "SICOOB", "LINHA_AVAL_NOME": "#N/D", "STATUS_OPERACIONAL": "CARTEIRA" }, "geometry": { "type": "Point", "coordinates": [ -44.8691669, -20.1117341 ] } },
{ "type": "Feature", "properties": { "NROCNPJ_PAD": "43449112000137", "NOME_FANTASIA": "RAINHA DO CEU REPRESENTACOES.", "RAZAO_SOCIAL": "43.449.112 GUILHERME HENRIQUE FARIA MAIA", "RESPONSAVEL": "GUILHERMEHENRIQUEFARIAMAIA", "ENDEE": "RUA JOAQUIM LEANDRO FILHO, 471, CASA, SANTO ANTONIO DOS CAMPOS, 35505-000, DIVINOPOLIS, MG, BRASIL", "BANCO": "SICOOB", "LINHA_AVAL_NOME": "#N/D", "STATUS_OPERACIONAL": "CARTEIRA" }, "geometry": { "type": "Point", "coordinates": [ -44.9715733, -20.1128433 ] } },
{ "type": "Feature", "properties": { "NROCNPJ_PAD": "47993033000143", "NOME_FANTASIA": "MARIO ALVES GONTIJO", "RAZAO_SOCIAL": "47.993.033 MARIO ALVES GONTIJO", "RESPONSAVEL": "MARIOALVESGONTIJO", "ENDEE": "RUA ANTONIO PEREIRA DA SILVA, 100, BLOCO 3 - AP 203, MARAJO, 35504-443, DIVINOPOLIS, MG, BRASIL", "BANCO": "SICOOB", "LINHA_AVAL_NOME": "#N/D", "STATUS_OPERACIONAL": "CARTEIRA" }, "geometry": { "type": "Point", "coordinates": [ -44.9228433, -20.1676781 ] } },
{ "type": "Feature", "properties": { "NROCNPJ_PAD": "50411724000104", "NOME_FANTASIA": "0", "RAZAO_SOCIAL": "50.411.724 OSVALDO JOSE PEREIRA", "RESPONSAVEL": "OSVALDOJOSEPEREIRA", "ENDEE": "RUA OLIMPIO GOMES BRANQUINHO, 1398, NOSSA SENHORA DAS GRACAS, 35501-096, DIVINOPOLIS, MG, BRASIL", "BANCO": "SICOOB", "LINHA_AVAL_NOME": "#N/D", "STATUS_OPERACIONAL": "CARTEIRA" }, "geometry": { "type": "Point", "coordinates": [ -44.8826486, -20.1720718 ] } },
{ "type": "Feature", "properties": { "NROCNPJ_PAD": "51215090000179", "NOME_FANTASIA": "0", "RAZAO_SOCIAL": "51.215.090 CARLOS EULER MENEZES PEREIRA", "RESPONSAVEL": "CARLOSEULERMENEZESPEREIRA", "ENDEE": "RUA MESTRE PEDRO SILVA, 129, ESPLANADA, 35501-002, DIVINOPOLIS, MG, BRASIL", "BANCO": "SICOOB", "LINHA_AVAL_NOME": "#N/D", "STATUS_OPERACIONAL": "CARTEIRA" }, "geometry": { "type": "Point", "coordinates": [ -44.8929063, -20.1537999 ] } },
{ "type": "Feature", "properties": { "NROCNPJ_PAD": "63587918000107", "NOME_FANTASIA": "0", "RAZAO_SOCIAL": "63.587.918 DANIELLE RODRIGUES PEREIRA", "RESPONSAVEL": "DANIELLERODRIGUESPEREIRA", "ENDEE": "AVENIDA BOM DESPACHO, 361, VALE DO SOL, 35500-561, DIVINOPOLIS, MG, BRASIL", "BANCO": "SICOOB", "LINHA_AVAL_NOME": "#N/D", "STATUS_OPERACIONAL": "CARTEIRA" }, "geometry": { "type": "Point", "coordinates": [ -44.8492419, -20.1592473 ] } },
{ "type": "Feature", "properties": { "NROCNPJ_PAD": "27592064000185", "NOME_FANTASIA": "PERFIL ACADEMIA", "RAZAO_SOCIAL": "ACADEMIA PERFIL LTDA", "RESPONSAVEL": "VIVIANAVIRIATOMENDESCARVALHO", "ENDEE": "RUA MANTENA, 60, BOM PASTOR, 35500-171, DIVINOPOLIS, MG, BRASIL", "BANCO": "SICOOB", "LINHA_AVAL_NOME": "#N/D", "STATUS_OPERACIONAL": "CARTEIRA" }, "geometry": { "type": "Point", "coordinates": [ -44.8941517, -20.1217245 ] } },
{ "type": "Feature", "properties": { "NROCNPJ_PAD": "33772436000158", "NOME_FANTASIA": "RECICLAGEM SAO GERALDO", "RAZAO_SOCIAL": "ADILSON PEREIRA DA SILVA 00287738612", "RESPONSAVEL": "ADILSONPEREIRADASILVA", "ENDEE": "RUA EVELINA GRECO DOS SANTOS, 151, CHACARAS BELO HORIZONTE, 35503-702, DIVINOPOLIS, MG, BRASIL", "BANCO": "SICOOB", "LINHA_AVAL_NOME": "#N/D", "STATUS_OPERACIONAL": "CARTEIRA" }, "geometry": { "type": "Point", "coordinates": [ -44.8089838, -20.1836708 ] } },
{ "type": "Feature", "properties": { "NROCNPJ_PAD": "10478936000186", "NOME_FANTASIA": "0", "RAZAO_SOCIAL": "ANACLETO PNEUS LTDA", "RESPONSAVEL": "ANTONIOANACLETODOSSANTOS", "ENDEE": "RODOVIA MG-050, S/N, KM 134, JARDIM REAL, 35504-199, DIVINOPOLIS, MG, BRASIL", "BANCO": "SICOOB", "LINHA_AVAL_NOME": "#N/D", "STATUS_OPERACIONAL": "CARTEIRA" }, "geometry": { "type": "Point", "coordinates": [ -44.9157109, -20.1462144 ] } },
{ "type": "Feature", "properties": { "NROCNPJ_PAD": "24042605000103", "NOME_FANTASIA": "BAR E MERCEARIA DO GORDO", "RAZAO_SOCIAL": "ARILTON JOSE DA COSTA", "RESPONSAVEL": "ARILTONJOSEDACOSTA|PAULOARTHURLACERDADACOSTA", "ENDEE": "RUA ANTONIO OLIMPIO DE OLIVEIRA, 121, SANTO ANTONIO DOS CAMPOS, 35505-000, DIVINOPOLIS, MG, BRASIL", "BANCO": "SICOOB", "LINHA_AVAL_NOME": "#N/D", "STATUS_OPERACIONAL": "CARTEIRA" }, "geometry": { "type": "Point", "coordinates": [ -44.9717221, -20.1037557 ] } },
{ "type": "Feature", "properties": { "NROCNPJ_PAD": "33616581000140", "NOME_FANTASIA": "AUTO CENTRO TUDO CAR", "RAZAO_SOCIAL": "AUTO CENTRO TUDO CAR ALINHAMENTOS LTDA", "RESPONSAVEL": "-", "ENDEE": "AVENIDA AUTORAMA, 100, A, CATALAO, 35501-221, DIVINOPOLIS, MG, BRASIL", "BANCO": "BDMG", "LINHA_AVAL_NOME": "#N/D", "STATUS_OPERACIONAL": "CARTEIRA" }, "geometry": { "type": "Point", "coordinates": [ -44.9030773, -20.1480321 ] } },
{ "type": "Feature", "properties": { "NROCNPJ_PAD": "04073031000123", "NOME_FANTASIA": "AUTO ELETRICA E BATERIAS AUTORAMA", "RAZAO_SOCIAL": "AUTO ELETRICA E BATERIAS AUTORAMA LTDA", "RESPONSAVEL": "BRENOHENRIQUERIBEIRO|DONIZETEFONSECADOSSANTOS", "ENDEE": "RUA DUARTE, 254, SANTA LUZIA, 35501-172, DIVINOPOLIS, MG, BRASIL", "BANCO": "SICOOB", "LINHA_AVAL_NOME": "#N/D", "STATUS_OPERACIONAL": "CARTEIRA" }, "geometry": { "type": "Point", "coordinates": [ -44.9047641, -20.1478745 ] } },
{ "type": "Feature", "properties": { "NROCNPJ_PAD": "08263185000139", "NOME_FANTASIA": "AUTO MOLAS ADONAI", "RAZAO_SOCIAL": "AUTO MOLAS E MECANICA ADONAI LTDA", "RESPONSAVEL": "RAFAELMAGNOSARAUJODASILVA|VENILDOBATISTADEARAUJO", "ENDEE": "RODOVIA MG 050, SN, KM 96, JOAO ANTONIO GONCALVES, 35501-504, DIVINOPOLIS, MG, BRASIL", "BANCO": "SICOOB", "LINHA_AVAL_NOME": "#N/D", "STATUS_OPERACIONAL": "CARTEIRA" }, "geometry": { "type": "Point", "coordinates": [ -44.9210527, -20.1617285 ] } },
{ "type": "Feature", "properties": { "NROCNPJ_PAD": "59083002000134", "NOME_FANTASIA": "0", "RAZAO_SOCIAL": "BINHO CAR GARAGEM LTDA", "RESPONSAVEL": "FABIOVICENTERODRIGUES", "ENDEE": "AVENIDA DIVINO ESPIRITO SANTO, 776, CENTRO, 35500-021, DIVINOPOLIS, MG, BRASIL", "BANCO": "SICOOB", "LINHA_AVAL_NOME": "#N/D", "STATUS_OPERACIONAL": "CARTEIRA" }, "geometry": { "type": "Point", "coordinates": [ -44.8920444, -20.1361412 ] } },
{ "type": "Feature", "properties": { "NROCNPJ_PAD": "19399884000127", "NOME_FANTASIA": "0", "RAZAO_SOCIAL": "CENTRO DE EDUCACAO INFANTIL TINDOLELE LTDA", "RESPONSAVEL": "CRISTIANODIASDECASTRO|KELLYCOSSENZOPINTO|LILIANGOMESCOIMBRA", "ENDEE": "RUA CORONEL JOAO NOTINI, 1551, LEVINDO PAULA PEREIRA, 35502-022, DIVINOPOLIS, MG, BRASIL", "BANCO": "SICOOB", "LINHA_AVAL_NOME": "#N/D", "STATUS_OPERACIONAL": "CARTEIRA" }, "geometry": { "type": "Point", "coordinates": [ -44.8984512, -20.1375099 ] } },
{ "type": "Feature", "properties": { "NROCNPJ_PAD": "03345574000190", "NOME_FANTASIA": "CASA BELA", "RAZAO_SOCIAL": "CIMENTO & CIA MATERIAIS DE CONSTRUCAO LTDA", "RESPONSAVEL": "CELIOALVESCABRAL|JOAOBRUNOCABRAL", "ENDEE": "RUA BRASILIA, 611, BELVEDERE, 35501-346, DIVINOPOLIS, MG, BRASIL", "BANCO": "SICOOB", "LINHA_AVAL_NOME": "#N/D", "STATUS_OPERACIONAL": "CARTEIRA" }, "geometry": { "type": "Point", "coordinates": [ -44.9077081, -20.1771313 ] } },
{ "type": "Feature", "properties": { "NROCNPJ_PAD": "31916719000109", "NOME_FANTASIA": "CLOTHING", "RAZAO_SOCIAL": "CLOTHING INDUSTRIA E COMERCIO DE CONFECCOES LTDA", "RESPONSAVEL": "GLAUBERLACERDAROCHA", "ENDEE": "RUA JOAO MOREIRA, 700, CASA 01, TIETE, 35501-189, DIVINOPOLIS, MG, BRASIL", "BANCO": "SICOOB", "LINHA_AVAL_NOME": "#N/D", "STATUS_OPERACIONAL": "CARTEIRA" }, "geometry": { "type": "Point", "coordinates": [ -44.9125574, -20.1476751 ] } },
{ "type": "Feature", "properties": { "NROCNPJ_PAD": "01908703000185", "NOME_FANTASIA": "0", "RAZAO_SOCIAL": "COMERCIAL CF LTDA", "RESPONSAVEL": "WILLIANGERALDOFERNANDES", "ENDEE": "RUA FRANCINO FARIA FAGUNDES, 200, FLOERMIDA, 35500-970, DIVINOPOLIS, MG, BRASIL", "BANCO": "SICOOB", "LINHA_AVAL_NOME": "#N/D", "STATUS_OPERACIONAL": "CARTEIRA" }, "geometry": { "type": "Point", "coordinates": [ -44.9692729, -20.1049054 ] } },
{ "type": "Feature", "properties": { "NROCNPJ_PAD": "38482474000190", "NOME_FANTASIA": "POA PIJAMAS", "RAZAO_SOCIAL": "COMERCIAL POA LTDA", "RESPONSAVEL": "KATIA SIRLENE GOULART DALDEGAN", "ENDEE": "RUA GOIAS, 2745, IPIRANGA, 35502-027, DIVINOPOLIS, MG, BRASIL", "BANCO": "BDMG", "LINHA_AVAL_NOME": "#N/D", "STATUS_OPERACIONAL": "CARTEIRA" }, "geometry": { "type": "Point", "coordinates": [ -44.9108277, -20.139415 ] } },
{ "type": "Feature", "properties": { "NROCNPJ_PAD": "23774706000106", "NOME_FANTASIA": "0", "RAZAO_SOCIAL": "COMOL CONTABILIDADE MODELO S/S LTDA", "RESPONSAVEL": "-", "ENDEE": "RUA PARA, 810, SANTO ANTONIO, 35500-032, DIVINOPOLIS, MG, BRASIL", "BANCO": "BDMG", "LINHA_AVAL_NOME": "#N/D", "STATUS_OPERACIONAL": "CARTEIRA" }, "geometry": { "type": "Point", "coordinates": [ -44.8991668, -20.1388509 ] } },
{ "type": "Feature", "properties": { "NROCNPJ_PAD": "47082713000105", "NOME_FANTASIA": "COMPLETA PAPELARIA", "RAZAO_SOCIAL": "COMPLETA COMERCIO DE PAPELARIA E PRESENTES LTDA", "RESPONSAVEL": "LUCIANAFATIMADEOLIVEIRA", "ENDEE": "RUA BERNADO BESSA BARRETO, 35, LOJA LOJA, SANTO ANTONIO DOS CAMPOS, 35505-000, DIVINOPOLIS, MG, BRASIL", "BANCO": "SICOOB", "LINHA_AVAL_NOME": "#N/D", "STATUS_OPERACIONAL": "CARTEIRA" }, "geometry": { "type": "Point", "coordinates": [ -44.9736349, -20.1037084 ] } },
{ "type": "Feature", "properties": { "NROCNPJ_PAD": "03430920000138", "NOME_FANTASIA": "0", "RAZAO_SOCIAL": "CROMAGEM DIVINOPOLIS LTDA", "RESPONSAVEL": "DOUGLASMEDEIROSFREITAS", "ENDEE": "ALAMEDA RIO CRIXAS, 176, TIETE, 35501-182, DIVINOPOLIS, MG, BRASIL", "BANCO": "SICOOB", "LINHA_AVAL_NOME": "#N/D", "STATUS_OPERACIONAL": "CARTEIRA" }, "geometry": { "type": "Point", "coordinates": [ -44.9152374, -20.1425337 ] } },
{ "type": "Feature", "properties": { "NROCNPJ_PAD": "49290632000126", "NOME_FANTASIA": "CS CLINIC", "RAZAO_SOCIAL": "CS CLINIC LTDA", "RESPONSAVEL": "CAROLDOSSANTOSSILVA", "ENDEE": "RUA JOAO MARTINS COELHO, 165, SANTO ANTONIO DOS CAMPOS, 35505-000, DIVINOPOLIS, MG, BRASIL", "BANCO": "SICOOB", "LINHA_AVAL_NOME": "#N/D", "STATUS_OPERACIONAL": "CARTEIRA" }, "geometry": { "type": "Point", "coordinates": [ -44.9774219, -20.1116796 ] } },
{ "type": "Feature", "properties": { "NROCNPJ_PAD": "34987088000107", "NOME_FANTASIA": "0", "RAZAO_SOCIAL": "D-TINTAS LTDA", "RESPONSAVEL": "MATHEUSMOURAOCORDEIROVAZ|TULIOSALIBAVAZLIMA", "ENDEE": "AVENIDA AUTORAMA, 204, CATALAO, 35501-221, DIVINOPOLIS, MG, BRASIL", "BANCO": "SICOOB", "LINHA_AVAL_NOME": "#N/D", "STATUS_OPERACIONAL": "CARTEIRA" }, "geometry": { "type": "Point", "coordinates": [ -44.9053959, -20.1506399 ] } },
{ "type": "Feature", "properties": { "NROCNPJ_PAD": "27027113000137", "NOME_FANTASIA": "PERTUBASOM", "RAZAO_SOCIAL": "DANIEL JOAO DA SILVA 07481889678", "RESPONSAVEL": "DANIELJOAODASILVA", "ENDEE": "RUA JOAO MARTINS COELHO, 196, CENTRO, 35505-000, DIVINOPOLIS, MG, BRASIL", "BANCO": "SICOOB", "LINHA_AVAL_NOME": "#N/D", "STATUS_OPERACIONAL": "CARTEIRA" }, "geometry": { "type": "Point", "coordinates": [ -44.9773809, -20.1111069 ] } },
{ "type": "Feature", "properties": { "NROCNPJ_PAD": "27745949000177", "NOME_FANTASIA": "DEPOSITO E AGROPECUARIA 2 IRMAOS", "RAZAO_SOCIAL": "DEPOSITO E AGROPECUARIA 2 IRMAOS LTDA", "RESPONSAVEL": "GEISSONANTONIODAFONSECA|JEFERSONLUCIANODAFONSECA", "ENDEE": "AVENIDA ROSANA NORONHA GUARANY, 245, LOJA, ICARAI, 35502-225, DIVINOPOLIS, MG, BRASIL", "BANCO": "SICOOB", "LINHA_AVAL_NOME": "#N/D", "STATUS_OPERACIONAL": "CARTEIRA" }, "geometry": { "type": "Point", "coordinates": [ -44.8880164, -20.191176 ] } },
{ "type": "Feature", "properties": { "NROCNPJ_PAD": "25378480000150", "NOME_FANTASIA": "0", "RAZAO_SOCIAL": "DIPROPEC DIVINOPOLIS PRODUTOS PECUARIOS E TRANSP LTDA", "RESPONSAVEL": "ARTHURSOUZASALAZAR|NATALIACARDOSOSALAZAR", "ENDEE": "RUA ITUTINGA, 1370, NOSSA SENHORA DA CONCEICAO, 35502-117, DIVINOPOLIS, MG, BRASIL", "BANCO": "SICOOB", "LINHA_AVAL_NOME": "#N/D", "STATUS_OPERACIONAL": "CARTEIRA" }, "geometry": { "type": "Point", "coordinates": [ -44.89136, -20.114761 ] } },
{ "type": "Feature", "properties": { "NROCNPJ_PAD": "28900750000139", "NOME_FANTASIA": "RM REPRESENTACOES", "RAZAO_SOCIAL": "DISTRIBUIDORA MENDONCA & FILHOS LTDA", "RESPONSAVEL": "RONIAAPARECIDAALVESDEMENDONCA", "ENDEE": "RUA RAPHAEL DE SOUZA PASSOS, 33, RESIDENCIAL DOUTOR WALCHIR RESENDE COSTA, 35503-132, DIVINOPOLIS, MG, BRASIL", "BANCO": "SICOOB", "LINHA_AVAL_NOME": "#N/D", "STATUS_OPERACIONAL": "CARTEIRA" }, "geometry": { "type": "Point", "coordinates": [ -44.8904062, -20.1435294 ] } },
{ "type": "Feature", "properties": { "NROCNPJ_PAD": "25240863000167", "NOME_FANTASIA": "DOMUS SERVICOS", "RAZAO_SOCIAL": "DOMUS MULTISSERVICOS LTDA", "RESPONSAVEL": "PEDRO ALBERTO COSTA|SANABRIALAZARACOSTA", "ENDEE": "RUA ITAPECERICA, 1013, APT 102, CENTRO, 35500-018, DIVINOPOLIS, MG, BRASIL", "BANCO": "SICOOB", "LINHA_AVAL_NOME": "#N/D", "STATUS_OPERACIONAL": "CARTEIRA" }, "geometry": { "type": "Point", "coordinates": [ -44.8936281, -20.1381313 ] } },
{ "type": "Feature", "properties": { "NROCNPJ_PAD": "47409535000184", "NOME_FANTASIA": "CONTINENTAL ELETRO FERRAMENTAS", "RAZAO_SOCIAL": "ELAINE CRISTINA DOS REIS 03570020673", "RESPONSAVEL": "ELAINECRISTINADOSREIS", "ENDEE": "AVENIDA AMAZONAS, 131, CATALAO, 35501-823, DIVINOPOLIS, MG, BRASIL", "BANCO": "SICOOB", "LINHA_AVAL_NOME": "#N/D", "STATUS_OPERACIONAL": "CARTEIRA" }, "geometry": { "type": "Point", "coordinates": [ -44.906327, -20.1811 ] } },
{ "type": "Feature", "properties": { "NROCNPJ_PAD": "40450523000154", "NOME_FANTASIA": "EMPORIO CENTRAL", "RAZAO_SOCIAL": "EMPORIO CENTRAL COMERCIO DE BEBIDAS LTDA", "RESPONSAVEL": "GUSTAVOHENRIQUEFERNANDES|HIGORMATHEUSVAZRIBEIRO", "ENDEE": "RUA CIDADE OCEANIA, 113, LOJA 1, JARDIM CANDELARIA, 35502-111, DIVINOPOLIS, MG, BRASIL", "BANCO": "SICOOB", "LINHA_AVAL_NOME": "#N/D", "STATUS_OPERACIONAL": "CARTEIRA" }, "geometry": { "type": "Point", "coordinates": [ -44.8765648, -20.1048847 ] } },
{ "type": "Feature", "properties": { "NROCNPJ_PAD": "46900071000141", "NOME_FANTASIA": "FREDERICO SANTOS", "RAZAO_SOCIAL": "F SANTOS PROMOCAO DE VENDAS LTDA", "RESPONSAVEL": "FREDERICOSILVADOSSANTOS", "ENDEE": "RUA ESPIRITO SANTO, 2081, VILA BELO HORIZONTE, 35500-030, DIVINOPOLIS, MG, BRASIL", "BANCO": "SICOOB", "LINHA_AVAL_NOME": "#N/D", "STATUS_OPERACIONAL": "CARTEIRA" }, "geometry": { "type": "Point", "coordinates": [ -44.8943293, -20.132286 ] } },
{ "type": "Feature", "properties": { "NROCNPJ_PAD": "47105814000154", "NOME_FANTASIA": "FOCUS TREINAMENTO PERSONALIZADO", "RAZAO_SOCIAL": "GUSTAVO LEANDRO FERREIRA PERSONAL LTDA", "RESPONSAVEL": "GUSTAVOLEANDROFERREIRA", "ENDEE": "RUA JOAO CLEMENTINO PEREIRA, 260, LOJA LOJA, SANTO ANTONIO DOS CAMPOS, 35505-000, DIVINOPOLIS, MG, BRASIL", "BANCO": "SICOOB", "LINHA_AVAL_NOME": "#N/D", "STATUS_OPERACIONAL": "CARTEIRA" }, "geometry": { "type": "Point", "coordinates": [ -44.9716244, -20.1073316 ] } },
{ "type": "Feature", "properties": { "NROCNPJ_PAD": "46460841000182", "NOME_FANTASIA": "HRT E-COMMERCE", "RAZAO_SOCIAL": "HRT E-COMMERCE LTDA", "RESPONSAVEL": "HAMILTONANTONIODEOLIVEIRA", "ENDEE": "RUA ANGELINA VASCONCELOS CARRILHO, 70, GERALDO PEREIRA, 35501-547, DIVINOPOLIS, MG, BRASIL", "BANCO": "SICOOB", "LINHA_AVAL_NOME": "#N/D", "STATUS_OPERACIONAL": "CARTEIRA" }, "geometry": { "type": "Point", "coordinates": [ -44.9221462, -20.1807102 ] } },
{ "type": "Feature", "properties": { "NROCNPJ_PAD": "42245278000179", "NOME_FANTASIA": "IGX COMERCIO ELETRONICO", "RAZAO_SOCIAL": "IGX COMERCIAL LTDA", "RESPONSAVEL": "IGORCOSTASILVA", "ENDEE": "RUA JOSE FERREIRA MAIA, 180, LOJA, SAO SEBASTIAO, 35500-125, DIVINOPOLIS, MG, BRASIL", "BANCO": "SICOOB", "LINHA_AVAL_NOME": "#N/D", "STATUS_OPERACIONAL": "CARTEIRA" }, "geometry": { "type": "Point", "coordinates": [ -44.8927078, -20.127584 ] } },
{ "type": "Feature", "properties": { "NROCNPJ_PAD": "44164046000111", "NOME_FANTASIA": "WF COMERCIO DE BEBIDAS", "RAZAO_SOCIAL": "INARA LETICIA SANTOS 01850151660", "RESPONSAVEL": "INARALETICIASANTOS", "ENDEE": "RUA RUA ANTONIO ALVES NETO, 95, SANTO ANTONIO DOS CAMPOS, 35505-000, DIVINOPOLIS, MG, BRASIL", "BANCO": "SICOOB", "LINHA_AVAL_NOME": "#N/D", "STATUS_OPERACIONAL": "CARTEIRA" }, "geometry": { "type": "Point", "coordinates": [ -44.9733432, -20.1053111 ] } },
{ "type": "Feature", "properties": { "NROCNPJ_PAD": "24447943000125", "NOME_FANTASIA": "ALEGRIA DE CRIANCA", "RAZAO_SOCIAL": "JENNIFER DE OLIVEIRA BITTENCOURT 10450447685", "RESPONSAVEL": "JENNIFERDEOLIVEIRABITTENCOURT", "ENDEE": "RUA JOSE ALAOR, 60, VIVENDAS DA EXPOSICAO, 35501-361, DIVINOPOLIS, MG, BRASIL", "BANCO": "SICOOB", "LINHA_AVAL_NOME": "#N/D", "STATUS_OPERACIONAL": "CARTEIRA" }, "geometry": { "type": "Point", "coordinates": [ -44.91765, -20.189177 ] } },
{ "type": "Feature", "properties": { "NROCNPJ_PAD": "23038811000187", "NOME_FANTASIA": "AGROREIS", "RAZAO_SOCIAL": "JOAO MOREIRA DOS REIS 43745920678", "RESPONSAVEL": "JOAOMOREIRADOSREIS", "ENDEE": "RODOVIA BR 494 SENTIDO DIVINOPOLIS-NOVA SERRANA, SN, KM 37, ZONA RURAL, 35500-970, DIVINOPOLIS, MG, BRASIL", "BANCO": "SICOOB", "LINHA_AVAL_NOME": "#N/D", "STATUS_OPERACIONAL": "CARTEIRA" }, "geometry": { "type": "Point", "coordinates": [ -44.9299081, -19.9084474 ] } },
{ "type": "Feature", "properties": { "NROCNPJ_PAD": "37290865000140", "NOME_FANTASIA": "CASA LIMA", "RAZAO_SOCIAL": "JOAO PAULO FARIA LIMA 12885774606", "RESPONSAVEL": "JOAOPAULOFARIALIMA", "ENDEE": "RUA CAMBUQUIRA, 18, CONJ, AFONSO PENA, 35500-101, DIVINOPOLIS, MG, BRASIL", "BANCO": "SICOOB", "LINHA_AVAL_NOME": "#N/D", "STATUS_OPERACIONAL": "CARTEIRA" }, "geometry": { "type": "Point", "coordinates": [ -44.8877377, -20.1338833 ] } },
{ "type": "Feature", "properties": { "NROCNPJ_PAD": "29941272000178", "NOME_FANTASIA": "JS PERFUMARIA", "RAZAO_SOCIAL": "JS PERFUMARIA E COSMETICOS LTDA", "RESPONSAVEL": "SORAIADOCARMOPIMENTA", "ENDEE": "AVENIDA SETE DE SETEMBRO, 1715, ANEXO LOJA, CENTRO, 35500-011, DIVINOPOLIS, MG, BRASIL", "BANCO": "SICOOB", "LINHA_AVAL_NOME": "#N/D", "STATUS_OPERACIONAL": "CARTEIRA" }, "geometry": { "type": "Point", "coordinates": [ -44.8894116, -20.1363727 ] } },
{ "type": "Feature", "properties": { "NROCNPJ_PAD": "46321108000187", "NOME_FANTASIA": "LAFAIETE MARTINS GOMES", "RAZAO_SOCIAL": "LAFAIETE MARTINS GOMES 65196260668", "RESPONSAVEL": "LAFAIETEMARTINSGOMES", "ENDEE": "RUA DURVAL VASCONCELOS, 241, CASA, RESIDENCIAL LAGOA DOS MANDARINS, 35503-276, DIVINOPOLIS, MG, BRASIL", "BANCO": "SICOOB", "LINHA_AVAL_NOME": "#N/D", "STATUS_OPERACIONAL": "CARTEIRA" }, "geometry": { "type": "Point", "coordinates": [ -44.8597141, -20.1114504 ] } },
{ "type": "Feature", "properties": { "NROCNPJ_PAD": "11561877000178", "NOME_FANTASIA": "LOGICA CONTABIL", "RAZAO_SOCIAL": "LOGICA CONTABIL LTDA", "RESPONSAVEL": "MARCELOAPARECIDOSANTIAGORIBEIRO|PEDROHENRIQUECABRALRESENDE", "ENDEE": "RUA ITAMBE, 160, IPIRANGA, 35502-041, DIVINOPOLIS, MG, BRASIL", "BANCO": "SICOOB", "LINHA_AVAL_NOME": "#N/D", "STATUS_OPERACIONAL": "CARTEIRA" }, "geometry": { "type": "Point", "coordinates": [ -44.9074363, -20.1415698 ] } },
{ "type": "Feature", "properties": { "NROCNPJ_PAD": "45897789000163", "NOME_FANTASIA": "LOJA DO ROGERIO UNIFORMES E ARTIGOS MILITARES", "RAZAO_SOCIAL": "LOJA DO ROGERIO UNIFORMES E ARTIGOS MILITARES LTDA", "RESPONSAVEL": "MARCIAORIZABELOTEOFILO", "ENDEE": "RUA MATO GROSSO, 1742, JARDIM NOVA AMERICA, 35500-067, DIVINOPOLIS, MG, BRASIL", "BANCO": "SICOOB", "LINHA_AVAL_NOME": "#N/D", "STATUS_OPERACIONAL": "CARTEIRA" }, "geometry": { "type": "Point", "coordinates": [ -44.8983136, -20.1511106 ] } },
{ "type": "Feature", "properties": { "NROCNPJ_PAD": "61660738000170", "NOME_FANTASIA": "LPFC TECNOLOGIA", "RAZAO_SOCIAL": "LPFC TECNOLOGIA LTDA", "RESPONSAVEL": "LEONARDODEPAULAFLORENTINOCARDOSO", "ENDEE": "RUA NEUZA GONCALVES DE MORAES, 10, BLOCO 4 AP 304, MARAJO, 35501-542, DIVINOPOLIS, MG, BRASIL", "BANCO": "SICOOB", "LINHA_AVAL_NOME": "#N/D", "STATUS_OPERACIONAL": "CARTEIRA" }, "geometry": { "type": "Point", "coordinates": [ -44.9237615, -20.1727399 ] } },
{ "type": "Feature", "properties": { "NROCNPJ_PAD": "29869405000142", "NOME_FANTASIA": "LM REPRESENTACOES", "RAZAO_SOCIAL": "LUMAR PROMOTORA DE VENDAS LTDA", "RESPONSAVEL": "LUCAS MARTINS SOARES", "ENDEE": "RUA SERRA DO CRISTAL, 2405, PARQUE JARDIM CAPITAO SILVA, 35502-020, DIVINOPOLIS, MG, BRASIL", "BANCO": "BDMG", "LINHA_AVAL_NOME": "#N/D", "STATUS_OPERACIONAL": "CARTEIRA" }, "geometry": { "type": "Point", "coordinates": [ -44.9102955, -20.1320603 ] } },
{ "type": "Feature", "properties": { "NROCNPJ_PAD": "20885664000192", "NOME_FANTASIA": "BRAVO MADEIRAS", "RAZAO_SOCIAL": "MADEIREIRA CENTRAL LTDA.", "RESPONSAVEL": "FERNANDO ELBERT SILVA", "ENDEE": "AVENIDA UM, 911, RANCHO ALEGRE, 35502-423, DIVINOPOLIS, MG, BRASIL", "BANCO": "BDMG", "LINHA_AVAL_NOME": "#N/D", "STATUS_OPERACIONAL": "CARTEIRA" }, "geometry": { "type": "Point", "coordinates": [ -44.8746369, -20.1766978 ] } },
{ "type": "Feature", "properties": { "NROCNPJ_PAD": "19615254000142", "NOME_FANTASIA": "MARIA RESOLVE", "RAZAO_SOCIAL": "MARIA REGINA GOMES DE PAULA 61676934634", "RESPONSAVEL": "MARIAREGINAGOMESDEPAULA", "ENDEE": "RUA ASCENDINO CAMPOS, 680, APT, JOAO ANTONIO GONCALVES, 35501-490, DIVINOPOLIS, MG, BRASIL", "BANCO": "SICOOB", "LINHA_AVAL_NOME": "#N/D", "STATUS_OPERACIONAL": "CARTEIRA" }, "geometry": { "type": "Point", "coordinates": [ -44.9352864, -20.1610468 ] } },
{ "type": "Feature", "properties": { "NROCNPJ_PAD": "37685430000102", "NOME_FANTASIA": "0", "RAZAO_SOCIAL": "MATHEUS MAIA GONCALVES 09119325690", "RESPONSAVEL": "MATHEUSMAIAGONCALVES", "ENDEE": "RUA TUPINIQUIM, 490, JARDIM CANDIDES, 35502-311, DIVINOPOLIS, MG, BRASIL", "BANCO": "SICOOB", "LINHA_AVAL_NOME": "#N/D", "STATUS_OPERACIONAL": "CARTEIRA" }, "geometry": { "type": "Point", "coordinates": [ -44.8352544, -20.1288049 ] } },
{ "type": "Feature", "properties": { "NROCNPJ_PAD": "12603755000160", "NOME_FANTASIA": "0", "RAZAO_SOCIAL": "MECANICA PRATA LTDA", "RESPONSAVEL": "ALVIMARROBERTODASILVA|GABRIELAFERNANDESSILVA", "ENDEE": "RUA FRANCISCA MOREIRA DA SILVA, 551, GALPAO, BALNEARIO RANCHO ALEGRE, 35500-970, DIVINOPOLIS, MG, BRASIL", "BANCO": "SICOOB", "LINHA_AVAL_NOME": "#N/D", "STATUS_OPERACIONAL": "CARTEIRA" }, "geometry": { "type": "Point", "coordinates": [ -44.9159998, -20.1354196 ] } },
{ "type": "Feature", "properties": { "NROCNPJ_PAD": "15207443000125", "NOME_FANTASIA": "MARMORARIA MONTE SINAI", "RAZAO_SOCIAL": "MONTE SINAI MARMORES E GRANITOS LTDA", "RESPONSAVEL": "DALEADOSSANTOS|JULIANONAVESVALERIO", "ENDEE": "ENTRADA ESTRADA DE ERMIDA, 400, BELO VALE, 35500-900, DIVINOPOLIS, MG, BRASIL", "BANCO": "SICOOB", "LINHA_AVAL_NOME": "#N/D", "STATUS_OPERACIONAL": "CARTEIRA" }, "geometry": { "type": "Point", "coordinates": [ -44.9204402, -20.1268261 ] } },
{ "type": "Feature", "properties": { "NROCNPJ_PAD": "47607739000120", "NOME_FANTASIA": "0", "RAZAO_SOCIAL": "MULT ONLINE COMERCIO DE CONFECCOES LTDA", "RESPONSAVEL": "IRACI EUSTAQUIO PEREIRA", "ENDEE": "AVENIDA TEDINHO ALVIM, 90, SALA 110, LIBERDADE, 35502-634, DIVINOPOLIS, MG, BRASIL", "BANCO": "BDMG", "LINHA_AVAL_NOME": "#N/D", "STATUS_OPERACIONAL": "CARTEIRA" }, "geometry": { "type": "Point", "coordinates": [ -44.8953306, -20.1222739 ] } },
{ "type": "Feature", "properties": { "NROCNPJ_PAD": "48107404000105", "NOME_FANTASIA": "ARCO IRIS MODA INFANTIL E INFANTO JUVENIL", "RAZAO_SOCIAL": "NELCI VIVIANE RODRIGUES OLIVEIRA 10080788670", "RESPONSAVEL": "NELCIVIVIANERODRIGUESOLIVEIRA", "ENDEE": "RUA BERNARDO DE BESSA BARRETO, 161, SANTO ANTONIO DOS CAMPOS, 35505-000, DIVINOPOLIS, MG, BRASIL", "BANCO": "SICOOB", "LINHA_AVAL_NOME": "#N/D", "STATUS_OPERACIONAL": "CARTEIRA" }, "geometry": { "type": "Point", "coordinates": [ -44.9745483, -20.1048254 ] } },
{ "type": "Feature", "properties": { "NROCNPJ_PAD": "48924044000134", "NOME_FANTASIA": "PANIFICADORA E CONVENIENCIA PADRE EUSTAQUIO", "RAZAO_SOCIAL": "PANIFICADORA E CONVENIENCIA PADRE EUSTAQUIO LTDA", "RESPONSAVEL": "BIANCAREISRODRIGUES", "ENDEE": "RUA SANTA CLARA, 504, PADRE EUSTAQUIO, 35504-233, DIVINOPOLIS, MG, BRASIL", "BANCO": "SICOOB", "LINHA_AVAL_NOME": "#N/D", "STATUS_OPERACIONAL": "CARTEIRA" }, "geometry": { "type": "Point", "coordinates": [ -44.8473024, -20.1720365 ] } },
{ "type": "Feature", "properties": { "NROCNPJ_PAD": "55842343000195", "NOME_FANTASIA": "PONTO DA RESENHA", "RAZAO_SOCIAL": "PONTO DA RESENHA LTDA", "RESPONSAVEL": "-", "ENDEE": "ESTRADA POVOADO TAMBORIL, 23, SANTO ANTONIO DOS CAMPOS, 35505-000, DIVINOPOLIS, MG, BRASIL", "BANCO": "SICOOB", "LINHA_AVAL_NOME": "#N/D", "STATUS_OPERACIONAL": "CARTEIRA" }, "geometry": { "type": "Point", "coordinates": [ -44.9709934, -20.1148638 ] } },
{ "type": "Feature", "properties": { "NROCNPJ_PAD": "86386752000158", "NOME_FANTASIA": "ULTIMO PONTO AVIAMENTOS", "RAZAO_SOCIAL": "PRIMEIRO PONTO AVIAMENTOS LTDA", "RESPONSAVEL": "DULPHEPINTODEAGUIARNETO", "ENDEE": "RUA GOIAS, 172, CENTRO, 35500-001, DIVINOPOLIS, MG, BRASIL", "BANCO": "SICOOB", "LINHA_AVAL_NOME": "#N/D", "STATUS_OPERACIONAL": "CARTEIRA" }, "geometry": { "type": "Point", "coordinates": [ -44.8874847, -20.1469138 ] } },
{ "type": "Feature", "properties": { "NROCNPJ_PAD": "05955060000181", "NOME_FANTASIA": "EDITORA MUNDO CULTURA", "RAZAO_SOCIAL": "RAIMUNDO BRANDAO LOPES DA SILVA", "RESPONSAVEL": "-", "ENDEE": "AVENIDA DAS EMBAUBAS, 1901, LOJA LOJA 2, JARDIM DAS ACACIAS, 35501-514, DIVINOPOLIS, MG, BRASIL", "BANCO": "SICREDI 2", "LINHA_AVAL_NOME": "#N/D", "STATUS_OPERACIONAL": "CARTEIRA" }, "geometry": { "type": "Point", "coordinates": [ -44.9236964, -20.1794304 ] } },
{ "type": "Feature", "properties": { "NROCNPJ_PAD": "03808376000115", "NOME_FANTASIA": "REALBYTE AUTOMACAO", "RAZAO_SOCIAL": "REALBYTE SISTEMAS DE AUTOMACAO LTDA", "RESPONSAVEL": "FLAVIOANTONIOGOMES", "ENDEE": "AVENIDA TEDINHO ALVIM, 90, SALA 206 SALA 207 SALA 208, LIBERDADE, 35502-634, DIVINOPOLIS, MG, BRASIL", "BANCO": "SICOOB", "LINHA_AVAL_NOME": "#N/D", "STATUS_OPERACIONAL": "CARTEIRA" }, "geometry": { "type": "Point", "coordinates": [ -44.8953306, -20.1222739 ] } },
{ "type": "Feature", "properties": { "NROCNPJ_PAD": "57697664000179", "NOME_FANTASIA": "0", "RAZAO_SOCIAL": "REMART COMERCIO LTDA", "RESPONSAVEL": "RENESJOSEMARTINS", "ENDEE": "RUA CATARINA NASCIMENTO DE CASTRO, 211, SANTO ANTONIO DOS CAMPOS, 35505-000, DIVINOPOLIS, MG, BRASIL", "BANCO": "SICOOB", "LINHA_AVAL_NOME": "#N/D", "STATUS_OPERACIONAL": "CARTEIRA" }, "geometry": { "type": "Point", "coordinates": [ -44.9693886, -20.1140003 ] } },
{ "type": "Feature", "properties": { "NROCNPJ_PAD": "08756233000120", "NOME_FANTASIA": "EP FACCOES", "RAZAO_SOCIAL": "RESENDE CHAVES IND. E COM. DE CONFECCOES LTDA", "RESPONSAVEL": "ELAINECRISTINACHAVES|PEDROHENRIQUECABRALRESENDE", "ENDEE": "ALAMEDA RIO PERDIDO, 67, TIETE, 35502-474, DIVINOPOLIS, MG, BRASIL", "BANCO": "SICOOB", "LINHA_AVAL_NOME": "#N/D", "STATUS_OPERACIONAL": "CARTEIRA" }, "geometry": { "type": "Point", "coordinates": [ -44.9128688, -20.1455977 ] } },
{ "type": "Feature", "properties": { "NROCNPJ_PAD": "08399790000131", "NOME_FANTASIA": "ROTTA ALUMINIO", "RAZAO_SOCIAL": "ROTTA ALUMINIO LTDA", "RESPONSAVEL": "LOURIVALJOSEDEOLIVEIRA", "ENDEE": "RUA ANTONIO MARTINS GUIMARAES, 700, DISTRITO INDUSTRIAL CORONEL JOVELINO RABELO, 35502-285, DIVINOPOLIS, MG, BRASIL", "BANCO": "SICOOB", "LINHA_AVAL_NOME": "#N/D", "STATUS_OPERACIONAL": "CARTEIRA" }, "geometry": { "type": "Point", "coordinates": [ -44.836443, -20.116012 ] } },
{ "type": "Feature", "properties": { "NROCNPJ_PAD": "38034258000181", "NOME_FANTASIA": "SK SARAH KAUANY", "RAZAO_SOCIAL": "SARAH KAUANY SILVA DE MORAIS 01948685671", "RESPONSAVEL": "SARAHKAUANYSILVADEMORAIS", "ENDEE": "AVENIDA DOS TUBAROES, 430, JOAO ANTONIO GONCALVES, 35501-461, DIVINOPOLIS, MG, BRASIL", "BANCO": "SICOOB", "LINHA_AVAL_NOME": "#N/D", "STATUS_OPERACIONAL": "CARTEIRA" }, "geometry": { "type": "Point", "coordinates": [ -44.9236609, -20.1487935 ] } },
{ "type": "Feature", "properties": { "NROCNPJ_PAD": "11726768000163", "NOME_FANTASIA": "0", "RAZAO_SOCIAL": "SEG CONSULTORIA LTDA", "RESPONSAVEL": "MARLINODOSSANTOS|NATHALIACRISTINARESENDESANTOS", "ENDEE": "RUA CORONEL JOAO NOTINI, 1350, CENTRO, 35500-017, DIVINOPOLIS, MG, BRASIL", "BANCO": "SICOOB", "LINHA_AVAL_NOME": "#N/D", "STATUS_OPERACIONAL": "CARTEIRA" }, "geometry": { "type": "Point", "coordinates": [ -44.8967145, -20.1376632 ] } },
{ "type": "Feature", "properties": { "NROCNPJ_PAD": "41981552000105", "NOME_FANTASIA": "THVS EMPREENDIMENTOS E PARTICIPACOES", "RAZAO_SOCIAL": "THVS EMPREENDIMENTOS E PARTICIPACOES LTDA", "RESPONSAVEL": "-", "ENDEE": "RUA SANTA CATARINA, 1757, APT 604, SANTO ANTONIO, 35502-033, DIVINOPOLIS, MG, BRASIL", "BANCO": "BRADESCO", "LINHA_AVAL_NOME": "#N/D", "STATUS_OPERACIONAL": "CARTEIRA" }, "geometry": { "type": "Point", "coordinates": [ -44.8997349, -20.1370569 ] } },
{ "type": "Feature", "properties": { "NROCNPJ_PAD": "29997625000151", "NOME_FANTASIA": "TOP 3 ENGENHARIA", "RAZAO_SOCIAL": "TOP 3 ENGENHARIA LTDA", "RESPONSAVEL": "ALEXSANDROARAGONCARMONA|ROGERIOFREITASDEOLIVEIRA", "ENDEE": "AVENIDA VENUS, 439, VILA ROMANA, 35500-401, DIVINOPOLIS, MG, BRASIL", "BANCO": "SICOOB", "LINHA_AVAL_NOME": "#N/D", "STATUS_OPERACIONAL": "CARTEIRA" }, "geometry": { "type": "Point", "coordinates": [ -44.8689281, -20.1130649 ] } },
{ "type": "Feature", "properties": { "NROCNPJ_PAD": "18294540000190", "NOME_FANTASIA": "V.ARTS AMBIENTES PLANEJADOS", "RAZAO_SOCIAL": "V.ARTS AMBIENTES PLANEJADOS LTDA", "RESPONSAVEL": "VENANCIOGOMESDOSSANTOS", "ENDEE": "RUA CAMPO DO MEIO, 1097, SAO JOSE, 35501-237, DIVINOPOLIS, MG, BRASIL", "BANCO": "SICOOB", "LINHA_AVAL_NOME": "#N/D", "STATUS_OPERACIONAL": "CARTEIRA" }, "geometry": { "type": "Point", "coordinates": [ -44.9109349, -20.1601771 ] } },
{ "type": "Feature", "properties": { "NROCNPJ_PAD": "43538596000190", "NOME_FANTASIA": "VOG", "RAZAO_SOCIAL": "VOG ATACADISTA LTDA", "RESPONSAVEL": "PABLOVELOSOFONSECALIMA", "ENDEE": "RUA CORONEL JOAO NOTINI, 3712, LOJA ., CENTRO, 35500-017, DIVINOPOLIS, MG, BRASIL", "BANCO": "SICOOB", "LINHA_AVAL_NOME": "#N/D", "STATUS_OPERACIONAL": "CARTEIRA" }, "geometry": { "type": "Point", "coordinates": [ -44.9202627, -20.1305779 ] } },
{ "type": "Feature", "properties": { "NROCNPJ_PAD": "12403167000182", "NOME_FANTASIA": "FUNDICAO DE ALUMINIO PORTUGUES", "RAZAO_SOCIAL": "WENDEL GUILHERME DINIZ", "RESPONSAVEL": "WENDELGUILHERMEDINIZ", "ENDEE": "RUA ANTONIO DELLARETT FILHO, 1756, DISTRITO INDUSTRIAL CORONEL JOVELINO RABELO, 35502-288, DIVINOPOLIS, MG, BRASIL", "BANCO": "SICOOB", "LINHA_AVAL_NOME": "#N/D", "STATUS_OPERACIONAL": "CARTEIRA" }, "geometry": { "type": "Point", "coordinates": [ -44.838447, -20.1269242 ] } },
{ "type": "Feature", "properties": { "NROCNPJ_PAD": "22586445000138", "NOME_FANTASIA": "FIREMZE - ARMARIOS PLANEJADOS", "RAZAO_SOCIAL": "WILIAN CHAVES DOS ANJOS 07603348625", "RESPONSAVEL": "WILIANCHAVESDOSANJOS", "ENDEE": "RUA PEDRO MARTINS MACHADO, 681, SANTA LUCIA, 35502-845, DIVINOPOLIS, MG, BRASIL", "BANCO": "SICOOB", "LINHA_AVAL_NOME": "#N/D", "STATUS_OPERACIONAL": "CARTEIRA" }, "geometry": { "type": "Point", "coordinates": [ -44.8439389, -20.1718748 ] } },
{ "type": "Feature", "properties": { "NROCNPJ_PAD": "03166577000166", "NOME_FANTASIA": "DIVIMOVEIS", "RAZAO_SOCIAL": "WODMINAS LTDA", "RESPONSAVEL": "JOELMAAPARECIDAMERLO|WILLIAMPEREIRADEALMEIDA", "ENDEE": "RUA OTAVIO VICENTE ALVES, 61, SANTO ANTONIO DOS CAMPOS, 35505-000, DIVINOPOLIS, MG, BRASIL", "BANCO": "SICOOB", "LINHA_AVAL_NOME": "#N/D", "STATUS_OPERACIONAL": "CARTEIRA" }, "geometry": { "type": "Point", "coordinates": [ -44.9785404, -20.1077101 ] } },
{ "type": "Feature", "properties": { "NROCNPJ_PAD": "22383433000106", "NOME_FANTASIA": "-", "RAZAO_SOCIAL": "-", "RESPONSAVEL": "-", "ENDEE": "RUA ARTEDE ALMADA ALVIM, 310, NOSSA SENHORA DA CONCEICAO, 35502-126, DIVINOPOLIS, MG, BRASIL", "BANCO": "SICOOB", "LINHA_AVAL_NOME": "#N/D", "STATUS_OPERACIONAL": "CARTEIRA" }, "geometry": { "type": "Point", "coordinates": [ -44.894175, -20.114618 ] } },
{ "type": "Feature", "properties": { "NROCNPJ_PAD": "51113020000100", "NOME_FANTASIA": "ALVES CONFECCOES", "RAZAO_SOCIAL": "SILLAS ANTONIO ALVES CONFECCOES LTDA", "RESPONSAVEL": "SILLASANTONIOALVES", "ENDEE": "RUA JOSE BERNARDINO DE SENA, 175, LOJA 1, SANTO ANTONIO DOS CAMPOS, 35505-000, DIVINÓPOLIS, MG, BRASIL", "BANCO": "SICOOB", "LINHA_AVAL_NOME": "Giro", "STATUS_OPERACIONAL": "CARTEIRA" }, "geometry": { "type": "Point", "coordinates": [ -44.9710117, -20.1026517 ] } },
{ "type": "Feature", "properties": { "NROCNPJ_PAD": "32648119000161", "NOME_FANTASIA": "-", "RAZAO_SOCIAL": "MARCOS DE SOUSA FONTES 04009140690", "RESPONSAVEL": "MARCOSDESOUSAFONTES", "ENDEE": "10A RUA JOAO MARTINS COELHO, 83, APT 01, CENTRO, 35505-000, DIVINÓPOLIS, MG, BRASIL", "BANCO": "SICOOB", "LINHA_AVAL_NOME": "Giro", "STATUS_OPERACIONAL": "CARTEIRA" }, "geometry": { "type": "Point", "coordinates": [ -44.9769759, -20.1119873 ] } },
{ "type": "Feature", "properties": { "NROCNPJ_PAD": "58701872000167", "NOME_FANTASIA": "AJO - PURIFICADORES DE AGUA LTDA", "RAZAO_SOCIAL": "AJO - PURIFICADORES DE AGUA LTDA", "RESPONSAVEL": "ANDERSONGONCALVESDESOUSA|JULIANARIBEIROVASCONCELOS", "ENDEE": "RUA OLIMPIO FAGUNDES NASCIMENTO, 26, ALVORADA, 35500-176, DIVINÓPOLIS, MG, BRASIL", "BANCO": "SICOOB", "LINHA_AVAL_NOME": "Giro", "STATUS_OPERACIONAL": "CARTEIRA" }, "geometry": { "type": "Point", "coordinates": [ -44.8961122, -20.1185619 ] } },
{ "type": "Feature", "properties": { "NROCNPJ_PAD": "60373769000187", "NOME_FANTASIA": "CT CORPO SOLIDO GYM LTDA", "RAZAO_SOCIAL": "CT CORPO SOLIDO GYM LTDA", "RESPONSAVEL": "DALMOGONCALVESDASILVA|EULERGOMESDECARVALHO|GEISIMARAVALERIAMELO|RONIENELELESGONCALVES", "ENDEE": "RUA PITANGUI, 30, SANTA CLARA, 35500-151, DIVINÓPOLIS, MG, BRASIL", "BANCO": "SICOOB", "LINHA_AVAL_NOME": "Giro", "STATUS_OPERACIONAL": "CARTEIRA" }, "geometry": { "type": "Point", "coordinates": [ -44.883931, -20.1267554 ] } },
{ "type": "Feature", "properties": { "NROCNPJ_PAD": "20348268000126", "NOME_FANTASIA": "-", "RAZAO_SOCIAL": "THAIS SONALI DE SOUZA BARRETO", "RESPONSAVEL": "THAISSONALIDESOUZABARRETO", "ENDEE": "RUA MANOEL NUNES PINHEIRO, 40, RESIDENCIAL DOUTOR WALCHIR RESENDE COSTA, 35503-137, DIVINÓPOLIS, MG, BRASIL", "BANCO": "SICOOB", "LINHA_AVAL_NOME": "Giro", "STATUS_OPERACIONAL": "CARTEIRA" }, "geometry": { "type": "Point", "coordinates": [ -44.9096656, -20.1277773 ] } },
{ "type": "Feature", "properties": { "NROCNPJ_PAD": "51093916000174", "NOME_FANTASIA": "METAL FITNESS", "RAZAO_SOCIAL": "INDUSTRIA METAL FITNESS LTDA", "RESPONSAVEL": "MARCOSVINICIUSSILVACHAGAS|WILLIANMOREIRADEMORAIS", "ENDEE": "RUA PARAIBA, 3080, RANCHO ALEGRE, 35502-457, DIVINÓPOLIS, MG, BRASIL", "BANCO": "SICOOB", "LINHA_AVAL_NOME": "Giro", "STATUS_OPERACIONAL": "CARTEIRA" }, "geometry": { "type": "Point", "coordinates": [ -44.9131198, -20.133838 ] } },
{ "type": "Feature", "properties": { "NROCNPJ_PAD": "51430504000182", "NOME_FANTASIA": "CABLEX MINAS CONDUTORES", "RAZAO_SOCIAL": "MFC CABLEX CONDUTORES ELETRICOS LTDA", "RESPONSAVEL": "MAGNO DA SILVA", "ENDEE": "RUA MARANHAO, 984, PARQUE JARDIM CAPITAO SILVA, 35504-271, DIVINÓPOLIS, MG, BRASIL", "BANCO": "BDMG", "LINHA_AVAL_NOME": "Giro", "STATUS_OPERACIONAL": "CARTEIRA" }, "geometry": { "type": "Point", "coordinates": [ -44.8947941, -20.1398878 ] } },
{ "type": "Feature", "properties": { "NROCNPJ_PAD": "14968386000134", "NOME_FANTASIA": "-", "RAZAO_SOCIAL": "14.968.386 DERLY MIRANDA DE SOUSA", "RESPONSAVEL": "DERLYMIRANDADESOUSA|GLEISSONMIRANDADESOUSANOGUEIRA", "ENDEE": "RUA PARA, 511, SANTO ANTONIO, 35500-032, DIVINÓPOLIS, MG, BRASIL", "BANCO": "SICOOB", "LINHA_AVAL_NOME": "Giro", "STATUS_OPERACIONAL": "CARTEIRA" }, "geometry": { "type": "Point", "coordinates": [ -44.9007821, -20.1416642 ] } },
{ "type": "Feature", "properties": { "NROCNPJ_PAD": "42508786000100", "NOME_FANTASIA": "CENTRO DE TREINAMENTO ESPORTIVO RICARDO SILVA E EVENTOS", "RAZAO_SOCIAL": "ESCOLA DE ESPORTES RICARDO SILVA LTDA", "RESPONSAVEL": "RICARDOAURELIOCAMPOSSILVA", "ENDEE": "RUA MARANHAO, 429, LOJA, VILA BELO HORIZONTE, 35504-224, DIVINÓPOLIS, MG, BRASIL", "BANCO": "SICOOB", "LINHA_AVAL_NOME": "Giro", "STATUS_OPERACIONAL": "CARTEIRA" }, "geometry": { "type": "Point", "coordinates": [ -44.896819, -20.1446254 ] } },
{ "type": "Feature", "properties": { "NROCNPJ_PAD": "58077948000125", "NOME_FANTASIA": "-", "RAZAO_SOCIAL": "58.077.948 LEONARDO GERALDO FERREIRA", "RESPONSAVEL": "LEONARDOGERALDOFERREIRA", "ENDEE": "ALAMEDA RIO DO SONO, 735, TIETE, 35502-473, DIVINÓPOLIS, MG, BRASIL", "BANCO": "SICOOB", "LINHA_AVAL_NOME": "Giro", "STATUS_OPERACIONAL": "CARTEIRA" }, "geometry": { "type": "Point", "coordinates": [ -44.920369, -20.146065 ] } },
{ "type": "Feature", "properties": { "NROCNPJ_PAD": "35498991000169", "NOME_FANTASIA": "REGINALDO SILVA TRANSPORTES", "RAZAO_SOCIAL": "35.498.991 REGINALDO JOSE DA SILVA", "RESPONSAVEL": "REGINALDOJOSEDASILVA", "ENDEE": "RUA RAIMUNDO CORREA, 785, MORADA NOVA, 35501-262, DIVINÓPOLIS, MG, BRASIL", "BANCO": "SICOOB", "LINHA_AVAL_NOME": "Giro", "STATUS_OPERACIONAL": "CARTEIRA" }, "geometry": { "type": "Point", "coordinates": [ -44.9133048, -20.1636499 ] } },
{ "type": "Feature", "properties": { "NROCNPJ_PAD": "35960706000180", "NOME_FANTASIA": "WARLEY FACAS CUSTOMS", "RAZAO_SOCIAL": "35.960.706 WARLEY DA SILVA PINTO", "RESPONSAVEL": "WARLEYDASILVAPINTO", "ENDEE": "RUA GUADALAJARA, 800, PADRE EUSTAQUIO, 35500-549, DIVINÓPOLIS, MG, BRASIL", "BANCO": "SICOOB", "LINHA_AVAL_NOME": "Giro", "STATUS_OPERACIONAL": "CARTEIRA" }, "geometry": { "type": "Point", "coordinates": [ -44.8517739, -20.1699829 ] } },
{ "type": "Feature", "properties": { "NROCNPJ_PAD": "29628106000116", "NOME_FANTASIA": "ARPLAN MOVEIS & DESIGN", "RAZAO_SOCIAL": "29.628.106 GUILHERME AMARAL ARAUJO", "RESPONSAVEL": "GUILHERMEAMARALARAUJO", "ENDEE": "RUA FRANCISCO TEODORO SILVA, 40, ALVORADA, 35500-180, DIVINÓPOLIS, MG, BRASIL", "BANCO": "SICOOB", "LINHA_AVAL_NOME": "Giro", "STATUS_OPERACIONAL": "CARTEIRA" }, "geometry": { "type": "Point", "coordinates": [ -44.8976295, -20.1166207 ] } },
{ "type": "Feature", "properties": { "NROCNPJ_PAD": "26156880000183", "NOME_FANTASIA": "CDM NUTRICAO ANIMAL", "RAZAO_SOCIAL": "DOMINGOS E MENEZES LTDA", "RESPONSAVEL": "CARLOSDOMINGOSDEMENEZES|CESARDOMINGOSDEMENEZES|CLAUDIODOMINGOSDEMENEZES|CLEITONDOMINGOSDEMENEZES", "ENDEE": "RUA DORINHA GONTIJO, 241, LEVINDO PAULA PEREIRA, 35502-057, DIVINÓPOLIS, MG, BRASIL", "BANCO": "SICOOB", "LINHA_AVAL_NOME": "Giro", "STATUS_OPERACIONAL": "CARTEIRA" }, "geometry": { "type": "Point", "coordinates": [ -44.9130474, -20.1289679 ] } },
{ "type": "Feature", "properties": { "NROCNPJ_PAD": "12473689000150", "NOME_FANTASIA": "ONDA AZUL", "RAZAO_SOCIAL": "ONDA AZUL IND. E COM. DE CONFECCOES LTDA", "RESPONSAVEL": "CARLOS HUMBERTO NOGUEIRA SILVA", "ENDEE": "RUA DAS NACOES, 514, BOM PASTOR, 35500-146, DIVINÓPOLIS, MG, BRASIL", "BANCO": "BDMG", "LINHA_AVAL_NOME": "Giro", "STATUS_OPERACIONAL": "CARTEIRA" }, "geometry": { "type": "Point", "coordinates": [ -44.8879696, -20.1255955 ] } },
{ "type": "Feature", "properties": { "NROCNPJ_PAD": "48884766000102", "NOME_FANTASIA": "ESQUINA DA ECONOMIA", "RAZAO_SOCIAL": "48.884.766 SONIA MARGARIDA ALVES MANSO", "RESPONSAVEL": "SONIAMARGARIDAALVESMANSO", "ENDEE": "AVENIDA DAS EMBAUBAS, 1860, JARDIM DAS ACACIAS, 35501-514, DIVINÓPOLIS, MG, BRASIL", "BANCO": "SICOOB", "LINHA_AVAL_NOME": "Giro", "STATUS_OPERACIONAL": "CARTEIRA" }, "geometry": { "type": "Point", "coordinates": [ -44.9239608, -20.1797054 ] } },
{ "type": "Feature", "properties": { "NROCNPJ_PAD": "41506453000171", "NOME_FANTASIA": "-", "RAZAO_SOCIAL": "VINICIUS CESAR FERREIRA", "RESPONSAVEL": "VINICIUSCESARFERREIRA", "ENDEE": "RUA CORONEL JOAO NOTINI, 2911, CENTRO, 35500-017, DIVINÓPOLIS, MG, BRASIL", "BANCO": "SICOOB", "LINHA_AVAL_NOME": "Giro", "STATUS_OPERACIONAL": "CARTEIRA" }, "geometry": { "type": "Point", "coordinates": [ -44.9098532, -20.1335641 ] } },
{ "type": "Feature", "properties": { "NROCNPJ_PAD": "07936676000130", "NOME_FANTASIA": "SUPERMOTOS", "RAZAO_SOCIAL": "SUPERMOTOS PECAS E SERVICOS LTDA", "RESPONSAVEL": "BRUNABARCANTESILVEIRA|JOSENILTONDASILVEIRA", "ENDEE": "AVENIDA CAPITAO SILVA, 600, JARDIM NOVA AMERICA, 35500-093, DIVINÓPOLIS, MG, BRASIL", "BANCO": "SICOOB", "LINHA_AVAL_NOME": "Giro", "STATUS_OPERACIONAL": "CARTEIRA" }, "geometry": { "type": "Point", "coordinates": [ -44.8968074, -20.1340703 ] } },
{ "type": "Feature", "properties": { "NROCNPJ_PAD": "22073447000123", "NOME_FANTASIA": "PROJETTART ENGENHARIA DE INCENDIO", "RAZAO_SOCIAL": "PROJETTART ENGENHARIA LTDA", "RESPONSAVEL": "BRUNAALICEDEOLIVEIRAMENDONCA|RIVALECIORIBEIROLOPES", "ENDEE": "RUA BOM JARDIM, 590, VALE DO SOL, 35500-566, DIVINÓPOLIS, MG, BRASIL", "BANCO": "SICOOB", "LINHA_AVAL_NOME": "Giro", "STATUS_OPERACIONAL": "CARTEIRA" }, "geometry": { "type": "Point", "coordinates": [ -44.8485827, -20.163194 ] } },
{ "type": "Feature", "properties": { "NROCNPJ_PAD": "36054183000175", "NOME_FANTASIA": "ISMAIR SILVA TRANSPORTES", "RAZAO_SOCIAL": "36.054.183 ISMAIR JOSE DA SILVA", "RESPONSAVEL": "ISMAIRJOSEDASILVA", "ENDEE": "RUA ACALIFAS, 100, BELO VALE, 35502-504, DIVINÓPOLIS, MG, BRASIL", "BANCO": "SICOOB", "LINHA_AVAL_NOME": "Giro", "STATUS_OPERACIONAL": "CARTEIRA" }, "geometry": { "type": "Point", "coordinates": [ -44.9288387, -20.1252831 ] } },
{ "type": "Feature", "properties": { "NROCNPJ_PAD": "43634370000193", "NOME_FANTASIA": "BURGERTHAMBURGUERIA", "RAZAO_SOCIAL": "THIAGO CESAR DA SILVA", "RESPONSAVEL": "THIAGOCESARDASILVA", "ENDEE": "AVENIDA AMAZONAS, 3741, BELVEDERE, 35501-635, DIVINÓPOLIS, MG, BRASIL", "BANCO": "SICOOB", "LINHA_AVAL_NOME": "Giro", "STATUS_OPERACIONAL": "CARTEIRA" }, "geometry": { "type": "Point", "coordinates": [ -44.9083561, -20.178347 ] } },
{ "type": "Feature", "properties": { "NROCNPJ_PAD": "51377520000159", "NOME_FANTASIA": "-", "RAZAO_SOCIAL": "51.377.520 MARCELO DE OLIVEIRA", "RESPONSAVEL": "MARCELODEOLIVEIRA", "ENDEE": "RUA LONDRINA, 20, ICARAI, 35502-257, DIVINÓPOLIS, MG, BRASIL", "BANCO": "SICOOB", "LINHA_AVAL_NOME": "Giro", "STATUS_OPERACIONAL": "CARTEIRA" }, "geometry": { "type": "Point", "coordinates": [ -44.8519423, -20.1127846 ] } },
{ "type": "Feature", "properties": { "NROCNPJ_PAD": "29155730000143", "NOME_FANTASIA": "-", "RAZAO_SOCIAL": "JAIME DE OLIVEIRA CHAVES 04049236664", "RESPONSAVEL": "JAIMEDEOLIVEIRACHAVES", "ENDEE": "RUA ANTONIO QUINTINO, 680, SANTA CRUZ, 35505-000, DIVINÓPOLIS, MG, BRASIL", "BANCO": "SICOOB", "LINHA_AVAL_NOME": "Giro", "STATUS_OPERACIONAL": "CARTEIRA" }, "geometry": { "type": "Point", "coordinates": [ -44.9809823, -20.1125448 ] } },
{ "type": "Feature", "properties": { "NROCNPJ_PAD": "20057309000125", "NOME_FANTASIA": "EUGENIA-DORLIETE@HOTMAIL.COM", "RAZAO_SOCIAL": "EUGENIA MARIA DE ALMEIDA 99144239653", "RESPONSAVEL": "EUGENIAMARIADEALMEIDA", "ENDEE": "AVENIDA DIVINOPOLIS, 42, CASA CASA, SANTA RITA, 35040-150, GOVERNADOR VALADARES, MG, BRASIL", "BANCO": "SICOOB", "LINHA_AVAL_NOME": "Giro", "STATUS_OPERACIONAL": "CARTEIRA" }, "geometry": { "type": "Point", "coordinates": [ -41.9883261, -18.9099347 ] } },
{ "type": "Feature", "properties": { "NROCNPJ_PAD": "17324381000167", "NOME_FANTASIA": "NASCENTE DE MINAS DISTRIBUIDORA DE BEBIDAS", "RAZAO_SOCIAL": "NASCENTE DE MINAS DISTRIBUIDORA DE BEBIDAS LTDA", "RESPONSAVEL": "EDMARCOS MARQUES DE CARVALHO|ROSEMEIRE DA SILVA CARVALHO", "ENDEE": "RUA DIVINOPOLIS, 48, JARDIM INDUSTRIAL, IBIRITE, MG", "BANCO": "BDMG", "LINHA_AVAL_NOME": "GIRO", "STATUS_OPERACIONAL": "CARTEIRA" }, "geometry": { "type": "Point", "coordinates": [ -44.0932454, -20.0035086 ] } },
{ "type": "Feature", "properties": { "NROCNPJ_PAD": "53765565000126", "NOME_FANTASIA": "IMPERIO FIT", "RAZAO_SOCIAL": "IMPERIO FIT LTDA", "RESPONSAVEL": "HENRIQUEDASILVABRAGA|JOAODASILVABORGES", "ENDEE": "AVENIDA MARIO JOSE DA SILVEIRA, 111, DIVINOPOLIS, 38770-000, JOAO PINHEIRO", "BANCO": "SICOOB", "LINHA_AVAL_NOME": "GIRO", "STATUS_OPERACIONAL": "CARTEIRA" }, "geometry": { "type": "Point", "coordinates": [ -46.1743626, -17.7406406 ] } },
{ "type": "Feature", "properties": { "NROCNPJ_PAD": "55304586000170", "NOME_FANTASIA": "CENTRO DE TREINAMENTO COUNTRY CLUB", "RAZAO_SOCIAL": "CENTRO DE TREINAMENTO E FORMACAO DE VIGILANTES COUNTRY CLUB LTDA", "RESPONSAVEL": "CARLOSGUIMARAESJUNIOR|MARIELLAMARADEMOURASILVA", "ENDEE": "RUA ALMERINDA MARIA DE OLIVEIRA, 501, DIVINOPOLIS, 38770-000, JOAO PINHEIRO", "BANCO": "SICOOB", "LINHA_AVAL_NOME": "GIRO", "STATUS_OPERACIONAL": "CARTEIRA" }, "geometry": { "type": "Point", "coordinates": [ -46.1732024, -17.7278788 ] } },
{ "type": "Feature", "properties": { "NROCNPJ_PAD": "86393857000134", "NOME_FANTASIA": "RECIPAM RECICLAGENS", "RAZAO_SOCIAL": "RECIPAM RECICLAGENS LTDA", "RESPONSAVEL": "ANTONIOCARLOSFERREIRA", "ENDEE": "AVENIDA DIVINOPOLIS, 670, BELA VISTA, 35545-000, PERDIGAO", "BANCO": "SICOOB", "LINHA_AVAL_NOME": "GIRO", "STATUS_OPERACIONAL": "CARTEIRA" }, "geometry": { "type": "Point", "coordinates": [ -45.0782841, -19.9539515 ] } },
{ "type": "Feature", "properties": { "NROCNPJ_PAD": "52418848000139", "NOME_FANTASIA": "WSJ AGENCIAMENTOS", "RAZAO_SOCIAL": "52.418.848 SINARA LUZIA MANSO CORREIA", "RESPONSAVEL": "SINARALUZIAMANSOCORREIA", "ENDEE": "RUA DIVINOPOLIS, 181, CENTRO, 35567-000, SAO SEBASTIAO DO OESTE", "BANCO": "SICOOB", "LINHA_AVAL_NOME": "GIRO", "STATUS_OPERACIONAL": "CARTEIRA" }, "geometry": { "type": "Point", "coordinates": [ -45.0039611, -20.2791239 ] } },
{ "type": "Feature", "properties": { "NROCNPJ_PAD": "07091149000172", "NOME_FANTASIA": "0", "RAZAO_SOCIAL": "FORMATAR CONSULTORIA EMPRESARIAL LTDA", "RESPONSAVEL": "DABYROMINADEMORAIS|HELTONAUGUSTOCARDOSO|MARCOS FABIO GOMES FERREIRA|MARLONROCHAAMARAL|RICARDOFERREIRADEOLIVEIRA|TULIOJOSEFONSECAAMARAL|VINICIUSMENDONCARODRIGUESGIMENESFRANCA", "ENDEE": "AVENIDA SETE DE SETEMBRO, 1470, APT 301, CENTRO, 35500-011, DIVINOPOLIS, MG, BRASIL", "BANCO": "SICOOB", "LINHA_AVAL_NOME": "#N/D", "STATUS_OPERACIONAL": "RETORNAR_COMERCIAL" }, "geometry": { "type": "Point", "coordinates": [ -44.8901297, -20.1385029 ] } },
{ "type": "Feature", "properties": { "NROCNPJ_PAD": "23109991000140", "NOME_FANTASIA": "0", "RAZAO_SOCIAL": "GEX IMOBILIARIA LTDA", "RESPONSAVEL": "JHONATANGOMESFERNANDES", "ENDEE": "AVENIDA SETE DE SETEMBRO, 1466, SALA 201, CENTRO, 35500-011, DIVINOPOLIS, MG, BRASIL", "BANCO": "SICOOB", "LINHA_AVAL_NOME": "#N/D", "STATUS_OPERACIONAL": "RETORNAR_COMERCIAL" }, "geometry": { "type": "Point", "coordinates": [ -44.8901924, -20.1385332 ] } },
{ "type": "Feature", "properties": { "NROCNPJ_PAD": "17737137000126", "NOME_FANTASIA": "P7 PNEUS", "RAZAO_SOCIAL": "PNEU 7 LTDA", "RESPONSAVEL": "SAMARONEPIRESDEFIGUEIREDO", "ENDEE": "AVENIDA SETE DE SETEMBRO, 1587, CENTRO, 35500-011, DIVINOPOLIS, MG, BRASIL", "BANCO": "SICOOB", "LINHA_AVAL_NOME": "#N/D", "STATUS_OPERACIONAL": "RETORNAR_COMERCIAL" }, "geometry": { "type": "Point", "coordinates": [ -44.8901484, -20.1377831 ] } },
{ "type": "Feature", "properties": { "NROCNPJ_PAD": "37185363000159", "NOME_FANTASIA": "ZAGO IMOVEIS", "RAZAO_SOCIAL": "ZAGO CONSULTORIA IMOBILIARIA LTDA", "RESPONSAVEL": "ANTONIOCARLOSDEOLIVEIRAJUNIOR", "ENDEE": "RUA BAHIA, 1140, CENTRO, 35500-026, DIVINÓPOLIS, MG, BRASIL", "BANCO": "SICOOB", "LINHA_AVAL_NOME": "Giro", "STATUS_OPERACIONAL": "RETORNAR_COMERCIAL" }, "geometry": { "type": "Point", "coordinates": [ -44.8928676, -20.1398204 ] } },
{ "type": "Feature", "properties": { "NROCNPJ_PAD": "25154074000103", "NOME_FANTASIA": "TOTAL PET", "RAZAO_SOCIAL": "MARCO TULIO GONCALVES MELO 12373030608", "RESPONSAVEL": "MARCOTULIOGONCALVESMELO", "ENDEE": "RUA MATO GROSSO, 1061, LOJA 01, CENTRO, 35500-027, DIVINÓPOLIS, MG, BRASIL", "BANCO": "SICOOB", "LINHA_AVAL_NOME": "Giro", "STATUS_OPERACIONAL": "RETORNAR_COMERCIAL" }, "geometry": { "type": "Point", "coordinates": [ -44.8941827, -20.1400309 ] } },
{ "type": "Feature", "properties": { "NROCNPJ_PAD": "09230388000191", "NOME_FANTASIA": "CENTRO DE EDUCACAO INFANTIL AQUARELA", "RAZAO_SOCIAL": "CENTRO DE EDUCACAO INFANTIL LEAO LTDA", "RESPONSAVEL": "SIMONEGONCALVESLEAOSANTOS", "ENDEE": "RUA MATO GROSSO, 1049, CENTRO, 35500-027, DIVINÓPOLIS, MG, BRASIL", "BANCO": "SICOOB", "LINHA_AVAL_NOME": "Giro", "STATUS_OPERACIONAL": "RETORNAR_COMERCIAL" }, "geometry": { "type": "Point", "coordinates": [ -44.8942556, -20.140063 ] } },
{ "type": "Feature", "properties": { "NROCNPJ_PAD": "30323693000114", "NOME_FANTASIA": "ALIVE", "RAZAO_SOCIAL": "ALIVE GRAFICA LTDA", "RESPONSAVEL": "DIEGOMATEUSDEFARIA|NADIACASTEGLIONITEIXEIRA", "ENDEE": "AVENIDA GOVERNADOR MAGALHAES PINTO, 547, LOJA 02, NITEROI, 35500-221, DIVINOPOLIS, MG, BRASIL", "BANCO": "SICOOB", "LINHA_AVAL_NOME": "#N/D", "STATUS_OPERACIONAL": "RETORNAR_COMERCIAL" }, "geometry": { "type": "Point", "coordinates": [ -44.8751888, -20.1393965 ] } },
{ "type": "Feature", "properties": { "NROCNPJ_PAD": "36986428000100", "NOME_FANTASIA": "0", "RAZAO_SOCIAL": "36.986.428 FABIANO DELFINO SILVA", "RESPONSAVEL": "FABIANODELFINOSILVA", "ENDEE": "AVENIDA VINTE E UM DE ABRIL, 72, CENTRO, 35500-010, DIVINOPOLIS, MG, BRASIL", "BANCO": "SICOOB", "LINHA_AVAL_NOME": "#N/D", "STATUS_OPERACIONAL": "RETORNAR_COMERCIAL" }, "geometry": { "type": "Point", "coordinates": [ -44.8923543, -20.1491809 ] } },
{ "type": "Feature", "properties": { "NROCNPJ_PAD": "63223439000101", "NOME_FANTASIA": "ELOI BEER", "RAZAO_SOCIAL": "ELOI BEER COMERCIAL LTDA", "RESPONSAVEL": "MICHELELOISILVA", "ENDEE": "RUA RUBI, 393, NITEROI, 35500-218, DIVINÓPOLIS, MG, BRASIL", "BANCO": "SICOOB", "LINHA_AVAL_NOME": "Giro", "STATUS_OPERACIONAL": "RETORNAR_COMERCIAL" }, "geometry": { "type": "Point", "coordinates": [ -44.8753124, -20.1408066 ] } },
{ "type": "Feature", "properties": { "NROCNPJ_PAD": "10815144000150", "NOME_FANTASIA": "0", "RAZAO_SOCIAL": "ZEQUITAS BAR LTDA", "RESPONSAVEL": "MARIALUIZASILVAGONTIJO", "ENDEE": "RUA ARAPUAS, 234, SAO LUIS, 35500-202, DIVINOPOLIS, MG, BRASIL", "BANCO": "SICOOB", "LINHA_AVAL_NOME": "#N/D", "STATUS_OPERACIONAL": "RETORNAR_COMERCIAL" }, "geometry": { "type": "Point", "coordinates": [ -44.8687642, -20.1450231 ] } },
{ "type": "Feature", "properties": { "NROCNPJ_PAD": "41659742000100", "NOME_FANTASIA": "JACK GOURMET", "RAZAO_SOCIAL": "41.659.742 JACQUELINE CRISTIANE DOS SANTOS RODRIGUES", "RESPONSAVEL": "JACQUELINECRISTIANEDOSSANTOSRODRIGUES", "ENDEE": "RUA PARA, 425, APT 303, VILA BELO HORIZONTE, 35502-032, DIVINOPOLIS, MG, BRASIL", "BANCO": "SICOOB", "LINHA_AVAL_NOME": "#N/D", "STATUS_OPERACIONAL": "RETORNAR_COMERCIAL" }, "geometry": { "type": "Point", "coordinates": [ -44.9009164, -20.1423893 ] } },
{ "type": "Feature", "properties": { "NROCNPJ_PAD": "47432132000156", "NOME_FANTASIA": "0", "RAZAO_SOCIAL": "47.432.132 LUIZ FERNANDO FERREIRA RODRIGUES", "RESPONSAVEL": "LUIZFERNANDOFERREIRARODRIGUES", "ENDEE": "RUA MINAS GERAIS, 1380, APT 201, CENTRO, 35500-007, DIVINOPOLIS, MG, BRASIL", "BANCO": "SICOOB", "LINHA_AVAL_NOME": "#N/D", "STATUS_OPERACIONAL": "RETORNAR_COMERCIAL" }, "geometry": { "type": "Point", "coordinates": [ -44.8982821, -20.1420434 ] } },
{ "type": "Feature", "properties": { "NROCNPJ_PAD": "10852571000108", "NOME_FANTASIA": "0", "RAZAO_SOCIAL": "ATLANTICA TECIDOS LTDA", "RESPONSAVEL": "EDUARDOCOSTAAMARAL", "ENDEE": "RUA CAPITOLIO, 100, SANTO ANTONIO, 35502-039, DIVINOPOLIS, MG, BRASIL", "BANCO": "SICOOB", "LINHA_AVAL_NOME": "#N/D", "STATUS_OPERACIONAL": "RETORNAR_COMERCIAL" }, "geometry": { "type": "Point", "coordinates": [ -44.9060482, -20.1426429 ] } },
{ "type": "Feature", "properties": { "NROCNPJ_PAD": "28306905000103", "NOME_FANTASIA": "0", "RAZAO_SOCIAL": "ANTONIO MARCIANO SOBRINHO 32481764668", "RESPONSAVEL": "ANTONIOMARCIANOSOBRINHO|MARIADEFATIMAXAVIER", "ENDEE": "RUA PERNAMBUCO, 843, CENTRO, 35500-008, DIVINOPOLIS, MG, BRASIL", "BANCO": "SICOOB", "LINHA_AVAL_NOME": "#N/D", "STATUS_OPERACIONAL": "RETORNAR_COMERCIAL" }, "geometry": { "type": "Point", "coordinates": [ -44.8954307, -20.1458399 ] } },
{ "type": "Feature", "properties": { "NROCNPJ_PAD": "41262167000108", "NOME_FANTASIA": "START CLIMATIZACOES", "RAZAO_SOCIAL": "HELBERT DE ASSIS CARVALHO 86583107600", "RESPONSAVEL": "HELBERTDEASSISCARVALHO", "ENDEE": "RUA PARAIBA, 1182, CENTRO, 35500-016, DIVINOPOLIS, MG, BRASIL", "BANCO": "SICOOB", "LINHA_AVAL_NOME": "#N/D", "STATUS_OPERACIONAL": "RETORNAR_COMERCIAL" }, "geometry": { "type": "Point", "coordinates": [ -44.8953804, -20.1391222 ] } },
{ "type": "Feature", "properties": { "NROCNPJ_PAD": "35458620000153", "NOME_FANTASIA": "CLUBE DO PNEU", "RAZAO_SOCIAL": "G M T COMERCIO DE PNEUS LTDA", "RESPONSAVEL": "GLEYDSONGIOVANEDASILVA", "ENDEE": "RUA CASTRO ALVES, 305, CATALAO, 35501-205, DIVINOPOLIS, MG, BRASIL", "BANCO": "SICOOB", "LINHA_AVAL_NOME": "#N/D", "STATUS_OPERACIONAL": "RETORNAR_COMERCIAL" }, "geometry": { "type": "Point", "coordinates": [ -44.9001971, -20.1493212 ] } },
{ "type": "Feature", "properties": { "NROCNPJ_PAD": "58454629000191", "NOME_FANTASIA": "V4 MAGALHAES & CO", "RAZAO_SOCIAL": "MAGALHAES ASSESSORIA DE MARKETING LTDA", "RESPONSAVEL": "DAVIVASCONCELOSDOSSANTOS|HYCAROAUGUSTORESENDEDESOUSAALVES|PEDROMAGALHAESDEFARIAJUNIOR", "ENDEE": "RUA BAHIA, 768, CENTRO, 35500-026, DIVINOPOLIS, MG, BRASIL", "BANCO": "SICOOB", "LINHA_AVAL_NOME": "#N/D", "STATUS_OPERACIONAL": "RETORNAR_COMERCIAL" }, "geometry": { "type": "Point", "coordinates": [ -44.8940297, -20.1429738 ] } },
{ "type": "Feature", "properties": { "NROCNPJ_PAD": "29657324000189", "NOME_FANTASIA": "DRA. RAFAELA SANTOS BIOMEDICA ESTETA", "RAZAO_SOCIAL": "RAFAELA SANTOS BIOMEDICINA ESTETICA LTDA", "RESPONSAVEL": "RAFAELA SANTOS DA SILVA", "ENDEE": "AVENIDA RIO GRANDE DO SUL, 517, SALA 6, CENTRO, 35500-025, DIVINOPOLIS, MG, BRASIL", "BANCO": "BDMG", "LINHA_AVAL_NOME": "#N/D", "STATUS_OPERACIONAL": "RETORNAR_COMERCIAL" }, "geometry": { "type": "Point", "coordinates": [ -44.8943476, -20.1453461 ] } },
{ "type": "Feature", "properties": { "NROCNPJ_PAD": "33005142000109", "NOME_FANTASIA": "CROC COXINHA", "RAZAO_SOCIAL": "VV COMERCIO DE ALIMENTOS LTDA", "RESPONSAVEL": "SHEILAAPARECIDAROCHA|VALDEREZMARIADASILVA", "ENDEE": "RUA MATO GROSSO, 1001, CENTRO, 35500-027, DIVINOPOLIS, MG, BRASIL", "BANCO": "SICOOB", "LINHA_AVAL_NOME": "#N/D", "STATUS_OPERACIONAL": "RETORNAR_COMERCIAL" }, "geometry": { "type": "Point", "coordinates": [ -44.8944718, -20.1405651 ] } },
{ "type": "Feature", "properties": { "NROCNPJ_PAD": "50318491000191", "NOME_FANTASIA": "SEA MIX", "RAZAO_SOCIAL": "ZEZA DISTRIBUIDORA LTDA", "RESPONSAVEL": "-", "ENDEE": "RUA PERNAMBUCO, 1471, CENTRO, 35500-008, DIVINOPOLIS, MG, BRASIL", "BANCO": "BRADESCO", "LINHA_AVAL_NOME": "#N/D", "STATUS_OPERACIONAL": "RETORNAR_COMERCIAL" }, "geometry": { "type": "Point", "coordinates": [ -44.9013149, -20.1443629 ] } },
{ "type": "Feature", "properties": { "NROCNPJ_PAD": "50251603000134", "NOME_FANTASIA": "0", "RAZAO_SOCIAL": "AMEI MULTIMARCAS LTDA", "RESPONSAVEL": "-", "ENDEE": "RUA GOIAS, 477, LOJA 5, CENTRO, 35500-001, DIVINOPOLIS, MG, BRASIL", "BANCO": "SICOOB", "LINHA_AVAL_NOME": "#N/D", "STATUS_OPERACIONAL": "RETORNAR_COMERCIAL" }, "geometry": { "type": "Point", "coordinates": [ -44.8902785, -20.1461993 ] } },
{ "type": "Feature", "properties": { "NROCNPJ_PAD": "27871619000128", "NOME_FANTASIA": "0", "RAZAO_SOCIAL": "CASTRO & FURTADO MODA MASCULINA LTDA", "RESPONSAVEL": "GABRIELCASTROFURTADODEMENDONCA", "ENDEE": "AVENIDA ANTONIO OLIMPIO DE MORAIS, 365, LOJA 02, CENTRO, 35500-005, DIVINOPOLIS, MG, BRASIL", "BANCO": "SICOOB", "LINHA_AVAL_NOME": "#N/D", "STATUS_OPERACIONAL": "RETORNAR_COMERCIAL" }, "geometry": { "type": "Point", "coordinates": [ -44.8897006, -20.1452715 ] } },
{ "type": "Feature", "properties": { "NROCNPJ_PAD": "35161805000100", "NOME_FANTASIA": "MS", "RAZAO_SOCIAL": "MURILO HENRIQUE RODRIGUES DOS SANTOS 12835414673", "RESPONSAVEL": "MURILOHENRIQUERODRIGUESDOSSANTOS", "ENDEE": "RUA PERNAMBUCO, 352, LOJA 6, CENTRO, 35500-008, DIVINOPOLIS, MG, BRASIL", "BANCO": "SICOOB", "LINHA_AVAL_NOME": "#N/D", "STATUS_OPERACIONAL": "RETORNAR_COMERCIAL" }, "geometry": { "type": "Point", "coordinates": [ -44.8908971, -20.1469846 ] } },
{ "type": "Feature", "properties": { "NROCNPJ_PAD": "24812628000150", "NOME_FANTASIA": "ELI PENHA FOTOGRAFIA", "RAZAO_SOCIAL": "24.812.628 ELISELBERT PENHA DE ARAUJO", "RESPONSAVEL": "ELISELBERTPENHADEARAUJO", "ENDEE": "RUA NITEROI, 290, MANOEL VALINHAS, 35500-291, DIVINOPOLIS, MG, BRASIL", "BANCO": "SICOOB", "LINHA_AVAL_NOME": "#N/D", "STATUS_OPERACIONAL": "RETORNAR_COMERCIAL" }, "geometry": { "type": "Point", "coordinates": [ -44.8770005, -20.1289554 ] } },
{ "type": "Feature", "properties": { "NROCNPJ_PAD": "20164224000146", "NOME_FANTASIA": "0", "RAZAO_SOCIAL": "CACHARREL FEMININA INDUSTRIA E COMERCIO DE CONFECCOES LTDA", "RESPONSAVEL": "LUISA CAMPOS BUENO", "ENDEE": "RUA PITANGUI, 163, SALA 201, SANTA CLARA, 35500-151, DIVINOPOLIS, MG, BRASIL", "BANCO": "BDMG", "LINHA_AVAL_NOME": "#N/D", "STATUS_OPERACIONAL": "RETORNAR_COMERCIAL" }, "geometry": { "type": "Point", "coordinates": [ -44.8842763, -20.125633 ] } },
{ "type": "Feature", "properties": { "NROCNPJ_PAD": "17534904000108", "NOME_FANTASIA": "0", "RAZAO_SOCIAL": "CLINICA ANTUNES FERREIRA LTDA", "RESPONSAVEL": "BRUNOSILVABARBOSA|IZABELAANTUNESFERREIRA", "ENDEE": "RUA DIVINOPOLIS, 211, APT 202, SANTA CLARA, 35500-075, DIVINOPOLIS, MG, BRASIL", "BANCO": "SICOOB", "LINHA_AVAL_NOME": "#N/D", "STATUS_OPERACIONAL": "RETORNAR_COMERCIAL" }, "geometry": { "type": "Point", "coordinates": [ -44.8846204, -20.1339957 ] } },
{ "type": "Feature", "properties": { "NROCNPJ_PAD": "42455496000138", "NOME_FANTASIA": "CONTABILIDADE CLARA", "RAZAO_SOCIAL": "CONTABILIDADE CLARA LTDA", "RESPONSAVEL": "CLARAHUMBELINADASILVAFONSECA|HENRIQUESANTOSXAVIER", "ENDEE": "RUA ITAJUBA, 270, CASA, BOM PASTOR, 35500-185, DIVINOPOLIS, MG, BRASIL", "BANCO": "SICOOB", "LINHA_AVAL_NOME": "#N/D", "STATUS_OPERACIONAL": "RETORNAR_COMERCIAL" }, "geometry": { "type": "Point", "coordinates": [ -44.8842022, -20.1185624 ] } },
{ "type": "Feature", "properties": { "NROCNPJ_PAD": "47033819000119", "NOME_FANTASIA": "EL SHADDAI VIDROS E ESQUADRIAS", "RAZAO_SOCIAL": "EL SHADDAI VIDROS E ESQUADRIAS LTDA", "RESPONSAVEL": "NILTONJUNIORCLEMENTINOREIS", "ENDEE": "RUA ILICINIA, 238, LJ, BOM PASTOR, 35500-186, DIVINOPOLIS, MG, BRASIL", "BANCO": "SICOOB", "LINHA_AVAL_NOME": "#N/D", "STATUS_OPERACIONAL": "RETORNAR_COMERCIAL" }, "geometry": { "type": "Point", "coordinates": [ -44.884226, -20.1201101 ] } },
{ "type": "Feature", "properties": { "NROCNPJ_PAD": "21991297000174", "NOME_FANTASIA": "CHURRASQUINHO DO HAMILTON", "RAZAO_SOCIAL": "HAMILTON ANTONIO TEIXEIRA 03635143685", "RESPONSAVEL": "HAMILTONANTONIOTEIXEIRA", "ENDEE": "RUA PITANGUI, 172, SANTA CLARA, 35500-151, DIVINOPOLIS, MG, BRASIL", "BANCO": "SICOOB", "LINHA_AVAL_NOME": "#N/D", "STATUS_OPERACIONAL": "RETORNAR_COMERCIAL" }, "geometry": { "type": "Point", "coordinates": [ -44.8836519, -20.1253558 ] } },
{ "type": "Feature", "properties": { "NROCNPJ_PAD": "20217359000122", "NOME_FANTASIA": "0", "RAZAO_SOCIAL": "KAMIZARIA CONFECCOES LTDA", "RESPONSAVEL": "DANIEL RODRIGUES REZENDE JUNIOR|MICHELLE CEZAR SANTOS", "ENDEE": "AVENIDA JK, 1200, LOJA 96, BOM PASTOR, 35500-155, DIVINOPOLIS, MG, BRASIL", "BANCO": "BDMG", "LINHA_AVAL_NOME": "#N/D", "STATUS_OPERACIONAL": "RETORNAR_COMERCIAL" }, "geometry": { "type": "Point", "coordinates": [ -44.8832112, -20.1284004 ] } },
{ "type": "Feature", "properties": { "NROCNPJ_PAD": "17523034000163", "NOME_FANTASIA": "LORETO BOOKSTORE", "RAZAO_SOCIAL": "LORETO LIVRARIA E PAPELARIA LTDA", "RESPONSAVEL": "LEANDROSILVADOSSANTOS|SIMONEAPARECIDADASILVA", "ENDEE": "RUA MOACIR JOSE LEITE, 100, LOJA 223, SANTA CLARA, 35500-119, DIVINOPOLIS, MG, BRASIL", "BANCO": "SICOOB", "LINHA_AVAL_NOME": "#N/D", "STATUS_OPERACIONAL": "RETORNAR_COMERCIAL" }, "geometry": { "type": "Point", "coordinates": [ -44.8818224, -20.1275339 ] } },
{ "type": "Feature", "properties": { "NROCNPJ_PAD": "22068069000190", "NOME_FANTASIA": "REFORMA", "RAZAO_SOCIAL": "MARIZE MAIA COM E IND DE ROUPAS E ACESSORIOS LTDA", "RESPONSAVEL": "ANACAROLINAFRANCOMAIA|THALESRODRIGUESMAIA", "ENDEE": "AVENIDA ANTONIO OLIMPIO DE MORAIS, 830, CENTRO, 35500-005, DIVINOPOLIS, MG, BRASIL", "BANCO": "SICOOB", "LINHA_AVAL_NOME": "#N/D", "STATUS_OPERACIONAL": "RETORNAR_COMERCIAL" }, "geometry": { "type": "Point", "coordinates": [ -44.8880091, -20.1415392 ] } },
{ "type": "Feature", "properties": { "NROCNPJ_PAD": "18870955000165", "NOME_FANTASIA": "FORMATAR SOLUCOES EMPRESARIAIS", "RAZAO_SOCIAL": "MINAS SOLUCOES EMPRESARIAIS LTDA", "RESPONSAVEL": "DABYROMINADEMORAIS|HELTONAUGUSTOCARDOSO|MARLONROCHAAMARAL|RICARDOFERREIRADEOLIVEIRA|TULIOJOSEFONSECAAMARAL|VINICIUSMENDONCARODRIGUESGIMENESFRANCA", "ENDEE": "RUA PITANGUI, 845, LOJA 01, DAS OLIVEIRAS, 35502-070, DIVINOPOLIS, MG, BRASIL", "BANCO": "BDMG", "LINHA_AVAL_NOME": "#N/D", "STATUS_OPERACIONAL": "RETORNAR_COMERCIAL" }, "geometry": { "type": "Point", "coordinates": [ -44.8799237, -20.1179629 ] } },
{ "type": "Feature", "properties": { "NROCNPJ_PAD": "07709882000108", "NOME_FANTASIA": "0", "RAZAO_SOCIAL": "PADARIA SANTA IZABEL LTDA", "RESPONSAVEL": "BRUNA AMARAL COSTA|SILVIANEREGINAAMARALLIMACOSTA", "ENDEE": "RUA ITAI, 420, MANOEL VALINHAS, 35500-279, DIVINOPOLIS, MG, BRASIL", "BANCO": "SICOOB", "LINHA_AVAL_NOME": "#N/D", "STATUS_OPERACIONAL": "RETORNAR_COMERCIAL" }, "geometry": { "type": "Point", "coordinates": [ -44.8761779, -20.1286504 ] } },
{ "type": "Feature", "properties": { "NROCNPJ_PAD": "40643872000192", "NOME_FANTASIA": "PIRATAS PIZZA FRITA", "RAZAO_SOCIAL": "PIRATAS PIZZA FRITA LTDA", "RESPONSAVEL": "DIEGOLUCIOSOARES|LEANDROCORREASOARES", "ENDEE": "RUA ORION, 326, MANOEL VALINHAS, 35500-283, DIVINOPOLIS, MG, BRASIL", "BANCO": "SICOOB", "LINHA_AVAL_NOME": "#N/D", "STATUS_OPERACIONAL": "RETORNAR_COMERCIAL" }, "geometry": { "type": "Point", "coordinates": [ -44.8762667, -20.1233396 ] } },
{ "type": "Feature", "properties": { "NROCNPJ_PAD": "54361870000115", "NOME_FANTASIA": "SOLUFRIO", "RAZAO_SOCIAL": "SOLUCAR SOLUCOES EM LOCACOES DE VEICULOS LTDA", "RESPONSAVEL": "-", "ENDEE": "RUA INACIO GOMES, 51, SALA 97, BOM PASTOR, 35500-150, DIVINOPOLIS, MG, BRASIL", "BANCO": "BRADESCO", "LINHA_AVAL_NOME": "#N/D", "STATUS_OPERACIONAL": "RETORNAR_COMERCIAL" }, "geometry": { "type": "Point", "coordinates": [ -44.8808729, -20.1180253 ] } },
{ "type": "Feature", "properties": { "NROCNPJ_PAD": "53760109000193", "NOME_FANTASIA": "BARBEARIA VINTAGE CLUB", "RAZAO_SOCIAL": "VINTAGE CLUB BARBEARIA LTDA", "RESPONSAVEL": "-", "ENDEE": "RUA DONA HILDA, 11, BOM PASTOR, 35500-196, DIVINOPOLIS, MG, BRASIL", "BANCO": "BRADESCO", "LINHA_AVAL_NOME": "#N/D", "STATUS_OPERACIONAL": "RETORNAR_COMERCIAL" }, "geometry": { "type": "Point", "coordinates": [ -44.88615, -20.1264867 ] } },
{ "type": "Feature", "properties": { "NROCNPJ_PAD": "59757973000112", "NOME_FANTASIA": "NUBIA OLIVEIRA FISIOTERAPIA", "RAZAO_SOCIAL": "NUBIA OLIVEIRA FISIOTERAPIA LTDA", "RESPONSAVEL": "NUBIANATALIADEOLIVEIRA", "ENDEE": "RUA RIO DE JANEIRO, 426, SALA 703, CENTRO, 35500-009, DIVINÓPOLIS, MG, BRASIL", "BANCO": "SICOOB", "LINHA_AVAL_NOME": "Giro", "STATUS_OPERACIONAL": "RETORNAR_COMERCIAL" }, "geometry": { "type": "Point", "coordinates": [ -44.8890426, -20.142388 ] } },
{ "type": "Feature", "properties": { "NROCNPJ_PAD": "61887297000143", "NOME_FANTASIA": "JOY ACESSORIOS", "RAZAO_SOCIAL": "JOY ACESSORIOS LTDA", "RESPONSAVEL": "GIOVANNAFERREIRAALVES", "ENDEE": "AVENIDA ANTONIO OLIMPIO DE MORAIS, 361, CENTRO, 35500-005, DIVINÓPOLIS, MG, BRASIL", "BANCO": "SICOOB", "LINHA_AVAL_NOME": "Giro", "STATUS_OPERACIONAL": "RETORNAR_COMERCIAL" }, "geometry": { "type": "Point", "coordinates": [ -44.8897317, -20.1453252 ] } },
{ "type": "Feature", "properties": { "NROCNPJ_PAD": "17268908000183", "NOME_FANTASIA": "0", "RAZAO_SOCIAL": "17.268.908 DANIEL PEREIRA", "RESPONSAVEL": "DANIELPEREIRA", "ENDEE": "RUA PADRE EUSTAQUIO, 1021, DONA ROSA, 35500-521, DIVINOPOLIS, MG, BRASIL", "BANCO": "SICOOB", "LINHA_AVAL_NOME": "#N/D", "STATUS_OPERACIONAL": "RETORNAR_COMERCIAL" }, "geometry": { "type": "Point", "coordinates": [ -44.8552015, -20.1662738 ] } },
{ "type": "Feature", "properties": { "NROCNPJ_PAD": "06283614000104", "NOME_FANTASIA": "0", "RAZAO_SOCIAL": "ACADEMIA CORPO SOLIDO LTDA", "RESPONSAVEL": "ANDREA RODRIGUES DE SOUSA GONCALVES|MIRIAN CARLA GONCALVES|RONIENE LELES GONCALVES", "ENDEE": "RUA ROSA VITERBO GONTIJO, 81, INTERLAGOS, 35500-455, DIVINOPOLIS, MG, BRASIL", "BANCO": "ESTÍMULO", "LINHA_AVAL_NOME": "#N/D", "STATUS_OPERACIONAL": "RETORNAR_COMERCIAL" }, "geometry": { "type": "Point", "coordinates": [ -44.8777501, -20.1569993 ] } },
{ "type": "Feature", "properties": { "NROCNPJ_PAD": "41827933000134", "NOME_FANTASIA": "CROSSFIT JUDAH", "RAZAO_SOCIAL": "CENTRO FUNCIONAL JUDAH LTDA", "RESPONSAVEL": "ELILUCASDOPRADOTORRES", "ENDEE": "RUA BOM SUCESSO, 1711, GALPAO., ANTONIO FONSECA, 35501-045, DIVINOPOLIS, MG, BRASIL", "BANCO": "SICOOB", "LINHA_AVAL_NOME": "#N/D", "STATUS_OPERACIONAL": "RETORNAR_COMERCIAL" }, "geometry": { "type": "Point", "coordinates": [ -44.8616272, -20.1559753 ] } },
{ "type": "Feature", "properties": { "NROCNPJ_PAD": "52961535000122", "NOME_FANTASIA": "CHART MOVEIS DESIGN", "RAZAO_SOCIAL": "CHART MOVEIS DESIGN LTDA", "RESPONSAVEL": "NELSON AUGUSTO FARIA", "ENDEE": "RUA HONDURAS, 289, SANTA ROSA, 35500-541, DIVINOPOLIS, MG, BRASIL", "BANCO": "BDMG", "LINHA_AVAL_NOME": "#N/D", "STATUS_OPERACIONAL": "RETORNAR_COMERCIAL" }, "geometry": { "type": "Point", "coordinates": [ -44.8522373, -20.1615882 ] } },
{ "type": "Feature", "properties": { "NROCNPJ_PAD": "47280782000123", "NOME_FANTASIA": "MERCEARIA PEREIRA", "RAZAO_SOCIAL": "FELIPE RODRIGUES PEREIRA 10995646627", "RESPONSAVEL": "FELIPERODRIGUESPEREIRA", "ENDEE": "RUA PADRE EUSTAQUIO, 1021, DONA ROSA, 35500-521, DIVINOPOLIS, MG, BRASIL", "BANCO": "SICOOB", "LINHA_AVAL_NOME": "#N/D", "STATUS_OPERACIONAL": "RETORNAR_COMERCIAL" }, "geometry": { "type": "Point", "coordinates": [ -44.8552015, -20.1662738 ] } },
{ "type": "Feature", "properties": { "NROCNPJ_PAD": "25289611000122", "NOME_FANTASIA": "0", "RAZAO_SOCIAL": "LEANDRO GONCALVES DE MELO 01470226650", "RESPONSAVEL": "LEANDROGONCALVESDEMELO", "ENDEE": "RUA CAMPINA VERDE, 476, SAO JOSE, 35501-236, DIVINOPOLIS, MG, BRASIL", "BANCO": "SICOOB", "LINHA_AVAL_NOME": "#N/D", "STATUS_OPERACIONAL": "RETORNAR_COMERCIAL" }, "geometry": { "type": "Point", "coordinates": [ -44.9054291, -20.1608588 ] } },
{ "type": "Feature", "properties": { "NROCNPJ_PAD": "29048955000109", "NOME_FANTASIA": "0", "RAZAO_SOCIAL": "LIDIANE FARIA ALKMIM E CIA LTDA", "RESPONSAVEL": "LIDIANEFARIAALKMIM", "ENDEE": "RUA GOIAS, 298, PORTO VELHO, 35500-433, DIVINOPOLIS, MG, BRASIL", "BANCO": "SICOOB", "LINHA_AVAL_NOME": "#N/D", "STATUS_OPERACIONAL": "RETORNAR_COMERCIAL" }, "geometry": { "type": "Point", "coordinates": [ -44.8822014, -20.1488911 ] } },
{ "type": "Feature", "properties": { "NROCNPJ_PAD": "39696519000191", "NOME_FANTASIA": "0", "RAZAO_SOCIAL": "MARILUCE DE FATIMA RODRIGUES PEREIRA 04685027698", "RESPONSAVEL": "MARILUCEDEFATIMARODRIGUESPEREIRA", "ENDEE": "RUA PADRE EUSTAQUIO, 1021, DONA ROSA, 35500-521, DIVINOPOLIS, MG, BRASIL", "BANCO": "SICOOB", "LINHA_AVAL_NOME": "#N/D", "STATUS_OPERACIONAL": "RETORNAR_COMERCIAL" }, "geometry": { "type": "Point", "coordinates": [ -44.8552015, -20.1662738 ] } },
{ "type": "Feature", "properties": { "NROCNPJ_PAD": "25122943000118", "NOME_FANTASIA": "AUTO PECAS SAO JOSE", "RAZAO_SOCIAL": "FELIPE DINIZ DA FONSECA 09149761684", "RESPONSAVEL": "FELIPEDINIZDAFONSECA", "ENDEE": "AVENIDA PARANA, 1587, CATALAO, 35501-169, DIVINÓPOLIS, MG, BRASIL", "BANCO": "SICOOB", "LINHA_AVAL_NOME": "Giro", "STATUS_OPERACIONAL": "RETORNAR_COMERCIAL" }, "geometry": { "type": "Point", "coordinates": [ -44.906001, -20.1620721 ] } },
{ "type": "Feature", "properties": { "NROCNPJ_PAD": "44026774000167", "NOME_FANTASIA": "GABRIELA CHAVES BEAUTY", "RAZAO_SOCIAL": "GABRIELA CHAVES FERREIRA LTDA", "RESPONSAVEL": "GABRIELACHAVESFERREIRA", "ENDEE": "RUA BOM SUCESSO, 279, ANTONIO FONSECA, 35501-045, DIVINÓPOLIS, MG, BRASIL", "BANCO": "SICOOB", "LINHA_AVAL_NOME": "Giro", "STATUS_OPERACIONAL": "RETORNAR_COMERCIAL" }, "geometry": { "type": "Point", "coordinates": [ -44.8815621, -20.1589305 ] } },
{ "type": "Feature", "properties": { "NROCNPJ_PAD": "27504492000109", "NOME_FANTASIA": "MINASCOMEX", "RAZAO_SOCIAL": "MINASCOMEX DO BRASIL COMERCIO E IMPORTACAO DE EQUIPAMENTOS LTDA", "RESPONSAVEL": "RODRIGOBRAGADEOLIVEIRA", "ENDEE": "RUA ISAURO FERREIRA, 632, LOJA, PORTO VELHO, 35500-429, DIVINÓPOLIS, MG, BRASIL", "BANCO": "SICOOB", "LINHA_AVAL_NOME": "Giro", "STATUS_OPERACIONAL": "RETORNAR_COMERCIAL" }, "geometry": { "type": "Point", "coordinates": [ -44.8837897, -20.1474663 ] } },
{ "type": "Feature", "properties": { "NROCNPJ_PAD": "36037947000114", "NOME_FANTASIA": "SUPRA SOLUCOES EM INOX", "RAZAO_SOCIAL": "OTAVIO DE ALMEIDA FERREIRA 06165253628", "RESPONSAVEL": "OTAVIODEALMEIDAFERREIRA", "ENDEE": "RUA MONTE LIBANO, 400, HALIN SOUKI, 35500-301, DIVINOPOLIS, MG, BRASIL", "BANCO": "SICOOB", "LINHA_AVAL_NOME": "#N/D", "STATUS_OPERACIONAL": "RETORNAR_COMERCIAL" }, "geometry": { "type": "Point", "coordinates": [ -44.8703306, -20.1424211 ] } },
{ "type": "Feature", "properties": { "NROCNPJ_PAD": "27888043000101", "NOME_FANTASIA": "R R MOVEIS", "RAZAO_SOCIAL": "ROMILSON JOAO DE OLIVEIRA 04511969612", "RESPONSAVEL": "ROMILSONJOAODEOLIVEIRA", "ENDEE": "RUA SAFARI, 945, SAO LUIS, 35500-210, DIVINÓPOLIS, MG, BRASIL", "BANCO": "SICOOB", "LINHA_AVAL_NOME": "Giro", "STATUS_OPERACIONAL": "RETORNAR_COMERCIAL" }, "geometry": { "type": "Point", "coordinates": [ -44.8676582, -20.1408077 ] } }
]
}
