{
"type": "FeatureCollection",
"name": "MUNICIPIO_MACHADO",
"crs": { "type": "name", "properties": { "name": "urn:ogc:def:crs:OGC:1.3:CRS84" } },
"xy_coordinate_resolution": 1e-15,
"features": [
{ "type": "Feature", "properties": { "NROCNPJ_PAD": "51553577000161", "STATUS_MAILING": "EMPRESA ELEGÍVEL ONLINE SEM SUCESSO NO CONTATO TELEFÔNICO/EMPRESA ELEGÍVEL PRESENCIAL NÃO VISITADA", "NOME_FANTASIA": null, "RAZAO_SOCIAL": "51.553.577 LEANDRO DONIZETE DE SOUZA", "RESPONSAVEL": "LEANDRODONIZETEDESOUZA", "MUNICIPIO": "MACHADO", "ENDEE": "CONGONHAS, 45, SANTA LUIZA I, 37750-000, MACHADO, MG, BRASIL", "BANCO": "SICOOB CREDIVAR", "LINHA_AVAL_NOME": "GIRO", "LATITUDE": "-21.6654448", "LONGITUDE": "-45.9072724", "STATUS_OPERACIONAL": "CARTEIRA", "STATUS": "CARTEIRA", "field_14": null, "field_15": null, "field_16": null }, "geometry": { "type": "Point", "coordinates": [ -45.9072724, -21.6654448 ] } },
{ "type": "Feature", "properties": { "NROCNPJ_PAD": "27051600000135", "STATUS_MAILING": "EMPRESA ELEGÍVEL ONLINE SEM SUCESSO NO CONTATO TELEFÔNICO/EMPRESA ELEGÍVEL PRESENCIAL NÃO VISITADA", "NOME_FANTASIA": "AMANDA SABIO LASH DESIGNER", "RAZAO_SOCIAL": "AMANDA SABIO LASH BROWS LTDA", "RESPONSAVEL": "AMANDASABIOMACEDOGOMES", "MUNICIPIO": "MACHADO", "ENDEE": "QUINZE DE NOVEMBRO, 282, CENTRO, 37750-000, MACHADO, MG, BRASIL", "BANCO": "SICOOB CREDIVAR", "LINHA_AVAL_NOME": "CRÉDITO EMERGENCIAL", "LATITUDE": "-21.6736113", "LONGITUDE": "-45.9214365", "STATUS_OPERACIONAL": "CARTEIRA", "STATUS": "CARTEIRA", "field_14": null, "field_15": null, "field_16": null }, "geometry": { "type": "Point", "coordinates": [ -45.9214365, -21.6736113 ] } },
{ "type": "Feature", "properties": { "NROCNPJ_PAD": "31688498000150", "STATUS_MAILING": "EMPRESA ELEGÍVEL ONLINE SEM SUCESSO NO CONTATO TELEFÔNICO/EMPRESA ELEGÍVEL PRESENCIAL NÃO VISITADA", "NOME_FANTASIA": "TTLD", "RAZAO_SOCIAL": "TTLD TRANSPORTADORA E TERRAPLENAGEM LEITE E DIAS LTDA", "RESPONSAVEL": "GABRIELLEITEDIAS|JOSEEUZEBIODIASNETO|JULIANACRISTINALEITE", "MUNICIPIO": "MACHADO", "ENDEE": "SANTO ANTONIO, S/N, ZONA RURAL, 37750-000, MACHADO, MG, BRASIL", "BANCO": "SICOOB CREDIVAR", "LINHA_AVAL_NOME": "GIRO", "LATITUDE": "-21.6752706", "LONGITUDE": "-45.9264095", "STATUS_OPERACIONAL": "CARTEIRA", "STATUS": "CARTEIRA", "field_14": null, "field_15": null, "field_16": null }, "geometry": { "type": "Point", "coordinates": [ -45.9264095, -21.6752706 ] } },
{ "type": "Feature", "properties": { "NROCNPJ_PAD": "51944145000181", "STATUS_MAILING": "EMPRESA ELEGÍVEL ONLINE SEM SUCESSO NO CONTATO TELEFÔNICO/EMPRESA ELEGÍVEL PRESENCIAL NÃO VISITADA", "NOME_FANTASIA": "GONCALVES ENGENHARIA", "RAZAO_SOCIAL": "GONCALVES ENGENHARIA LTDA", "RESPONSAVEL": "LEONARDO GONCALVES GUIMARAES", "MUNICIPIO": "MACHADO", "ENDEE": "MAJOR ONOFRE, 614, CENTRO, 37750-000, MACHADO, MG, BRASIL", "BANCO": "SICREDI UNIESTADOS", "LINHA_AVAL_NOME": "GIRO", "LATITUDE": "-21.675565", "LONGITUDE": "-45.925572", "STATUS_OPERACIONAL": "CARTEIRA", "STATUS": "CARTEIRA", "field_14": null, "field_15": null, "field_16": null }, "geometry": { "type": "Point", "coordinates": [ -45.925572, -21.675565 ] } },
{ "type": "Feature", "properties": { "NROCNPJ_PAD": "04063199000158", "STATUS_MAILING": "EMPRESA ELEGÍVEL ONLINE SEM SUCESSO NO CONTATO TELEFÔNICO/EMPRESA ELEGÍVEL PRESENCIAL NÃO VISITADA", "NOME_FANTASIA": "CAMARIM MODAS", "RAZAO_SOCIAL": "CAMARIM COMERCIO DE ROUPAS E ACESSORIOS LTDA", "RESPONSAVEL": "ELIASLEITEGENEROSO|IVETECORDEIRODEOLIVEIRAGENEROSO", "MUNICIPIO": "MACHADO", "ENDEE": "PROFESSOR FRANCISCO RAFAEL, 15, CENTRO, 37750-000, MACHADO, MG, BRASIL", "BANCO": "SICOOB CREDIVAR", "LINHA_AVAL_NOME": "EMPREENDEDORISMO FEM", "LATITUDE": "-21.6756052", "LONGITUDE": "-45.9227443", "STATUS_OPERACIONAL": "CARTEIRA", "STATUS": "CARTEIRA", "field_14": null, "field_15": null, "field_16": null }, "geometry": { "type": "Point", "coordinates": [ -45.9227443, -21.6756052 ] } },
{ "type": "Feature", "properties": { "NROCNPJ_PAD": "24167414000178", "STATUS_MAILING": "EMPRESA ELEGÍVEL ONLINE SEM SUCESSO NO CONTATO TELEFÔNICO/EMPRESA ELEGÍVEL PRESENCIAL NÃO VISITADA", "NOME_FANTASIA": null, "RAZAO_SOCIAL": "CONE FACTORING LTDA", "RESPONSAVEL": "CARLOSHENRIQUEBARROSGONCALVES|NEIVAAPARECIDAPEREIRAGONCALVES", "MUNICIPIO": "MACHADO", "ENDEE": "ANTONIO CARLOS, 76, CENTRO, 37750-000, MACHADO, MG, BRASIL", "BANCO": "SICOOB CREDINTER", "LINHA_AVAL_NOME": "EMPREENDEDORISMO FEM", "LATITUDE": "-21.6759777", "LONGITUDE": "-45.9223236", "STATUS_OPERACIONAL": "CARTEIRA", "STATUS": "CARTEIRA", "field_14": null, "field_15": null, "field_16": null }, "geometry": { "type": "Point", "coordinates": [ -45.9223236, -21.6759777 ] } },
{ "type": "Feature", "properties": { "NROCNPJ_PAD": "07282326000106", "STATUS_MAILING": "EMPRESA ELEGÍVEL ONLINE SEM SUCESSO NO CONTATO TELEFÔNICO/EMPRESA ELEGÍVEL PRESENCIAL NÃO VISITADA", "NOME_FANTASIA": "PONTO COM INFORMATICA DE MACHADO", "RAZAO_SOCIAL": "G. B. LUMINARIAS E PRESTACAO DE SERVICOS LTDA", "RESPONSAVEL": "GIOVANI RABELO BEGALI", "MUNICIPIO": "MACHADO", "ENDEE": "CORONEL JOSE PAULINO, 268, CENTRO, 37750-000, MACHADO, MG, BRASIL", "BANCO": "BDMG", "LINHA_AVAL_NOME": "CRÉDITO EMERGENCIAL", "LATITUDE": "-21.676006", "LONGITUDE": "-45.921267", "STATUS_OPERACIONAL": "CARTEIRA", "STATUS": "CARTEIRA", "field_14": null, "field_15": null, "field_16": null }, "geometry": { "type": "Point", "coordinates": [ -45.921267, -21.676006 ] } },
{ "type": "Feature", "properties": { "NROCNPJ_PAD": "02807879000103", "STATUS_MAILING": "EMPRESA ELEGÍVEL ONLINE SEM SUCESSO NO CONTATO TELEFÔNICO/EMPRESA ELEGÍVEL PRESENCIAL NÃO VISITADA", "NOME_FANTASIA": null, "RAZAO_SOCIAL": "DERNIVAL GOULART DOS SANTOS", "RESPONSAVEL": "DERNIVALGOULARTDOSSANTOS", "MUNICIPIO": "MACHADO", "ENDEE": "SETE DE SETEMBRO, 274, CENTRO, 37750-000, MACHADO, MG, BRASIL", "BANCO": "SICOOB CREDIVAR", "LINHA_AVAL_NOME": "GIRO", "LATITUDE": "-21.6769406", "LONGITUDE": "-45.9206716", "STATUS_OPERACIONAL": "CARTEIRA", "STATUS": "CARTEIRA", "field_14": null, "field_15": null, "field_16": null }, "geometry": { "type": "Point", "coordinates": [ -45.9206716, -21.6769406 ] } },
{ "type": "Feature", "properties": { "NROCNPJ_PAD": "27166857000132", "STATUS_MAILING": "EMPRESA ELEGÍVEL ONLINE SEM SUCESSO NO CONTATO TELEFÔNICO/EMPRESA ELEGÍVEL PRESENCIAL NÃO VISITADA", "NOME_FANTASIA": "PAPELARIA SEM FRONTEIRAS", "RAZAO_SOCIAL": "NATHAN DE PAIVA DOMINGUES 13889551645", "RESPONSAVEL": "NATHANDEPAIVADOMINGUES", "MUNICIPIO": "MACHADO", "ENDEE": "Praca Rui Barbosa, 18, Centro, 37750-000, MACHADO, MG, BRASIL", "BANCO": "SICOOB CREDIVAR", "LINHA_AVAL_NOME": "GIRO", "LATITUDE": "-21.6776281", "LONGITUDE": "-45.9238827", "STATUS_OPERACIONAL": "CARTEIRA", "STATUS": "CARTEIRA", "field_14": null, "field_15": null, "field_16": null }, "geometry": { "type": "Point", "coordinates": [ -45.9238827, -21.6776281 ] } },
{ "type": "Feature", "properties": { "NROCNPJ_PAD": "30934298000178", "STATUS_MAILING": "EMPRESA ELEGÍVEL ONLINE SEM SUCESSO NO CONTATO TELEFÔNICO/EMPRESA ELEGÍVEL PRESENCIAL NÃO VISITADA", "NOME_FANTASIA": "MUNDO DA IMAGINACAO", "RAZAO_SOCIAL": "ANDREZZA MARIA DE PAIVA DOMINGUES 06608532644", "RESPONSAVEL": "ANDREZZAMARIADEPAIVADOMINGUES", "MUNICIPIO": "MACHADO", "ENDEE": "PRACA RUI BARBOSA, 36B, CENTRO, 37750-000, MACHADO, MG, BRASIL", "BANCO": "SICOOB CREDIVAR", "LINHA_AVAL_NOME": "EMPREENDEDORISMO FEM", "LATITUDE": "-21.6778737", "LONGITUDE": "-45.9237307", "STATUS_OPERACIONAL": "CARTEIRA", "STATUS": "CARTEIRA", "field_14": null, "field_15": null, "field_16": null }, "geometry": { "type": "Point", "coordinates": [ -45.9237307, -21.6778737 ] } },
{ "type": "Feature", "properties": { "NROCNPJ_PAD": "19424175000154", "STATUS_MAILING": "EMPRESA ELEGÍVEL ONLINE SEM SUCESSO NO CONTATO TELEFÔNICO/EMPRESA ELEGÍVEL PRESENCIAL NÃO VISITADA", "NOME_FANTASIA": "SUPERMERCADO CAIANA", "RAZAO_SOCIAL": "SUPERMERCADO CAIANA LTDA", "RESPONSAVEL": "CLOVES CANDIDO ALVES|GILDEVANROCHADESOUSA|VALERIAMARIADOMINGUESDESOUSA", "MUNICIPIO": "MACHADO", "ENDEE": "JOAQUIM DE SOUZA, 00106, CAIANA, 37750-000, MACHADO, MG, BRASIL", "BANCO": "SICOOB CREDIVAR", "LINHA_AVAL_NOME": "GIRO", "LATITUDE": "-21.6780719", "LONGITUDE": "-45.9213044", "STATUS_OPERACIONAL": "CARTEIRA", "STATUS": "CARTEIRA", "field_14": null, "field_15": null, "field_16": null }, "geometry": { "type": "Point", "coordinates": [ -45.9213044, -21.6780719 ] } },
{ "type": "Feature", "properties": { "NROCNPJ_PAD": "05121347000106", "STATUS_MAILING": "EMPRESA ELEGÍVEL ONLINE SEM SUCESSO NO CONTATO TELEFÔNICO/EMPRESA ELEGÍVEL PRESENCIAL NÃO VISITADA", "NOME_FANTASIA": "CANTO E ENCANTO", "RAZAO_SOCIAL": "NEIVA DA SILVA SERAFINI & CIA LTDA", "RESPONSAVEL": "JOAO BATISTA DA SILVA FILHO|NEIVA DA SILVA SERAFINI", "MUNICIPIO": "MACHADO", "ENDEE": "DOM HUGO, 402, CENTRO, 37750-000, MACHADO, MG, BRASIL", "BANCO": "SICREDI UNIESTADOS", "LINHA_AVAL_NOME": "EMPREENDEDORISMO FEM", "LATITUDE": "-21.6781356", "LONGITUDE": "-45.9209316", "STATUS_OPERACIONAL": "CARTEIRA", "STATUS": "CARTEIRA", "field_14": null, "field_15": null, "field_16": null }, "geometry": { "type": "Point", "coordinates": [ -45.9209316, -21.6781356 ] } },
{ "type": "Feature", "properties": { "NROCNPJ_PAD": "43511403000108", "STATUS_MAILING": "EMPRESA ELEGÍVEL ONLINE SEM SUCESSO NO CONTATO TELEFÔNICO/EMPRESA ELEGÍVEL PRESENCIAL NÃO VISITADA", "NOME_FANTASIA": "TATIANA SAMARA DA SILVA MENDES", "RAZAO_SOCIAL": "43.511.403 TATIANA SAMARA DA SILVA MENDES", "RESPONSAVEL": "TATIANA SAMARA DA SILVA MENDES", "MUNICIPIO": "MACHADO", "ENDEE": "ARTUR BERNARDES, 603, CENTRO, 37750-000, MACHADO, MG, BRASIL", "BANCO": "SICREDI UNIESTADOS", "LINHA_AVAL_NOME": "EMPREENDEDORISMO FEM", "LATITUDE": "-21.6781721", "LONGITUDE": "-45.9161574", "STATUS_OPERACIONAL": "CARTEIRA", "STATUS": "CARTEIRA", "field_14": null, "field_15": null, "field_16": null }, "geometry": { "type": "Point", "coordinates": [ -45.9161574, -21.6781721 ] } },
{ "type": "Feature", "properties": { "NROCNPJ_PAD": "12548120000107", "STATUS_MAILING": "EMPRESA ELEGÍVEL ONLINE SEM SUCESSO NO CONTATO TELEFÔNICO/EMPRESA ELEGÍVEL PRESENCIAL NÃO VISITADA", "NOME_FANTASIA": null, "RAZAO_SOCIAL": "ANA PAULA FERREIRA 04030461654", "RESPONSAVEL": "ANAPAULAFERREIRA", "MUNICIPIO": "MACHADO", "ENDEE": "DOM HUGO, 422, CENTRO, 37750-000, MACHADO, MG, BRASIL", "BANCO": "SICOOB CREDIVAR", "LINHA_AVAL_NOME": "GIRO", "LATITUDE": "-21.6781743", "LONGITUDE": "-45.9210322", "STATUS_OPERACIONAL": "CARTEIRA", "STATUS": "CARTEIRA", "field_14": null, "field_15": null, "field_16": null }, "geometry": { "type": "Point", "coordinates": [ -45.9210322, -21.6781743 ] } },
{ "type": "Feature", "properties": { "NROCNPJ_PAD": "30772864000192", "STATUS_MAILING": "EMPRESA ELEGÍVEL ONLINE SEM SUCESSO NO CONTATO TELEFÔNICO/EMPRESA ELEGÍVEL PRESENCIAL NÃO VISITADA", "NOME_FANTASIA": "INOVE STUDIO TREINAMENTO PERSONALIZADO", "RAZAO_SOCIAL": "DAIANE FERREIRA DA SILVA 12099625603", "RESPONSAVEL": "DAIANE FERREIRA DA SILVA", "MUNICIPIO": "MACHADO", "ENDEE": "ARTUR BERNARDES, 617, CENTRO, 37750-000, MACHADO, MG, BRASIL", "BANCO": "SICREDI UNIESTADOS", "LINHA_AVAL_NOME": "EMPREENDEDORISMO FEM", "LATITUDE": "-21.678383", "LONGITUDE": "-45.9160051", "STATUS_OPERACIONAL": "CARTEIRA", "STATUS": "CARTEIRA", "field_14": null, "field_15": null, "field_16": null }, "geometry": { "type": "Point", "coordinates": [ -45.9160051, -21.678383 ] } },
{ "type": "Feature", "properties": { "NROCNPJ_PAD": "48733251000101", "STATUS_MAILING": "EMPRESA ELEGÍVEL ONLINE SEM SUCESSO NO CONTATO TELEFÔNICO/EMPRESA ELEGÍVEL PRESENCIAL NÃO VISITADA", "NOME_FANTASIA": "TRATORMAQ", "RAZAO_SOCIAL": "RAIMUNDO DOS SANTOS PECAS E EQUIPAMENTOS", "RESPONSAVEL": "RAIMUNDO DOS SANTOS", "MUNICIPIO": "MACHADO", "ENDEE": "CORONEL FRANCISCO VIEIRA, 645, CENTRO, 37750-000, MACHADO, MG, BRASIL", "BANCO": "SICREDI UNIESTADOS", "LINHA_AVAL_NOME": "GIRO", "LATITUDE": "-21.6791438", "LONGITUDE": "-45.916384", "STATUS_OPERACIONAL": "CARTEIRA", "STATUS": "CARTEIRA", "field_14": null, "field_15": null, "field_16": null }, "geometry": { "type": "Point", "coordinates": [ -45.916384, -21.6791438 ] } },
{ "type": "Feature", "properties": { "NROCNPJ_PAD": "21920996000123", "STATUS_MAILING": "EMPRESA ELEGÍVEL ONLINE SEM SUCESSO NO CONTATO TELEFÔNICO/EMPRESA ELEGÍVEL PRESENCIAL NÃO VISITADA", "NOME_FANTASIA": "SCHEITIMA", "RAZAO_SOCIAL": "MARIA DE FATIMA DE JESUS GRACIANO", "RESPONSAVEL": "MARIA DE FATIMA DE JESUS GRACIANO PAULA", "MUNICIPIO": "MACHADO", "ENDEE": "DR RENATO AZEREDO, 647, VARGEM DO RIO, 37750-000, MACHADO, MG, BRASIL", "BANCO": "SICREDI UNIESTADOS", "LINHA_AVAL_NOME": "EMPREENDEDORISMO FEM", "LATITUDE": "-21.6795129", "LONGITUDE": "-45.9135551", "STATUS_OPERACIONAL": "CARTEIRA", "STATUS": "CARTEIRA", "field_14": null, "field_15": null, "field_16": null }, "geometry": { "type": "Point", "coordinates": [ -45.9135551, -21.6795129 ] } },
{ "type": "Feature", "properties": { "NROCNPJ_PAD": "17379749000194", "STATUS_MAILING": "EMPRESA ELEGÍVEL ONLINE SEM SUCESSO NO CONTATO TELEFÔNICO/EMPRESA ELEGÍVEL PRESENCIAL NÃO VISITADA", "NOME_FANTASIA": "PAPELARIA MARAJA", "RAZAO_SOCIAL": "PAULO HENRIQUE FERREIRA", "RESPONSAVEL": "LILIANAPARECIDADASILVAOLIVEIRAFERREIRA|PAULOHENRIQUEFERREIRA", "MUNICIPIO": "MACHADO", "ENDEE": "ARTUR BERNARDES, 760, CENTRO, 37750-000, MACHADO, MG, BRASIL", "BANCO": "SICOOB CREDIVAR", "LINHA_AVAL_NOME": "GIRO", "LATITUDE": "-21.6795902", "LONGITUDE": "-45.9153997", "STATUS_OPERACIONAL": "CARTEIRA", "STATUS": "CARTEIRA", "field_14": null, "field_15": null, "field_16": null }, "geometry": { "type": "Point", "coordinates": [ -45.9153997, -21.6795902 ] } },
{ "type": "Feature", "properties": { "NROCNPJ_PAD": "30980521000113", "STATUS_MAILING": "EMPRESA ELEGÍVEL ONLINE SEM SUCESSO NO CONTATO TELEFÔNICO/EMPRESA ELEGÍVEL PRESENCIAL NÃO VISITADA", "NOME_FANTASIA": "MARMORARIA SANTOS", "RAZAO_SOCIAL": "ALEXANDRE RODRIGUES DOS SANTOS MARMORARIA E VIDRACARIA", "RESPONSAVEL": "ALEXANDRERODRIGUESDOSSANTOS", "MUNICIPIO": "MACHADO", "ENDEE": "EURANAFE, SN, MATO DENTRO, 37750-000, MACHADO, MG, BRASIL", "BANCO": "SICOOB CREDIVAR", "LINHA_AVAL_NOME": "GIRO", "LATITUDE": "-21.6803986", "LONGITUDE": "-45.919", "STATUS_OPERACIONAL": "CARTEIRA", "STATUS": "CARTEIRA", "field_14": null, "field_15": null, "field_16": null }, "geometry": { "type": "Point", "coordinates": [ -45.919, -21.6803986 ] } },
{ "type": "Feature", "properties": { "NROCNPJ_PAD": "47286456000123", "STATUS_MAILING": "EMPRESA ELEGÍVEL ONLINE SEM SUCESSO NO CONTATO TELEFÔNICO/EMPRESA ELEGÍVEL PRESENCIAL NÃO VISITADA", "NOME_FANTASIA": "CAROLINA MARIA MORAES FREITAS", "RAZAO_SOCIAL": "CAROLINA MARIA MORAES FREITAS 10937888605", "RESPONSAVEL": "CAROLINA MARIA MORAES FREITAS", "MUNICIPIO": "MACHADO", "ENDEE": "OUVIDOR  18, 9999 S, AREA RURAL, 37750-000, MACHADO, MG, BRASIL", "BANCO": "SICREDI UNIESTADOS", "LINHA_AVAL_NOME": "EMPREENDEDORISMO FEM", "LATITUDE": "-21.6803986", "LONGITUDE": "-45.919", "STATUS_OPERACIONAL": "CARTEIRA", "STATUS": "CARTEIRA", "field_14": null, "field_15": null, "field_16": null }, "geometry": { "type": "Point", "coordinates": [ -45.919, -21.6803986 ] } },
{ "type": "Feature", "properties": { "NROCNPJ_PAD": "21064294000195", "STATUS_MAILING": "EMPRESA ELEGÍVEL ONLINE SEM SUCESSO NO CONTATO TELEFÔNICO/EMPRESA ELEGÍVEL PRESENCIAL NÃO VISITADA", "NOME_FANTASIA": null, "RAZAO_SOCIAL": "GISELE NEVES MARTINS CONSULTORIO MEDICO LTDA", "RESPONSAVEL": "GISELE NEVES MARTINS", "MUNICIPIO": "MACHADO", "ENDEE": "ARTUR XAVIER PEDROSO, 428, CENTRO, 37750-000, MACHADO, MG, BRASIL", "BANCO": "SICREDI UNIESTADOS", "LINHA_AVAL_NOME": "EMPREENDEDORISMO FEM", "LATITUDE": "-21.6806891", "LONGITUDE": "-45.9188759", "STATUS_OPERACIONAL": "CARTEIRA", "STATUS": "CARTEIRA", "field_14": null, "field_15": null, "field_16": null }, "geometry": { "type": "Point", "coordinates": [ -45.9188759, -21.6806891 ] } },
{ "type": "Feature", "properties": { "NROCNPJ_PAD": "04294074000139", "STATUS_MAILING": "EMPRESA ELEGÍVEL ONLINE SEM SUCESSO NO CONTATO TELEFÔNICO/EMPRESA ELEGÍVEL PRESENCIAL NÃO VISITADA", "NOME_FANTASIA": null, "RAZAO_SOCIAL": "OPA EQUIPAMENTOS CONTRA INCENDIO E SEGURANCA LTDA", "RESPONSAVEL": "JULIANADEPAIVAALONSO|ODENIADEPAIVAALONSO|VANDERLEIJOSEALONSO", "MUNICIPIO": "MACHADO", "ENDEE": "SANTA CRUZ, 388, CENTRO, 37750-000, MACHADO, MG, BRASIL", "BANCO": "SICOOB CREDIVAR", "LINHA_AVAL_NOME": "GIRO", "LATITUDE": "-21.6808327", "LONGITUDE": "-45.9235624", "STATUS_OPERACIONAL": "CARTEIRA", "STATUS": "CARTEIRA", "field_14": null, "field_15": null, "field_16": null }, "geometry": { "type": "Point", "coordinates": [ -45.9235624, -21.6808327 ] } },
{ "type": "Feature", "properties": { "NROCNPJ_PAD": "21686567000133", "STATUS_MAILING": "EMPRESA ELEGÍVEL ONLINE SEM SUCESSO NO CONTATO TELEFÔNICO/EMPRESA ELEGÍVEL PRESENCIAL NÃO VISITADA", "NOME_FANTASIA": "ALBASS TRANSPORTADORA", "RAZAO_SOCIAL": "ALBASS TRANSPORTADORA LTDA", "RESPONSAVEL": "ALEXSANDRO BARBOSA DA SILVA|MARIA APARECIDA FERREIRA RODRIGUES", "MUNICIPIO": "MACHADO", "ENDEE": "DR. RENATO AZEREDO, 1014, PONTE DE PEDRA, 37750-000, MACHADO, MG, BRASIL", "BANCO": "BDMG", "LINHA_AVAL_NOME": "GIRO", "LATITUDE": "-21.6813995", "LONGITUDE": "-45.9111026", "STATUS_OPERACIONAL": "CARTEIRA", "STATUS": "CARTEIRA", "field_14": null, "field_15": null, "field_16": null }, "geometry": { "type": "Point", "coordinates": [ -45.9111026, -21.6813995 ] } },
{ "type": "Feature", "properties": { "NROCNPJ_PAD": "11175133000115", "STATUS_MAILING": "EMPRESA ELEGÍVEL ONLINE SEM SUCESSO NO CONTATO TELEFÔNICO/EMPRESA ELEGÍVEL PRESENCIAL NÃO VISITADA", "NOME_FANTASIA": "JAIRO PNEUS", "RAZAO_SOCIAL": "JAIRO ARISTEU DOMINGUES", "RESPONSAVEL": "JAIRO ARISTEU DOMINGUES", "MUNICIPIO": "MACHADO", "ENDEE": "DOUTOR RENATO AZEREDO, 1217, JARDIM CHAMONIX, 37750-000, MACHADO, MG, BRASIL", "BANCO": "SICREDI UNIESTADOS", "LINHA_AVAL_NOME": "GIRO", "LATITUDE": "-21.6823668", "LONGITUDE": "-45.9088268", "STATUS_OPERACIONAL": "CARTEIRA", "STATUS": "CARTEIRA", "field_14": null, "field_15": null, "field_16": null }, "geometry": { "type": "Point", "coordinates": [ -45.9088268, -21.6823668 ] } },
{ "type": "Feature", "properties": { "NROCNPJ_PAD": "02936230000192", "STATUS_MAILING": "EMPRESA ELEGÍVEL ONLINE SEM SUCESSO NO CONTATO TELEFÔNICO/EMPRESA ELEGÍVEL PRESENCIAL NÃO VISITADA", "NOME_FANTASIA": "ICARO CONFECCOES", "RAZAO_SOCIAL": "LEILA CANDIDA XAVIER", "RESPONSAVEL": "-", "MUNICIPIO": "MACHADO", "ENDEE": "DR. RENATO AZEREDO, 1200, VARGEM DO RIO, 37750-000, MACHADO, MG, BRASIL", "BANCO": "-", "LINHA_AVAL_NOME": "EMPREENDEDORISMO FEM", "LATITUDE": "-21.682381", "LONGITUDE": "-45.9092444", "STATUS_OPERACIONAL": "CARTEIRA", "STATUS": "CARTEIRA", "field_14": null, "field_15": null, "field_16": null }, "geometry": { "type": "Point", "coordinates": [ -45.9092444, -21.682381 ] } },
{ "type": "Feature", "properties": { "NROCNPJ_PAD": "49519199000158", "STATUS_MAILING": "EMPRESA ELEGÍVEL ONLINE SEM SUCESSO NO CONTATO TELEFÔNICO/EMPRESA ELEGÍVEL PRESENCIAL NÃO VISITADA", "NOME_FANTASIA": null, "RAZAO_SOCIAL": "49.519.199 DIOGO FERREIRA COSTA", "RESPONSAVEL": "DIOGO FERREIRA COSTA", "MUNICIPIO": "MACHADO", "ENDEE": "CACHOEIRINHA, 0, ZONA RURAL, 37750-000, MACHADO, MG, BRASIL", "BANCO": "SICREDI UNIESTADOS", "LINHA_AVAL_NOME": "GIRO", "LATITUDE": "-21.6824317", "LONGITUDE": "-45.9075623", "STATUS_OPERACIONAL": "CARTEIRA", "STATUS": "CARTEIRA", "field_14": null, "field_15": null, "field_16": null }, "geometry": { "type": "Point", "coordinates": [ -45.9075623, -21.6824317 ] } },
{ "type": "Feature", "properties": { "NROCNPJ_PAD": "57552496000123", "STATUS_MAILING": "EMPRESA ELEGÍVEL ONLINE SEM SUCESSO NO CONTATO TELEFÔNICO/EMPRESA ELEGÍVEL PRESENCIAL NÃO VISITADA", "NOME_FANTASIA": null, "RAZAO_SOCIAL": "RIZZOFERREIRA REPRESENTACOES LTDA", "RESPONSAVEL": "MATHEUS FERREIRA RIZZO", "MUNICIPIO": "MACHADO", "ENDEE": "DAS PERDIZES, 215, VILA CENTENARIO, 37750-000, MACHADO, MG, BRASIL", "BANCO": "SICREDI UNIESTADOS", "LINHA_AVAL_NOME": "GIRO", "LATITUDE": "-21.6838549", "LONGITUDE": "-45.9194204", "STATUS_OPERACIONAL": "CARTEIRA", "STATUS": "CARTEIRA", "field_14": null, "field_15": null, "field_16": null }, "geometry": { "type": "Point", "coordinates": [ -45.9194204, -21.6838549 ] } },
{ "type": "Feature", "properties": { "NROCNPJ_PAD": "09457354000134", "STATUS_MAILING": "EMPRESA ELEGÍVEL ONLINE SEM SUCESSO NO CONTATO TELEFÔNICO/EMPRESA ELEGÍVEL PRESENCIAL NÃO VISITADA", "NOME_FANTASIA": "HAMILTON IMOVEIS", "RAZAO_SOCIAL": "HAMILTON EMPREENDIMENTOS IMOBILIARIOS LTDA", "RESPONSAVEL": "HAMILTON DE PAIVA MAGALHAES|TULIO BRAGA MAGALHAES", "MUNICIPIO": "MACHADO", "ENDEE": "ANTONIO CANDIDO, 14, CENTRO, 37750-000, MACHADO, MG, BRASIL", "BANCO": "BDMG", "LINHA_AVAL_NOME": "CRÉDITO EMERGENCIAL", "LATITUDE": "-21.6838567", "LONGITUDE": "-45.9062438", "STATUS_OPERACIONAL": "CARTEIRA", "STATUS": "CARTEIRA", "field_14": null, "field_15": null, "field_16": null }, "geometry": { "type": "Point", "coordinates": [ -45.9062438, -21.6838567 ] } },
{ "type": "Feature", "properties": { "NROCNPJ_PAD": "26579051000103", "STATUS_MAILING": "EMPRESA ELEGÍVEL ONLINE SEM SUCESSO NO CONTATO TELEFÔNICO/EMPRESA ELEGÍVEL PRESENCIAL NÃO VISITADA", "NOME_FANTASIA": "TAPECARIA KAIO TRES IRMAOS", "RAZAO_SOCIAL": "CARLOS ROBERTO PINTO", "RESPONSAVEL": "CARLOS ROBERTO PINTO", "MUNICIPIO": "MACHADO", "ENDEE": "MOZART DA SILVA PINTO, 158, JARDIM CHAMONIX, 37750-000, MACHADO, MG, BRASIL", "BANCO": "SICREDI UNIESTADOS", "LINHA_AVAL_NOME": "GIRO", "LATITUDE": "-21.6840691", "LONGITUDE": "-45.907825", "STATUS_OPERACIONAL": "CARTEIRA", "STATUS": "CARTEIRA", "field_14": null, "field_15": null, "field_16": null }, "geometry": { "type": "Point", "coordinates": [ -45.907825, -21.6840691 ] } },
{ "type": "Feature", "properties": { "NROCNPJ_PAD": "01195038000120", "STATUS_MAILING": "EMPRESA ELEGÍVEL ONLINE SEM SUCESSO NO CONTATO TELEFÔNICO/EMPRESA ELEGÍVEL PRESENCIAL NÃO VISITADA", "NOME_FANTASIA": "CANTINA DCIDA", "RAZAO_SOCIAL": "MARIA APARECIDA VILAS BOAS - CPF- 764.342.656-20", "RESPONSAVEL": "MARIAAPARECIDAVILASBOAS", "MUNICIPIO": "MACHADO", "ENDEE": "SAO JOAO DEL REI, 86, PONTE DE PEDRA, 37750-000, MACHADO, MG, BRASIL", "BANCO": "SICOOB CREDIVAR", "LINHA_AVAL_NOME": "EMPREENDEDORISMO FEM", "LATITUDE": "-21.684104", "LONGITUDE": "-45.9080643", "STATUS_OPERACIONAL": "CARTEIRA", "STATUS": "CARTEIRA", "field_14": null, "field_15": null, "field_16": null }, "geometry": { "type": "Point", "coordinates": [ -45.9080643, -21.684104 ] } },
{ "type": "Feature", "properties": { "NROCNPJ_PAD": "13092326000138", "STATUS_MAILING": "EMPRESA ELEGÍVEL ONLINE SEM SUCESSO NO CONTATO TELEFÔNICO/EMPRESA ELEGÍVEL PRESENCIAL NÃO VISITADA", "NOME_FANTASIA": null, "RAZAO_SOCIAL": "SERRALHERIA & CONTRUCOES LINO LTDA", "RESPONSAVEL": "MARCOSLINO", "MUNICIPIO": "MACHADO", "ENDEE": "CRISTO REI, 113, JARDIM DAS OLIVEIRAS, 37750-000, MACHADO, MG, BRASIL", "BANCO": "SICOOB CREDIVAR", "LINHA_AVAL_NOME": "CRÉDITO EMERGENCIAL", "LATITUDE": "-21.6880383", "LONGITUDE": "-45.9193314", "STATUS_OPERACIONAL": "CARTEIRA", "STATUS": "CARTEIRA", "field_14": null, "field_15": null, "field_16": null }, "geometry": { "type": "Point", "coordinates": [ -45.9193314, -21.6880383 ] } },
{ "type": "Feature", "properties": { "NROCNPJ_PAD": "86595998000130", "STATUS_MAILING": "EMPRESA ELEGÍVEL ONLINE SEM SUCESSO NO CONTATO TELEFÔNICO/EMPRESA ELEGÍVEL PRESENCIAL NÃO VISITADA", "NOME_FANTASIA": "DA TERRA", "RAZAO_SOCIAL": "ARISTIDES PEREIRA DE CARVALHO JUNIOR", "RESPONSAVEL": "ARISTIDESPEREIRADECARVALHOJUNIOR", "MUNICIPIO": "MACHADO", "ENDEE": "FRANCISCO VIEIRA GUERRA, 80, JARDIM DAS OLIVEIRAS, 37750-000, MACHADO, MG, BRASIL", "BANCO": "SICOOB CREDIVAR", "LINHA_AVAL_NOME": "GIRO", "LATITUDE": "-21.6882312", "LONGITUDE": "-45.9207825", "STATUS_OPERACIONAL": "CARTEIRA", "STATUS": "CARTEIRA", "field_14": null, "field_15": null, "field_16": null }, "geometry": { "type": "Point", "coordinates": [ -45.9207825, -21.6882312 ] } },
{ "type": "Feature", "properties": { "NROCNPJ_PAD": "86641370000123", "STATUS_MAILING": "EMPRESA ELEGÍVEL ONLINE SEM SUCESSO NO CONTATO TELEFÔNICO/EMPRESA ELEGÍVEL PRESENCIAL NÃO VISITADA", "NOME_FANTASIA": null, "RAZAO_SOCIAL": "AUTO ELETRICA ZE PREGO E COMERCIO LTDA", "RESPONSAVEL": "ELZAMARIADECARVALHORODRIGUESBACCOLI|PAULOSERGIOBACCOLI", "MUNICIPIO": "MACHADO", "ENDEE": "ELPIDIO DE SOUZA LIMA, 102, OURO VERDE, 37750-000, MACHADO, MG, BRASIL", "BANCO": "SICOOB CREDIVAR", "LINHA_AVAL_NOME": "CRÉDITO EMERGENCIAL", "LATITUDE": "-21.6904161", "LONGITUDE": "-45.9136927", "STATUS_OPERACIONAL": "CARTEIRA", "STATUS": "CARTEIRA", "field_14": null, "field_15": null, "field_16": null }, "geometry": { "type": "Point", "coordinates": [ -45.9136927, -21.6904161 ] } },
{ "type": "Feature", "properties": { "NROCNPJ_PAD": "02947069000152", "STATUS_MAILING": "EMPRESA ELEGÍVEL ONLINE SEM SUCESSO NO CONTATO TELEFÔNICO/EMPRESA ELEGÍVEL PRESENCIAL NÃO VISITADA", "NOME_FANTASIA": "MARCOS ROGERIO DE OLIVEIRA", "RAZAO_SOCIAL": "MARCOS ROGERIO DE OLIVEIRA", "RESPONSAVEL": "MARCOSROGERIODEOLIVEIRA", "MUNICIPIO": "MACHADO", "ENDEE": "FRANCISCO CARVALHO DIAS, 400, SANTO ANTONIO, 37750-000, MACHADO, MG, BRASIL", "BANCO": "SICOOB CREDIVAR", "LINHA_AVAL_NOME": "GIRO", "LATITUDE": "-21.6905472", "LONGITUDE": "-45.9027495", "STATUS_OPERACIONAL": "CARTEIRA", "STATUS": "CARTEIRA", "field_14": null, "field_15": null, "field_16": null }, "geometry": { "type": "Point", "coordinates": [ -45.9027495, -21.6905472 ] } },
{ "type": "Feature", "properties": { "NROCNPJ_PAD": "14697382000169", "STATUS_MAILING": "EMPRESA ELEGÍVEL ONLINE SEM SUCESSO NO CONTATO TELEFÔNICO/EMPRESA ELEGÍVEL PRESENCIAL NÃO VISITADA", "NOME_FANTASIA": "SILAS GAS", "RAZAO_SOCIAL": "SILAS GONCALVES", "RESPONSAVEL": "SILAS GONCALVES", "MUNICIPIO": "MACHADO", "ENDEE": "SAO MATEUS, 430, JARDIM DAS OLIVEIRAS, 37750-000, MACHADO, MG, BRASIL", "BANCO": "BDMG", "LINHA_AVAL_NOME": "CRÉDITO EMERGENCIAL", "LATITUDE": "-21.6912759", "LONGITUDE": "-45.9188149", "STATUS_OPERACIONAL": "CARTEIRA", "STATUS": "CARTEIRA", "field_14": null, "field_15": null, "field_16": null }, "geometry": { "type": "Point", "coordinates": [ -45.9188149, -21.6912759 ] } },
{ "type": "Feature", "properties": { "NROCNPJ_PAD": "55988829000136", "STATUS_MAILING": "EMPRESA ELEGÍVEL ONLINE SEM SUCESSO NO CONTATO TELEFÔNICO/EMPRESA ELEGÍVEL PRESENCIAL NÃO VISITADA", "NOME_FANTASIA": null, "RAZAO_SOCIAL": "55.988.829 JEFERSON LUZ OLIVEIRA", "RESPONSAVEL": "JEFERSONLUZOLIVEIRA", "MUNICIPIO": "MACHADO", "ENDEE": "LUIZ CARLOS CONTE NEVES, 82, JARDIM DAS OLIVEIRAS, 37750-000, MACHADO, MG, BRASIL", "BANCO": "SICOOB CREDIVAR", "LINHA_AVAL_NOME": "GIRO", "LATITUDE": "-21.6914644", "LONGITUDE": "-45.914971", "STATUS_OPERACIONAL": "CARTEIRA", "STATUS": "CARTEIRA", "field_14": null, "field_15": null, "field_16": null }, "geometry": { "type": "Point", "coordinates": [ -45.914971, -21.6914644 ] } },
{ "type": "Feature", "properties": { "NROCNPJ_PAD": "14907165000156", "STATUS_MAILING": "EMPRESA ELEGÍVEL ONLINE SEM SUCESSO NO CONTATO TELEFÔNICO/EMPRESA ELEGÍVEL PRESENCIAL NÃO VISITADA", "NOME_FANTASIA": "ANDERSON SOUZA PRODUCOES E EVENTOS", "RAZAO_SOCIAL": "ANDERSON DE SOUZA VIEIRA", "RESPONSAVEL": "-", "MUNICIPIO": "MACHADO", "ENDEE": "BELO HORIZONTE, 214, JARDIM NOVA MACHADO, 37750-000, MACHADO, MG, BRASIL", "BANCO": "-", "LINHA_AVAL_NOME": "GIRO", "LATITUDE": "-21.6929409", "LONGITUDE": "-45.9214956", "STATUS_OPERACIONAL": "CARTEIRA", "STATUS": "CARTEIRA", "field_14": null, "field_15": null, "field_16": null }, "geometry": { "type": "Point", "coordinates": [ -45.9214956, -21.6929409 ] } },
{ "type": "Feature", "properties": { "NROCNPJ_PAD": "43389596000176", "STATUS_MAILING": "EMPRESA ELEGÍVEL ONLINE SEM SUCESSO NO CONTATO TELEFÔNICO/EMPRESA ELEGÍVEL PRESENCIAL NÃO VISITADA", "NOME_FANTASIA": "EA", "RAZAO_SOCIAL": "ELEN ALMEIDA ALVES DE SOUZA 14995155619", "RESPONSAVEL": "ELEN ALMEIDA ALVES DE SOUZA", "MUNICIPIO": "MACHADO", "ENDEE": "LIDIO LEITE, 85, JARDIM DAS OLIVEIRAS, 37750-000, MACHADO, MG, BRASIL", "BANCO": "SICREDI UNIESTADOS", "LINHA_AVAL_NOME": "EMPREENDEDORISMO FEM", "LATITUDE": "-21.6941086", "LONGITUDE": "-45.9191666", "STATUS_OPERACIONAL": "CARTEIRA", "STATUS": "CARTEIRA", "field_14": null, "field_15": null, "field_16": null }, "geometry": { "type": "Point", "coordinates": [ -45.9191666, -21.6941086 ] } },
{ "type": "Feature", "properties": { "NROCNPJ_PAD": "26221934000147", "STATUS_MAILING": "EMPRESA ELEGÍVEL ONLINE SEM SUCESSO NO CONTATO TELEFÔNICO/EMPRESA ELEGÍVEL PRESENCIAL NÃO VISITADA", "NOME_FANTASIA": "TAPECARIA MACHADO PONTO DE FABRICA", "RAZAO_SOCIAL": "JOCINEY TORRES SOARES 05011866629", "RESPONSAVEL": "JOCINEYTORRESSOARES", "MUNICIPIO": "MACHADO", "ENDEE": "BRASILIA, 297, JARDIM NOVA MACHADO, 37750-000, MACHADO, MG, BRASIL", "BANCO": "SICOOB CREDIVAR", "LINHA_AVAL_NOME": "GIRO", "LATITUDE": "-21.6958014", "LONGITUDE": "-45.9227395", "STATUS_OPERACIONAL": "CARTEIRA", "STATUS": "CARTEIRA", "field_14": null, "field_15": null, "field_16": null }, "geometry": { "type": "Point", "coordinates": [ -45.9227395, -21.6958014 ] } },
{ "type": "Feature", "properties": { "NROCNPJ_PAD": "04543117000172", "STATUS_MAILING": "EMPRESA ELEGÍVEL ONLINE SEM SUCESSO NO CONTATO TELEFÔNICO/EMPRESA ELEGÍVEL PRESENCIAL NÃO VISITADA", "NOME_FANTASIA": null, "RAZAO_SOCIAL": "CELIA BENEDITA DO LAGO & CIA LTDA", "RESPONSAVEL": "ALINELAGOLUZ|CELIABENEDITADOLAGO", "MUNICIPIO": "MACHADO", "ENDEE": "BR 267, S/N, CHAC SAO JUDAS TADEU, 37750-000, MACHADO, MG, BRASIL", "BANCO": "SICOOB AGROCREDI", "LINHA_AVAL_NOME": "GIRO", "LATITUDE": "-21.7194488", "LONGITUDE": "-45.8982441", "STATUS_OPERACIONAL": "CARTEIRA", "STATUS": "CARTEIRA", "field_14": null, "field_15": null, "field_16": null }, "geometry": { "type": "Point", "coordinates": [ -45.8982441, -21.7194488 ] } },
{ "type": "Feature", "properties": { "NROCNPJ_PAD": "64657896000169", "STATUS_MAILING": "EMPRESA ELEGÍVEL ONLINE NÃO TRABALHADA NO CONTATO TELEFÔNICO/EMPRESA ELEGÍVEL PRESENCIAL NÃO VISITADA", "NOME_FANTASIA": "-", "RAZAO_SOCIAL": "64.657.896 GABRIEL PEREIRA CAIXETA JUNIOR", "RESPONSAVEL": "GABRIEL PEREIRA CAIXETA JUNIOR", "MUNICIPIO": "MACHADO", "ENDEE": "RUA JOAO ANTONIO DA COSTA, 77, CENTRO, 37750-000, MACHADO, MG, BRASIL", "BANCO": "SICREDI 2", "LINHA_AVAL_NOME": "Giro", "LATITUDE": "-21.6803986", "LONGITUDE": "-45.919", "STATUS_OPERACIONAL": "CARTEIRA", "STATUS": "CARTEIRA", "field_14": null, "field_15": null, "field_16": null }, "geometry": { "type": "Point", "coordinates": [ -45.919, -21.6803986 ] } },
{ "type": "Feature", "properties": { "NROCNPJ_PAD": "66545719000116", "STATUS_MAILING": "EMPRESA ELEGÍVEL ONLINE NÃO TRABALHADA NO CONTATO TELEFÔNICO/EMPRESA ELEGÍVEL PRESENCIAL NÃO VISITADA", "NOME_FANTASIA": "-", "RAZAO_SOCIAL": "GDN COMERCIO E TRANSPORTE DE PNEUS LTDA", "RESPONSAVEL": "DAYANE CLOTILDE ILDEFONSO MARQUES|GASPAR DA SILVA MARQUES", "MUNICIPIO": "MACHADO", "ENDEE": "RUA SAO PEDRO, 288, JARDIM DAS OLIVEIRAS, 37750-000, MACHADO, MG, BRASIL", "BANCO": "SICREDI 2", "LINHA_AVAL_NOME": "Giro", "LATITUDE": "-21.6931607", "LONGITUDE": "-45.9163039", "STATUS_OPERACIONAL": "CARTEIRA", "STATUS": "CARTEIRA", "field_14": null, "field_15": null, "field_16": null }, "geometry": { "type": "Point", "coordinates": [ -45.9163039, -21.6931607 ] } },
{ "type": "Feature", "properties": { "NROCNPJ_PAD": "34258942000196", "STATUS_MAILING": "EMPRESA ELEGÍVEL ONLINE NÃO TRABALHADA NO CONTATO TELEFÔNICO/EMPRESA ELEGÍVEL PRESENCIAL NÃO VISITADA", "NOME_FANTASIA": "CRL TABACARIA", "RAZAO_SOCIAL": "34.258.942 CARLOS ROBERTO LAUDINO", "RESPONSAVEL": "CARLOS ROBERTO LAUDINO", "MUNICIPIO": "MACHADO", "ENDEE": "RUA IRMAS CONCEPCIONSTAS, 209, VILA DO CEU, 37750-000, MACHADO, MG, BRASIL", "BANCO": "SICREDI 2", "LINHA_AVAL_NOME": "Giro", "LATITUDE": "-21.6820321", "LONGITUDE": "-45.9175897", "STATUS_OPERACIONAL": "CARTEIRA", "STATUS": "CARTEIRA", "field_14": null, "field_15": null, "field_16": null }, "geometry": { "type": "Point", "coordinates": [ -45.9175897, -21.6820321 ] } },
{ "type": "Feature", "properties": { "NROCNPJ_PAD": "44833477000123", "STATUS_MAILING": "EMPRESA ELEGÍVEL ONLINE NÃO TRABALHADA NO CONTATO TELEFÔNICO/EMPRESA ELEGÍVEL PRESENCIAL NÃO VISITADA", "NOME_FANTASIA": "RJF CONSTRUCAO CIVIL", "RAZAO_SOCIAL": "RJF CONSTRUCAO CIVIL LTDA", "RESPONSAVEL": "RENATOJOSEFERREIRA", "MUNICIPIO": "MACHADO", "ENDEE": "RUA MAJOR FELICIANO, 915, TERREO, CENTRO, 37750-000, MACHADO, MG, BRASIL", "BANCO": "SICOOB", "LINHA_AVAL_NOME": "Giro", "LATITUDE": "-21.6800524", "LONGITUDE": "-45.9179531", "STATUS_OPERACIONAL": "CARTEIRA", "STATUS": "CARTEIRA", "field_14": null, "field_15": null, "field_16": null }, "geometry": { "type": "Point", "coordinates": [ -45.9179531, -21.6800524 ] } },
{ "type": "Feature", "properties": { "NROCNPJ_PAD": "40544914000138", "STATUS_MAILING": "EMPRESA ELEGÍVEL ONLINE NÃO TRABALHADA NO CONTATO TELEFÔNICO/EMPRESA ELEGÍVEL PRESENCIAL NÃO VISITADA", "NOME_FANTASIA": "-", "RAZAO_SOCIAL": "40.544.914 CAIO CESAR SOUSA FERREIRA", "RESPONSAVEL": "CAIOCESARSOUSAFERREIRA", "MUNICIPIO": "MACHADO", "ENDEE": "RUA SAO JUDAS, 44, JARDIM DAS OLIVEIRAS, 37750-000, MACHADO, MG, BRASIL", "BANCO": "SICOOB", "LINHA_AVAL_NOME": "Giro", "LATITUDE": "-21.6905145", "LONGITUDE": "-45.917734", "STATUS_OPERACIONAL": "CARTEIRA", "STATUS": "CARTEIRA", "field_14": null, "field_15": null, "field_16": null }, "geometry": { "type": "Point", "coordinates": [ -45.917734, -21.6905145 ] } }
]
}
