{
"type": "FeatureCollection",
"name": "MONIQUE0710",
"crs": { "type": "name", "properties": { "name": "urn:ogc:def:crs:OGC:1.3:CRS84" } },
"features": [
{ "type": "Feature", "properties": { "NROCNPJ_PAD": "25355058000189", "NOME_FANTASIA": "GARDEN AVENIDA", "RAZAO_SOCIAL": "NATUREZA E ARTE FLORES DECORACOES E PRESENTES LTDA", "RESPONSAVEL": "CRISTINACARDOZODEMENDONCA", "MUNICIPIO": "UBERLANDIA", "BANCO": "SICOOB", "LINHA_AVAL_NOME": "EMPREENDEDORISMO FEM", "STATUS_OPERACIONAL": "APLICAR T2" }, "geometry": { "type": "Point", "coordinates": [ -48.2763992, -18.9220542 ] } },
{ "type": "Feature", "properties": { "NROCNPJ_PAD": "34974724000158", "NOME_FANTASIA": "-", "RAZAO_SOCIAL": "BATATA GOURMET RESTAURANTE E EMPORIO LTDA", "RESPONSAVEL": "-", "MUNICIPIO": "UBERLANDIA", "BANCO": "BRADESCO", "LINHA_AVAL_NOME": "-", "STATUS_OPERACIONAL": "APLICAR T2" }, "geometry": { "type": "Point", "coordinates": [ -48.2450538, -18.879418 ] } },
{ "type": "Feature", "properties": { "NROCNPJ_PAD": "11113316000106", "NOME_FANTASIA": "MERCEARIA SANTA RITA DE CASSIA", "RAZAO_SOCIAL": "11.113.316 MARCOS ANTONIO BARBOSA DA SILVA", "RESPONSAVEL": "MARCOS ANTONIO BARBOSA DA SILVA", "MUNICIPIO": "UBERLANDIA", "BANCO": "BDMG", "LINHA_AVAL_NOME": "GIRO", "STATUS_OPERACIONAL": "APLICAR T2" }, "geometry": { "type": "Point", "coordinates": [ -48.2139275, -18.9111362 ] } },
{ "type": "Feature", "properties": { "NROCNPJ_PAD": "22934912000173", "NOME_FANTASIA": "LINEA SERVICOS CONTABEIS", "RAZAO_SOCIAL": "ROMERO ANTONIO FERREIRA LEITE", "RESPONSAVEL": "ROMERO ANTONIO FERREIRA LEITE", "MUNICIPIO": "UBERLANDIA", "BANCO": "BDMG", "LINHA_AVAL_NOME": "GIRO", "STATUS_OPERACIONAL": "APLICAR T2" }, "geometry": { "type": "Point", "coordinates": [ -48.2629087, -18.9259668 ] } },
{ "type": "Feature", "properties": { "NROCNPJ_PAD": "47192072000141", "NOME_FANTASIA": "PRIORIZE ODONTOLOGIA ESPECIALIZADA", "RAZAO_SOCIAL": "PRIORIZE ODONTOLOGIA ESPECIALIZADA LTDA", "RESPONSAVEL": "RUBIAFRANCOVILELADEALMEIDA", "MUNICIPIO": "UBERLANDIA", "BANCO": "SICOOB", "LINHA_AVAL_NOME": "EMPREENDEDORISMO FEM", "STATUS_OPERACIONAL": "APLICAR T2" }, "geometry": { "type": "Point", "coordinates": [ -48.2718041, -18.9201239 ] } },
{ "type": "Feature", "properties": { "NROCNPJ_PAD": "50864649000129", "NOME_FANTASIA": "LHC TRANSPORTES", "RAZAO_SOCIAL": "LHC TRANSPORTES LTDA", "RESPONSAVEL": "BRUNODAVIDMARTINS|LEIDIENEFERREIRADASILVACOSTA|LUCIMARHONORIODACOSTA", "MUNICIPIO": "UBERLANDIA", "BANCO": "SICOOB", "LINHA_AVAL_NOME": "GIRO", "STATUS_OPERACIONAL": "APLICAR T2" }, "geometry": { "type": "Point", "coordinates": [ -48.2690249, -18.8675937 ] } },
{ "type": "Feature", "properties": { "NROCNPJ_PAD": "18799882000162", "NOME_FANTASIA": "-", "RAZAO_SOCIAL": "PROAR SISTEMAS TERMICOS LTDA", "RESPONSAVEL": "DANILOASSISAFONSO|ROSANIAFATIMADEASSISAFONSO", "MUNICIPIO": "UBERLANDIA", "BANCO": "SICOOB", "LINHA_AVAL_NOME": "GIRO", "STATUS_OPERACIONAL": "APLICAR T2" }, "geometry": { "type": "Point", "coordinates": [ -48.2663053, -18.922095 ] } },
{ "type": "Feature", "properties": { "NROCNPJ_PAD": "52710832000103", "NOME_FANTASIA": "-", "RAZAO_SOCIAL": "IGM MAGAZINE LTDA", "RESPONSAVEL": "-", "MUNICIPIO": "UBERLANDIA", "BANCO": "BRADESCO", "LINHA_AVAL_NOME": "GIRO", "STATUS_OPERACIONAL": "APLICAR T2" }, "geometry": { "type": "Point", "coordinates": [ -48.2538287, -18.8894082 ] } },
{ "type": "Feature", "properties": { "NROCNPJ_PAD": "13752866000109", "NOME_FANTASIA": "BRASIL CONGELADOS POLPAS E FRUTAS", "RAZAO_SOCIAL": "ICE BRASIL POLPAS E FRUTAS LTDA", "RESPONSAVEL": "DIVINOFERREIRADESOUZAJUNIOR|FERNANDOJESUINODEJESUS", "MUNICIPIO": "UBERLANDIA", "BANCO": "SICOOB", "LINHA_AVAL_NOME": "GIRO", "STATUS_OPERACIONAL": "APLICAR T2" }, "geometry": { "type": "Point", "coordinates": [ -48.2332148, -18.8902089 ] } },
{ "type": "Feature", "properties": { "NROCNPJ_PAD": "31092076000118", "NOME_FANTASIA": "ESCOLHAS COACHING VOCACIONAL E CARREIRA", "RAZAO_SOCIAL": "LILIAN MARIA DE OLIVEIRA NOVAES SERVICOS", "RESPONSAVEL": "LILIAN MARIA DE OLIVEIRA NOVAES", "MUNICIPIO": "UBERLANDIA", "BANCO": "SICREDI 2", "LINHA_AVAL_NOME": "EMPREENDEDORISMO FEM", "STATUS_OPERACIONAL": "APLICAR T2" }, "geometry": { "type": "Point", "coordinates": [ -48.2840523, -18.9250775 ] } },
{ "type": "Feature", "properties": { "NROCNPJ_PAD": "23926365000147", "NOME_FANTASIA": "ANA CHOCOLATT", "RAZAO_SOCIAL": "ANA CHOCOLATT LTDA", "RESPONSAVEL": "ANA ANGELICA ALVES TOME", "MUNICIPIO": "UBERLANDIA", "BANCO": "SICREDI 2", "LINHA_AVAL_NOME": "EMPREENDEDORISMO FEM", "STATUS_OPERACIONAL": "APLICAR T2" }, "geometry": { "type": "Point", "coordinates": [ -48.2879732, -18.9258063 ] } },
{ "type": "Feature", "properties": { "NROCNPJ_PAD": "45548843000165", "NOME_FANTASIA": "FABRICA PAES 2 CORACOES", "RAZAO_SOCIAL": "SANTOS FRANCO FERREIRA LTDA", "RESPONSAVEL": "ANACLAUDIACUNHAFRANCOFERREIRA|NATHALIACAROLINASANTOSFRANCO", "MUNICIPIO": "UBERLANDIA", "BANCO": "SICOOB", "LINHA_AVAL_NOME": "GIRO", "STATUS_OPERACIONAL": "APLICAR T2" }, "geometry": { "type": "Point", "coordinates": [ -48.2879613, -18.9254408 ] } },
{ "type": "Feature", "properties": { "NROCNPJ_PAD": "41823507000122", "NOME_FANTASIA": "DROGARIA NOVO MUNDO DRUGSTORE", "RAZAO_SOCIAL": "DROGARIA NOVO MUNDO DRUGSTORE LTDA", "RESPONSAVEL": "GABRIELHENRIQUEDEOLIVEIRA|MATHEUSDEAVILAPEREIRA", "MUNICIPIO": "UBERLANDIA", "BANCO": "SICOOB", "LINHA_AVAL_NOME": "GIRO", "STATUS_OPERACIONAL": "APLICAR T2" }, "geometry": { "type": "Point", "coordinates": [ -48.2122179, -18.9239013 ] } },
{ "type": "Feature", "properties": { "NROCNPJ_PAD": "26799958000188", "NOME_FANTASIA": "BEM STAR PISCINAS", "RAZAO_SOCIAL": "BEM STAR PISCINAS LTDA", "RESPONSAVEL": "ELIENENUNESZUMBADASILVEIRA|THYAGOFERNANDODASILVEIRA", "MUNICIPIO": "UBERLANDIA", "BANCO": "SICOOB", "LINHA_AVAL_NOME": "GIRO", "STATUS_OPERACIONAL": "APLICAR T2" }, "geometry": { "type": "Point", "coordinates": [ -48.3097862, -18.9436493 ] } },
{ "type": "Feature", "properties": { "NROCNPJ_PAD": "53639148000137", "NOME_FANTASIA": "DA TERRA", "RAZAO_SOCIAL": "DA TERRA COMERCIO DE HORTIFRUTIGRANJEIROS LTDA", "RESPONSAVEL": "-", "MUNICIPIO": "UBERLANDIA", "BANCO": "BRADESCO", "LINHA_AVAL_NOME": "-", "STATUS_OPERACIONAL": "APLICAR T2" }, "geometry": { "type": "Point", "coordinates": [ -48.2201027, -18.9272632 ] } },
{ "type": "Feature", "properties": { "NROCNPJ_PAD": "26946379000110", "NOME_FANTASIA": "PASTELLA PASTELARIA", "RAZAO_SOCIAL": "NERI FRANCISCHINI LTDA", "RESPONSAVEL": "-", "MUNICIPIO": "UBERLANDIA", "BANCO": "BRADESCO", "LINHA_AVAL_NOME": "GIRO", "STATUS_OPERACIONAL": "APLICAR T2" }, "geometry": { "type": "Point", "coordinates": [ -48.2744653, -18.8904112 ] } },
{ "type": "Feature", "properties": { "NROCNPJ_PAD": "16994127000103", "NOME_FANTASIA": "CHOPPERIA EVENTOS", "RAZAO_SOCIAL": "CHOPPERIA EVENTOS LTDA", "RESPONSAVEL": "CASSIAFRANCISCAREZENDEHORTA", "MUNICIPIO": "UBERLANDIA", "BANCO": "SICOOB", "LINHA_AVAL_NOME": "EMPREENDEDORISMO FEM", "STATUS_OPERACIONAL": "APLICAR T2" }, "geometry": { "type": "Point", "coordinates": [ -48.2694224, -18.907075 ] } },
{ "type": "Feature", "properties": { "NROCNPJ_PAD": "66197179000127", "NOME_FANTASIA": "AUTO ELETRICA ONOHARA", "RAZAO_SOCIAL": "AUTO ELETRICA ONOHARA LTDA", "RESPONSAVEL": "EDSON YASSUO ONOHARA|GABRIELA TOMIKO KAWAKITA ONOHARA|MARY ONOHARA|MEIRY MAYUMI ONOHARA", "MUNICIPIO": "UBERLANDIA", "BANCO": "BDMG", "LINHA_AVAL_NOME": "GIRO", "STATUS_OPERACIONAL": "APLICAR T2" }, "geometry": { "type": "Point", "coordinates": [ -48.2673916, -18.8989508 ] } },
{ "type": "Feature", "properties": { "NROCNPJ_PAD": "11261246000133", "NOME_FANTASIA": "UDI MIX VARIEDADES", "RAZAO_SOCIAL": "UDI MIX VARIEDADES LTDA", "RESPONSAVEL": "-", "MUNICIPIO": "UBERLANDIA", "BANCO": "BRADESCO", "LINHA_AVAL_NOME": "GIRO", "STATUS_OPERACIONAL": "APLICAR T2" }, "geometry": { "type": "Point", "coordinates": [ -48.2328663, -18.9490219 ] } },
{ "type": "Feature", "properties": { "NROCNPJ_PAD": "26651863000112", "NOME_FANTASIA": "SUPER SACOLAO CONTINENTAL", "RAZAO_SOCIAL": "SUPER SACOLAO E ACOUGUE CONTINENTAL LTDA", "RESPONSAVEL": "ROGERIOPEREIRADASILVA", "MUNICIPIO": "UBERLANDIA", "BANCO": "SICOOB", "LINHA_AVAL_NOME": "GIRO", "STATUS_OPERACIONAL": "APLICAR T2" }, "geometry": { "type": "Point", "coordinates": [ -48.2405216, -18.9553435 ] } },
{ "type": "Feature", "properties": { "NROCNPJ_PAD": "40186237000123", "NOME_FANTASIA": "FF ASSESSORIA", "RAZAO_SOCIAL": "FERRAGISTA E SERVICOS QUEIROZ LTDA", "RESPONSAVEL": "FRANKLEY EDUARDO DOMINGOS", "MUNICIPIO": "UBERLANDIA", "BANCO": "BDMG", "LINHA_AVAL_NOME": "GIRO", "STATUS_OPERACIONAL": "APLICAR T2" }, "geometry": { "type": "Point", "coordinates": [ -48.2281564, -18.955268 ] } },
{ "type": "Feature", "properties": { "NROCNPJ_PAD": "28563281000100", "NOME_FANTASIA": "FERNANDES AUTO ELETRICA", "RAZAO_SOCIAL": "G Q FERNANDES SERVICOS AUTO ELETRICA", "RESPONSAVEL": "-", "MUNICIPIO": "UBERLANDIA", "BANCO": "BRADESCO", "LINHA_AVAL_NOME": "INVESTIMENTO + GIRO", "STATUS_OPERACIONAL": "APLICAR T2" }, "geometry": { "type": "Point", "coordinates": [ -48.2548424, -18.9154634 ] } },
{ "type": "Feature", "properties": { "NROCNPJ_PAD": "20794863000195", "NOME_FANTASIA": "-", "RAZAO_SOCIAL": "MC VIDEO SOM LTDA", "RESPONSAVEL": "-", "MUNICIPIO": "UBERLANDIA", "BANCO": "BRADESCO", "LINHA_AVAL_NOME": "GIRO", "STATUS_OPERACIONAL": "APLICAR T2" }, "geometry": { "type": "Point", "coordinates": [ -48.2675676, -18.916034 ] } },
{ "type": "Feature", "properties": { "NROCNPJ_PAD": "26247798000164", "NOME_FANTASIA": "GAMA SOLUCOES EMPRESARIAIS", "RAZAO_SOCIAL": "GAMA SOLUCOES EMPRESARIAIS LTDA", "RESPONSAVEL": "RHAIANY PABLINY MENDES NARDIM", "MUNICIPIO": "UBERLANDIA", "BANCO": "BDMG", "LINHA_AVAL_NOME": "GIRO", "STATUS_OPERACIONAL": "APLICAR T2" }, "geometry": { "type": "Point", "coordinates": [ -48.3219555, -18.9115542 ] } },
{ "type": "Feature", "properties": { "NROCNPJ_PAD": "54330671000140", "NOME_FANTASIA": "KASA DOS CALCADOS", "RAZAO_SOCIAL": "ATACADAO DO CALCADO LTDA", "RESPONSAVEL": "CARLOS CESAR MOREIRA COSTA", "MUNICIPIO": "UBERLANDIA", "BANCO": "SICREDI 2", "LINHA_AVAL_NOME": "GIRO", "STATUS_OPERACIONAL": "APLICAR T2" }, "geometry": { "type": "Point", "coordinates": [ -48.3307608, -18.9187549 ] } },
{ "type": "Feature", "properties": { "NROCNPJ_PAD": "25989881000146", "NOME_FANTASIA": "AGROSAIDA PRODUTOS AGROPECUARIOS", "RAZAO_SOCIAL": "AGROSAIDA PRODUTOS AGROPECUARIOS LTDA", "RESPONSAVEL": "AGROSAIDA PRODUTOS AGROPECUARIOS LTDA|LUIZ CARLOS PEREIRA FERNANDES", "MUNICIPIO": "UBERLANDIA", "BANCO": "BDMG", "LINHA_AVAL_NOME": "GIRO", "STATUS_OPERACIONAL": "APLICAR T2" }, "geometry": { "type": "Point", "coordinates": [ -48.3099697, -18.9598247 ] } },
{ "type": "Feature", "properties": { "NROCNPJ_PAD": "09563283000154", "NOME_FANTASIA": "OPCAO ESTRELA", "RAZAO_SOCIAL": "EDVALDO FERNANDES DE SOUSA", "RESPONSAVEL": "-", "MUNICIPIO": "UBERLANDIA", "BANCO": "BRADESCO", "LINHA_AVAL_NOME": "GIRO", "STATUS_OPERACIONAL": "APLICAR T2" }, "geometry": { "type": "Point", "coordinates": [ -48.3302499, -18.9180196 ] } },
{ "type": "Feature", "properties": { "NROCNPJ_PAD": "55522178000194", "NOME_FANTASIA": "MASSAS DE PASTEIS O SENHOR DOS PASTEIS", "RAZAO_SOCIAL": "FABRICA DE MASSAS HERNANECLEY LOURENCO LTDA", "RESPONSAVEL": "HERNANECLEYLOURENCODASILVA", "MUNICIPIO": "UBERLANDIA", "BANCO": "SICOOB", "LINHA_AVAL_NOME": "GIRO", "STATUS_OPERACIONAL": "APLICAR T2" }, "geometry": { "type": "Point", "coordinates": [ -48.3091759, -18.9575432 ] } },
{ "type": "Feature", "properties": { "NROCNPJ_PAD": "36953042000194", "NOME_FANTASIA": "RC PNEUS & BORRACHARIA", "RAZAO_SOCIAL": "RUBENS CESAR DE OLIVEIRA MACHADO LTDA", "RESPONSAVEL": "RUBENSCESARDEOLIVEIRAMACHADO", "MUNICIPIO": "UBERLANDIA", "BANCO": "SICOOB", "LINHA_AVAL_NOME": "GIRO", "STATUS_OPERACIONAL": "APLICAR T2" }, "geometry": { "type": "Point", "coordinates": [ -48.3099917, -18.9571837 ] } },
{ "type": "Feature", "properties": { "NROCNPJ_PAD": "07774996000131", "NOME_FANTASIA": "-", "RAZAO_SOCIAL": "D GUSTO PAES E ROTISSERIA LTDA", "RESPONSAVEL": "-", "MUNICIPIO": "UBERLANDIA", "BANCO": "BRADESCO", "LINHA_AVAL_NOME": "GIRO", "STATUS_OPERACIONAL": "APLICAR T2" }, "geometry": { "type": "Point", "coordinates": [ -48.2621651, -18.9223419 ] } },
{ "type": "Feature", "properties": { "NROCNPJ_PAD": "52553944000190", "NOME_FANTASIA": "TOP MIX FERRAMENTAS", "RAZAO_SOCIAL": "52.553.944 MARCOS GUARDIEIRO CARVALHO", "RESPONSAVEL": "MARCOSGUARDIEIROCARVALHO", "MUNICIPIO": "UBERLANDIA", "BANCO": "SICOOB", "LINHA_AVAL_NOME": "GIRO", "STATUS_OPERACIONAL": "APLICAR T2" }, "geometry": { "type": "Point", "coordinates": [ -48.3043692, -18.8994683 ] } },
{ "type": "Feature", "properties": { "NROCNPJ_PAD": "37169856000103", "NOME_FANTASIA": "INNOVA NET", "RAZAO_SOCIAL": "INNOVA NET TELECOM LTDA", "RESPONSAVEL": "DANIELARAUJODOSSANTOS", "MUNICIPIO": "UBERLANDIA", "BANCO": "SICOOB", "LINHA_AVAL_NOME": "GIRO", "STATUS_OPERACIONAL": "APLICAR T2" }, "geometry": { "type": "Point", "coordinates": [ -48.2659095, -18.9851105 ] } },
{ "type": "Feature", "properties": { "NROCNPJ_PAD": "13268830000146", "NOME_FANTASIA": "R-CAR AUTO MECANICA", "RAZAO_SOCIAL": "R-CAR AUTO MECANICA LTDA", "RESPONSAVEL": "RICARDOLACERDAPEREIRA|VIVIANOLIVEIRAALVES", "MUNICIPIO": "UBERLANDIA", "BANCO": "SICOOB", "LINHA_AVAL_NOME": "EMPREENDEDORISMO FEM", "STATUS_OPERACIONAL": "APLICAR T2" }, "geometry": { "type": "Point", "coordinates": [ -48.3044908, -18.8866927 ] } },
{ "type": "Feature", "properties": { "NROCNPJ_PAD": "22065148000147", "NOME_FANTASIA": "-", "RAZAO_SOCIAL": "ARTMETAL IND E COM DE ESQUADRIAS LTDA", "RESPONSAVEL": "DAUTO LOURENCO DE SOUZA|MARIA JOSE LEMOS DE SOUZA", "MUNICIPIO": "UBERLANDIA", "BANCO": "BDMG", "LINHA_AVAL_NOME": "GIRO", "STATUS_OPERACIONAL": "APLICAR T2" }, "geometry": { "type": "Point", "coordinates": [ -48.2811922, -18.9027671 ] } },
{ "type": "Feature", "properties": { "NROCNPJ_PAD": "19110804000171", "NOME_FANTASIA": "REI DA LOCACAO", "RAZAO_SOCIAL": "JOAO MARQUES RODRIGUES DE SOUZA 99923726649", "RESPONSAVEL": "JOAO MARQUES RODRIGUES DE SOUZA|KESIA DIAS VIEIRA DE SOUZA", "MUNICIPIO": "UBERLANDIA", "BANCO": "BDMG", "LINHA_AVAL_NOME": "GIRO", "STATUS_OPERACIONAL": "APLICAR T2" }, "geometry": { "type": "Point", "coordinates": [ -48.3546822, -18.9723138 ] } },
{ "type": "Feature", "properties": { "NROCNPJ_PAD": "44695600000197", "NOME_FANTASIA": "MUNDO JUMP", "RAZAO_SOCIAL": "MUNDO JUMP PARQUE E EVENTOS LTDA", "RESPONSAVEL": "NILO DE SOUZA JUNIOR", "MUNICIPIO": "UBERLANDIA", "BANCO": "BDMG", "LINHA_AVAL_NOME": "GIRO", "STATUS_OPERACIONAL": "APLICAR T2" }, "geometry": { "type": "Point", "coordinates": [ -48.2493522, -18.955127 ] } },
{ "type": "Feature", "properties": { "NROCNPJ_PAD": "03608383000173", "NOME_FANTASIA": "MADRE COMPLEMENTOS", "RAZAO_SOCIAL": "CINTIA ESTELA DE CARVALHO GUIMARAES", "RESPONSAVEL": "CINTIA ESTELA DE CARVALHO GUIMARAES", "MUNICIPIO": "UBERLANDIA", "BANCO": "BDMG", "LINHA_AVAL_NOME": "GIRO", "STATUS_OPERACIONAL": "APLICAR T2" }, "geometry": { "type": "Point", "coordinates": [ -48.2710113, -18.9638906 ] } },
{ "type": "Feature", "properties": { "NROCNPJ_PAD": "61278567000119", "NOME_FANTASIA": "PEREIRAO RESTAURANTE", "RAZAO_SOCIAL": "PEREIRAO RESTAURANTE LTDA", "RESPONSAVEL": "ROSELIMACHADODEMELO", "MUNICIPIO": "UBERLANDIA", "BANCO": "SICOOB", "LINHA_AVAL_NOME": "EMPREENDEDORISMO FEM", "STATUS_OPERACIONAL": "APLICAR T2" }, "geometry": { "type": "Point", "coordinates": [ -48.2675937, -18.9839133 ] } },
{ "type": "Feature", "properties": { "NROCNPJ_PAD": "28506115000171", "NOME_FANTASIA": "CASA DE CARNES HOLANDA", "RAZAO_SOCIAL": "CASA DE CARNES HOLANDA LTDA", "RESPONSAVEL": "JULIANA BEATRIZ DA SILVA RESENDE", "MUNICIPIO": "UBERLANDIA", "BANCO": "BDMG", "LINHA_AVAL_NOME": "GIRO", "STATUS_OPERACIONAL": "APLICAR T2" }, "geometry": { "type": "Point", "coordinates": [ -48.2521898, -18.9058214 ] } },
{ "type": "Feature", "properties": { "NROCNPJ_PAD": "50140394000151", "NOME_FANTASIA": "RAGA MOTORS", "RAZAO_SOCIAL": "PPR AUTOMOVEIS LTDA", "RESPONSAVEL": "PEDROPAULORABELOMORAES", "MUNICIPIO": "UBERLANDIA", "BANCO": "SICOOB", "LINHA_AVAL_NOME": "GIRO", "STATUS_OPERACIONAL": "APLICAR T2" }, "geometry": { "type": "Point", "coordinates": [ -48.2625621, -18.8937499 ] } },
{ "type": "Feature", "properties": { "NROCNPJ_PAD": "27984209000193", "NOME_FANTASIA": "IRMAOS DUARTE TRANSPORTES", "RAZAO_SOCIAL": "BRUNO MARQUES DUARTE", "RESPONSAVEL": "BRUNO MARQUES DUARTE", "MUNICIPIO": "UBERLANDIA", "BANCO": "BDMG", "LINHA_AVAL_NOME": "GIRO", "STATUS_OPERACIONAL": "APLICAR T2" }, "geometry": { "type": "Point", "coordinates": [ -48.2890489, -18.8948301 ] } },
{ "type": "Feature", "properties": { "NROCNPJ_PAD": "04475080000192", "NOME_FANTASIA": "BLESS MODA LTDA", "RAZAO_SOCIAL": "DAMILA MODA LTDA", "RESPONSAVEL": "ALUISIO ANTONIO SILVA|CLEIDE LOURENCO SILVA", "MUNICIPIO": "UBERLANDIA", "BANCO": "BDMG", "LINHA_AVAL_NOME": "GIRO", "STATUS_OPERACIONAL": "APLICAR T2" }, "geometry": { "type": "Point", "coordinates": [ -48.2858083, -18.8969602 ] } },
{ "type": "Feature", "properties": { "NROCNPJ_PAD": "57567259000136", "NOME_FANTASIA": "LEAM AGRONEGOCIOS", "RAZAO_SOCIAL": "LEAM AGRONEGOCIOS LTDA", "RESPONSAVEL": "LEONARDO MACHADO MARTINS PEDROSA", "MUNICIPIO": "UBERLANDIA", "BANCO": "BDMG", "LINHA_AVAL_NOME": "GIRO", "STATUS_OPERACIONAL": "APLICAR T2" }, "geometry": { "type": "Point", "coordinates": [ -48.2743947, -18.8910817 ] } },
{ "type": "Feature", "properties": { "NROCNPJ_PAD": "49000027000173", "NOME_FANTASIA": "VAP SERVICOS MEDICOS", "RAZAO_SOCIAL": "VAP SERVICOS MEDICOS LTDA", "RESPONSAVEL": "VICTOR ARANTES PINTO", "MUNICIPIO": "UBERLANDIA", "BANCO": "ESTÍMULO", "LINHA_AVAL_NOME": "INVESTIMENTO + GIRO", "STATUS_OPERACIONAL": "APLICAR T2" }, "geometry": { "type": "Point", "coordinates": [ -48.2695105, -18.891108 ] } },
{ "type": "Feature", "properties": { "NROCNPJ_PAD": "27048629000168", "NOME_FANTASIA": "-", "RAZAO_SOCIAL": "JANET MAMEDE SILVA PIRES 30291437672", "RESPONSAVEL": "JANET MAMEDE DA SILVA PIRES", "MUNICIPIO": "UBERLANDIA", "BANCO": "BDMG", "LINHA_AVAL_NOME": "GIRO", "STATUS_OPERACIONAL": "APLICAR T2" }, "geometry": { "type": "Point", "coordinates": [ -48.2682217, -18.895311 ] } },
{ "type": "Feature", "properties": { "NROCNPJ_PAD": "22447393000119", "NOME_FANTASIA": "M. T. S. CONSTRUCOES", "RAZAO_SOCIAL": "M.T.S. CONSTRUCOES LTDA", "RESPONSAVEL": "MATHEUSRIBEIROOLIVEIRAGOMES", "MUNICIPIO": "UBERLANDIA", "BANCO": "SICOOB", "LINHA_AVAL_NOME": "GIRO", "STATUS_OPERACIONAL": "APLICAR T2" }, "geometry": { "type": "Point", "coordinates": [ -48.2611538, -18.8962063 ] } },
{ "type": "Feature", "properties": { "NROCNPJ_PAD": "38414029000192", "NOME_FANTASIA": "NOSSO RESTAURANTE & BAR", "RAZAO_SOCIAL": "NOSSO RESTAURANTE & REFEICOES LTDA", "RESPONSAVEL": "LUISCLAUDIOROSSETTOPASCHOALOTTO", "MUNICIPIO": "UBERLANDIA", "BANCO": "SICOOB", "LINHA_AVAL_NOME": "GIRO", "STATUS_OPERACIONAL": "APLICAR T2" }, "geometry": { "type": "Point", "coordinates": [ -48.2620973, -18.896906 ] } },
{ "type": "Feature", "properties": { "NROCNPJ_PAD": "55959470000179", "NOME_FANTASIA": "CLOSET MADU LOURENCO", "RAZAO_SOCIAL": "MARIA EDUARDA FARIA LOURENCO CLOSET", "RESPONSAVEL": "MARIAEDUARDAFARIALOURENCO", "MUNICIPIO": "UBERLANDIA", "BANCO": "SICOOB", "LINHA_AVAL_NOME": "EMPREENDEDORISMO FEM", "STATUS_OPERACIONAL": "APLICAR T2" }, "geometry": { "type": "Point", "coordinates": [ -48.2411915, -18.8943623 ] } },
{ "type": "Feature", "properties": { "NROCNPJ_PAD": "42651121000143", "NOME_FANTASIA": "TORNO ROCHA USINAGEM", "RAZAO_SOCIAL": "TORNO ROCHA USINAGEM LTDA", "RESPONSAVEL": "-", "MUNICIPIO": "UBERLANDIA", "BANCO": "BRADESCO", "LINHA_AVAL_NOME": "GIRO", "STATUS_OPERACIONAL": "APLICAR T2" }, "geometry": { "type": "Point", "coordinates": [ -48.244436, -18.8960833 ] } },
{ "type": "Feature", "properties": { "NROCNPJ_PAD": "48151145000110", "NOME_FANTASIA": "MARMORARIA E PORCELANATARIA XAVIER", "RAZAO_SOCIAL": "MARMORARIA E PORCELANATARIA XAVIER LTDA", "RESPONSAVEL": "RODRIGOFRANCISCOXAVIER", "MUNICIPIO": "UBERLANDIA", "BANCO": "SICOOB", "LINHA_AVAL_NOME": "GIRO", "STATUS_OPERACIONAL": "APLICAR T2" }, "geometry": { "type": "Point", "coordinates": [ -48.2441141, -18.9193757 ] } },
{ "type": "Feature", "properties": { "NROCNPJ_PAD": "45475345000130", "NOME_FANTASIA": "CADU ELEGANCE BARBERSHOP", "RAZAO_SOCIAL": "CADU ELEGANCE BARBERSHOP LTDA", "RESPONSAVEL": "CARLOS EDUARDO QUEIROGA", "MUNICIPIO": "UBERLANDIA", "BANCO": "BDMG", "LINHA_AVAL_NOME": "GIRO", "STATUS_OPERACIONAL": "APLICAR T2" }, "geometry": { "type": "Point", "coordinates": [ -48.2477093, -18.9149961 ] } },
{ "type": "Feature", "properties": { "NROCNPJ_PAD": "29877332000130", "NOME_FANTASIA": "SOLO VERDE ASPERSORES PARA IRRIGACAO", "RAZAO_SOCIAL": "SOLO VERDE ASPERSORES LTDA", "RESPONSAVEL": "BRUNOGUSTAVOSOARESFARIAGONTIJO", "MUNICIPIO": "UBERLANDIA", "BANCO": "SICOOB", "LINHA_AVAL_NOME": "GIRO", "STATUS_OPERACIONAL": "APLICAR T2" }, "geometry": { "type": "Point", "coordinates": [ -48.247879, -18.9131678 ] } },
{ "type": "Feature", "properties": { "NROCNPJ_PAD": "47642567000125", "NOME_FANTASIA": "TURBO BRISA CLIMATIZADORES", "RAZAO_SOCIAL": "TURBO BRISA CLIMATIZADORES LTDA", "RESPONSAVEL": "FERNANDODEOLIVEIRAESILVA", "MUNICIPIO": "UBERLANDIA", "BANCO": "SICOOB", "LINHA_AVAL_NOME": "GIRO", "STATUS_OPERACIONAL": "APLICAR T2" }, "geometry": { "type": "Point", "coordinates": [ -48.2892131, -18.912253 ] } },
{ "type": "Feature", "properties": { "NROCNPJ_PAD": "09038620000194", "NOME_FANTASIA": "APICE ARTE FESTA", "RAZAO_SOCIAL": "APICE ARTE FESTA LTDA", "RESPONSAVEL": "LUCY GONCALVES ROMULO|RAFAEL VIEIRA DE ALMEIDA|SHISLENE GONCALVES VITOR DE MORAES", "MUNICIPIO": "UBERLANDIA", "BANCO": "BDMG", "LINHA_AVAL_NOME": "GIRO", "STATUS_OPERACIONAL": "APLICAR T2" }, "geometry": { "type": "Point", "coordinates": [ -48.3031015, -18.9165338 ] } },
{ "type": "Feature", "properties": { "NROCNPJ_PAD": "10526485000105", "NOME_FANTASIA": "CLINICA CIRURGIA PLASTICA MARIA LUIZA BARBOSA", "RAZAO_SOCIAL": "CLINICA DE CIRURGIA PLASTICA MARIA LUIZA BORGES LTDA", "RESPONSAVEL": "-", "MUNICIPIO": "UBERLANDIA", "BANCO": "BRADESCO", "LINHA_AVAL_NOME": "GIRO", "STATUS_OPERACIONAL": "APLICAR T2" }, "geometry": { "type": "Point", "coordinates": [ -48.2927618, -18.9244298 ] } },
{ "type": "Feature", "properties": { "NROCNPJ_PAD": "34632602000183", "NOME_FANTASIA": "CALTECHLAB RERESENTACOES", "RAZAO_SOCIAL": "BESSA BORGES REPRESENTACOES LTDA", "RESPONSAVEL": "MAYCON VINICIUS BESSA BORGES", "MUNICIPIO": "UBERLANDIA", "BANCO": "BDMG", "LINHA_AVAL_NOME": "GIRO", "STATUS_OPERACIONAL": "APLICAR T2" }, "geometry": { "type": "Point", "coordinates": [ -48.289243, -18.925985 ] } },
{ "type": "Feature", "properties": { "NROCNPJ_PAD": "53364367000150", "NOME_FANTASIA": "CHAVEIRO SMS", "RAZAO_SOCIAL": "ANDRESSA DA SILVA SANTOS CHAVEIRO", "RESPONSAVEL": "ANDRESSA DA SILVA SANTOS", "MUNICIPIO": "UBERLANDIA", "BANCO": "SICREDI 2", "LINHA_AVAL_NOME": "EMPREENDEDORISMO FEM", "STATUS_OPERACIONAL": "APLICAR T2" }, "geometry": { "type": "Point", "coordinates": [ -48.3384316, -18.8960998 ] } },
{ "type": "Feature", "properties": { "NROCNPJ_PAD": "08755218000168", "NOME_FANTASIA": "-", "RAZAO_SOCIAL": "GOMES VIEIRA VIAGENS E TURISMO LTDA", "RESPONSAVEL": "ANTONIO EDIMUNDO GOMES VIEIRA|JUDITE PRISCILA SALOMAO VIEIRA", "MUNICIPIO": "UBERLANDIA", "BANCO": "BDMG", "LINHA_AVAL_NOME": "GIRO", "STATUS_OPERACIONAL": "APLICAR T2" }, "geometry": { "type": "Point", "coordinates": [ -48.2474382, -18.924834 ] } },
{ "type": "Feature", "properties": { "NROCNPJ_PAD": "60363145000189", "NOME_FANTASIA": "STUDIO GLAM", "RAZAO_SOCIAL": "STUDIO GLAM LTDA", "RESPONSAVEL": "EDUARDAALVESVIANA", "MUNICIPIO": "UBERLANDIA", "BANCO": "SICOOB", "LINHA_AVAL_NOME": "EMPREENDEDORISMO FEM", "STATUS_OPERACIONAL": "APLICAR T2" }, "geometry": { "type": "Point", "coordinates": [ -48.3177552, -18.9256928 ] } },
{ "type": "Feature", "properties": { "NROCNPJ_PAD": "33364087000135", "NOME_FANTASIA": "LERIVON JR EVENTOS", "RAZAO_SOCIAL": "VIEIRA DINIZ NEGOCIOS E EVENTOS LTDA", "RESPONSAVEL": "LERIVON DINIZ LINHARES JUNIOR", "MUNICIPIO": "UBERLANDIA", "BANCO": "SICREDI 2", "LINHA_AVAL_NOME": "GIRO", "STATUS_OPERACIONAL": "APLICAR T2" }, "geometry": { "type": "Point", "coordinates": [ -48.2432252, -18.9208806 ] } },
{ "type": "Feature", "properties": { "NROCNPJ_PAD": "16750438000127", "NOME_FANTASIA": "-", "RAZAO_SOCIAL": "FL TRANSPORTES", "RESPONSAVEL": "-", "MUNICIPIO": "UBERLANDIA", "BANCO": "BRADESCO", "LINHA_AVAL_NOME": "-", "STATUS_OPERACIONAL": "APLICAR T2" }, "geometry": { "type": "Point", "coordinates": [ -48.2445069, -18.9275754 ] } },
{ "type": "Feature", "properties": { "NROCNPJ_PAD": "37021567000154", "NOME_FANTASIA": "MF ROCHA CONSULTORIA JURIDICA E SEGURANCA EMPRESARIAL", "RAZAO_SOCIAL": "MF ROCHA CONSULTORIA JURIDICA E SEGURANCA EMPRESARIAL LTDA", "RESPONSAVEL": "CLAUDIO VITOR RODRIGUES ROCHA", "MUNICIPIO": "UBERLANDIA", "BANCO": "SICREDI 2", "LINHA_AVAL_NOME": "GIRO", "STATUS_OPERACIONAL": "APLICAR T2" }, "geometry": { "type": "Point", "coordinates": [ -48.3042796, -18.9426416 ] } },
{ "type": "Feature", "properties": { "NROCNPJ_PAD": "29566687000109", "NOME_FANTASIA": "-", "RAZAO_SOCIAL": "LABORATORIO DE PROTESE ODONTOLOGICA RW LTDA", "RESPONSAVEL": "DAVI HELLON BARBOSA DE OLIVEIRA|RICARDO FERREIRA DE OLIVEIRA", "MUNICIPIO": "UBERLANDIA", "BANCO": "BDMG", "LINHA_AVAL_NOME": "GIRO", "STATUS_OPERACIONAL": "APLICAR T2" }, "geometry": { "type": "Point", "coordinates": [ -48.2690852, -18.918618 ] } },
{ "type": "Feature", "properties": { "NROCNPJ_PAD": "24874403000128", "NOME_FANTASIA": "GARRA GYM CENTRO ESPORTIVO", "RAZAO_SOCIAL": "MAESTRI TREINAMENTO E DESENVOLVIMENTO LTDA", "RESPONSAVEL": "MARIANAMAESTRI", "MUNICIPIO": "UBERLANDIA", "BANCO": "SICOOB", "LINHA_AVAL_NOME": "GIRO", "STATUS_OPERACIONAL": "APLICAR T2" }, "geometry": { "type": "Point", "coordinates": [ -48.2622687, -18.9280627 ] } },
{ "type": "Feature", "properties": { "NROCNPJ_PAD": "34617354000100", "NOME_FANTASIA": "RIBER PAO", "RAZAO_SOCIAL": "ERASMO FRANCISCO RIBEIRO LTDA", "RESPONSAVEL": "-", "MUNICIPIO": "UBERLANDIA", "BANCO": "BRADESCO", "LINHA_AVAL_NOME": "GIRO", "STATUS_OPERACIONAL": "APLICAR T2" }, "geometry": { "type": "Point", "coordinates": [ -48.2669355, -18.9846604 ] } },
{ "type": "Feature", "properties": { "NROCNPJ_PAD": "46266507000192", "NOME_FANTASIA": "IVIVER NEGOCIOS", "RAZAO_SOCIAL": "BRUNO BORGES NEGOCIOS LTDA", "RESPONSAVEL": "BRUNO ALVES BORGES DE SOUSA|YARA CRISTINA PIRES DE SOUSA", "MUNICIPIO": "UBERLANDIA", "BANCO": "BDMG", "LINHA_AVAL_NOME": "GIRO", "STATUS_OPERACIONAL": "APLICAR T2" }, "geometry": { "type": "Point", "coordinates": [ -48.2767793, -18.9209895 ] } },
{ "type": "Feature", "properties": { "NROCNPJ_PAD": "57398073000109", "NOME_FANTASIA": "SG AMBIENTAL", "RAZAO_SOCIAL": "AP AGRO AMBIENTAL LTDA", "RESPONSAVEL": "-", "MUNICIPIO": "UBERLANDIA", "BANCO": "BRADESCO", "LINHA_AVAL_NOME": "-", "STATUS_OPERACIONAL": "APLICAR T2" }, "geometry": { "type": "Point", "coordinates": [ -48.2456636, -18.9331912 ] } },
{ "type": "Feature", "properties": { "NROCNPJ_PAD": "11514314000129", "NOME_FANTASIA": "FOUR ASSOCIADOS", "RAZAO_SOCIAL": "FOUR ASSOCIADOS ADMINISTRACAO DE CONDOMINIOS LTDA", "RESPONSAVEL": "ABADIADEFATIMASILVA|IUSKACOSTAMOREIRA", "MUNICIPIO": "UBERLANDIA", "BANCO": "SICOOB", "LINHA_AVAL_NOME": "EMPREENDEDORISMO FEM", "STATUS_OPERACIONAL": "APLICAR T2" }, "geometry": { "type": "Point", "coordinates": [ -48.245741, -18.9273296 ] } },
{ "type": "Feature", "properties": { "NROCNPJ_PAD": "11153294000108", "NOME_FANTASIA": "CASA DE CARNE CASTRO", "RAZAO_SOCIAL": "FABIO RIBEIRO DE CASTRO OLIVEIRA", "RESPONSAVEL": "FABIO RIBEIRO DE CASTRO OLIVEIRA", "MUNICIPIO": "UBERLANDIA", "BANCO": "BDMG", "LINHA_AVAL_NOME": "GIRO", "STATUS_OPERACIONAL": "APLICAR T2" }, "geometry": { "type": "Point", "coordinates": [ -48.2259165, -18.9261233 ] } },
{ "type": "Feature", "properties": { "NROCNPJ_PAD": "19444406000191", "NOME_FANTASIA": "BH AUTOPECAS", "RAZAO_SOCIAL": "BH COM PECAS E AUTOCENTER LTDA", "RESPONSAVEL": "FLAVIOOLIVEIRAVIEIRA", "MUNICIPIO": "UBERLANDIA", "BANCO": "SICOOB", "LINHA_AVAL_NOME": "GIRO", "STATUS_OPERACIONAL": "APLICAR T2" }, "geometry": { "type": "Point", "coordinates": [ -48.2258534, -18.9242684 ] } },
{ "type": "Feature", "properties": { "NROCNPJ_PAD": "44317986000101", "NOME_FANTASIA": "FERRAGISTA CUNHA", "RAZAO_SOCIAL": "FERRAGISTA CUNHA LTDA", "RESPONSAVEL": "EDSON FERREIRA RODRIGUES JUNIOR", "MUNICIPIO": "UBERLANDIA", "BANCO": "BDMG", "LINHA_AVAL_NOME": "GIRO", "STATUS_OPERACIONAL": "APLICAR T2" }, "geometry": { "type": "Point", "coordinates": [ -48.2456953, -18.8847354 ] } },
{ "type": "Feature", "properties": { "NROCNPJ_PAD": "27979843000138", "NOME_FANTASIA": "EUCALIPTO MOREIRA", "RAZAO_SOCIAL": "LUCIANA DA SILVA MOREIRA 04134961637", "RESPONSAVEL": "LUCIANA DA SILVA MOREIRA", "MUNICIPIO": "UBERLANDIA", "BANCO": "BDMG", "LINHA_AVAL_NOME": "GIRO", "STATUS_OPERACIONAL": "APLICAR T2" }, "geometry": { "type": "Point", "coordinates": [ -48.2373939, -18.8898886 ] } },
{ "type": "Feature", "properties": { "NROCNPJ_PAD": "51092809000121", "NOME_FANTASIA": "FF MANUTENCOES", "RAZAO_SOCIAL": "FF MANUTENCOES E PECAS LTDA", "RESPONSAVEL": "FERNANDOCOSTAFERREIRA", "MUNICIPIO": "UBERLANDIA", "BANCO": "SICOOB", "LINHA_AVAL_NOME": "GIRO", "STATUS_OPERACIONAL": "APLICAR T2" }, "geometry": { "type": "Point", "coordinates": [ -48.2678914, -18.9226128 ] } },
{ "type": "Feature", "properties": { "NROCNPJ_PAD": "35717707000106", "NOME_FANTASIA": "INSPIRIS STUDIO", "RAZAO_SOCIAL": "INSPIRIS STUDIO DE PILATES LTDA", "RESPONSAVEL": "ISABELLA SARAIVA MACHADO|LUIZ CLAUDIO NASCIMENTO NUNES", "MUNICIPIO": "UBERLANDIA", "BANCO": "BDMG", "LINHA_AVAL_NOME": "Giro", "STATUS_OPERACIONAL": "APLICAR T2" }, "geometry": { "type": "Point", "coordinates": [ -48.2453864, -18.919091 ] } },
{ "type": "Feature", "properties": { "NROCNPJ_PAD": "59149548000140", "NOME_FANTASIA": "-", "RAZAO_SOCIAL": "JOF SERVICOS LTDA", "RESPONSAVEL": "-", "MUNICIPIO": "UBERLANDIA", "BANCO": "BRADESCO", "LINHA_AVAL_NOME": "-", "STATUS_OPERACIONAL": "APLICAR T2" }, "geometry": { "type": "Point", "coordinates": [ -48.2672833, -18.9237599 ] } },
{ "type": "Feature", "properties": { "NROCNPJ_PAD": "60676195000116", "NOME_FANTASIA": "-", "RAZAO_SOCIAL": "D & N INDUSTRIA E COMERCIO DE ALIMENTOS LTDA", "RESPONSAVEL": "EDUARDOELIASCAMPOS", "MUNICIPIO": "UBERLANDIA", "BANCO": "SICOOB", "LINHA_AVAL_NOME": "Giro", "STATUS_OPERACIONAL": "APLICAR T2" }, "geometry": { "type": "Point", "coordinates": [ -48.2553355, -18.9299809 ] } },
{ "type": "Feature", "properties": { "NROCNPJ_PAD": "39615469000170", "NOME_FANTASIA": "FERRAGISTA MAXTEM", "RAZAO_SOCIAL": "FERRAGISTA MAXTEM LTDA", "RESPONSAVEL": "KATIELEN PAMELA GONTIJO BORGES LEAL", "MUNICIPIO": "UBERLANDIA", "BANCO": "BDMG", "LINHA_AVAL_NOME": "GIRO", "STATUS_OPERACIONAL": "APLICAR T2" }, "geometry": { "type": "Point", "coordinates": [ -48.3156377, -18.9385379 ] } },
{ "type": "Feature", "properties": { "NROCNPJ_PAD": "49640533000127", "NOME_FANTASIA": "LAZULI PAISAGISMO", "RAZAO_SOCIAL": "49.640.533 GEOVANA PERES RODRIGUES", "RESPONSAVEL": "GEOVANA PERES RODRIGUES", "MUNICIPIO": "UBERLANDIA", "BANCO": "BDMG", "LINHA_AVAL_NOME": "Giro", "STATUS_OPERACIONAL": "APLICAR T2" }, "geometry": { "type": "Point", "coordinates": [ -48.292378, -18.9255603 ] } },
{ "type": "Feature", "properties": { "NROCNPJ_PAD": "37209687000180", "NOME_FANTASIA": "-", "RAZAO_SOCIAL": "MAGICPRINT GRAFICA LTDA", "RESPONSAVEL": "FLAVIA CRISTINA DE ALCANTARA RIBEIRO PENHA|RAFAELA CRISTINA SILVA", "MUNICIPIO": "UBERLANDIA", "BANCO": "BDMG", "LINHA_AVAL_NOME": "GIRO", "STATUS_OPERACIONAL": "APLICAR T2" }, "geometry": { "type": "Point", "coordinates": [ -48.3069002, -18.9441006 ] } },
{ "type": "Feature", "properties": { "NROCNPJ_PAD": "23521233000135", "NOME_FANTASIA": "ACADEMIA CENTER FIGTH", "RAZAO_SOCIAL": "ROSANO JESUS DA SILVA ACADEMIA", "RESPONSAVEL": "ROSANO JESUS DA SILVA", "MUNICIPIO": "UBERLANDIA", "BANCO": "BDMG", "LINHA_AVAL_NOME": "GIRO", "STATUS_OPERACIONAL": "APLICAR T2" }, "geometry": { "type": "Point", "coordinates": [ -48.3150844, -18.9488933 ] } },
{ "type": "Feature", "properties": { "NROCNPJ_PAD": "21700229000109", "NOME_FANTASIA": "-", "RAZAO_SOCIAL": "R.R MOTOR SPORTS LTDA", "RESPONSAVEL": "-", "MUNICIPIO": "UBERLANDIA", "BANCO": "BRADESCO", "LINHA_AVAL_NOME": "-", "STATUS_OPERACIONAL": "APLICAR T2" }, "geometry": { "type": "Point", "coordinates": [ -48.2610487, -18.9132406 ] } },
{ "type": "Feature", "properties": { "NROCNPJ_PAD": "55894564000107", "NOME_FANTASIA": "LACOSTE", "RAZAO_SOCIAL": "NYA COMERCIO DE VESTUARIO LTDA", "RESPONSAVEL": "MARCIA CRISTINA MARTINS", "MUNICIPIO": "UBERLANDIA", "BANCO": "BDMG", "LINHA_AVAL_NOME": "Giro", "STATUS_OPERACIONAL": "APLICAR T2" }, "geometry": { "type": "Point", "coordinates": [ -48.2609253, -18.9089955 ] } },
{ "type": "Feature", "properties": { "NROCNPJ_PAD": "46471937000146", "NOME_FANTASIA": "DONA BALT", "RAZAO_SOCIAL": "DONNA BALT LOJA E ACESSORIOS LTDA", "RESPONSAVEL": "EVELLYNEALVESBALTAZARARAUJO|SILVANAALVESBALTAZAR", "MUNICIPIO": "UBERLANDIA", "BANCO": "SICOOB", "LINHA_AVAL_NOME": "EMPREENDEDORISMO FEM", "STATUS_OPERACIONAL": "APLICAR T2" }, "geometry": { "type": "Point", "coordinates": [ -48.2832465, -18.9236882 ] } },
{ "type": "Feature", "properties": { "NROCNPJ_PAD": "45459079000151", "NOME_FANTASIA": "-", "RAZAO_SOCIAL": "2S RIBEIRO SERVICOS ADMINISTRATIVOS LTDA", "RESPONSAVEL": "SIDIONEI SANTOS RIBEIRO", "MUNICIPIO": "UBERLANDIA", "BANCO": "BDMG", "LINHA_AVAL_NOME": "GIRO", "STATUS_OPERACIONAL": "APLICAR T2" }, "geometry": { "type": "Point", "coordinates": [ -48.2705547, -18.9029009 ] } },
{ "type": "Feature", "properties": { "NROCNPJ_PAD": "53536906000191", "NOME_FANTASIA": "REGIA OTICA E JOALHERIA", "RAZAO_SOCIAL": "REGIA OTICA E JOALHERIA LTDA", "RESPONSAVEL": "-", "MUNICIPIO": "UBERLANDIA", "BANCO": "-", "LINHA_AVAL_NOME": "-", "STATUS_OPERACIONAL": "APLICAR T2" }, "geometry": { "type": "Point", "coordinates": [ -48.2761367, -18.918621 ] } },
{ "type": "Feature", "properties": { "NROCNPJ_PAD": "07328337000171", "NOME_FANTASIA": "PNEUS MARROCOS", "RAZAO_SOCIAL": "PNEUS MARROCOS LTDA", "RESPONSAVEL": "DORISVALDOJOSEALVESDEMARROQUES|EDINEIDEPEREIRADASILVACRUZMARROQUES", "MUNICIPIO": "UBERLANDIA", "BANCO": "SICOOB", "LINHA_AVAL_NOME": "Giro", "STATUS_OPERACIONAL": "APLICAR T2" }, "geometry": { "type": "Point", "coordinates": [ -48.2889752, -18.9073078 ] } },
{ "type": "Feature", "properties": { "NROCNPJ_PAD": "47942708000125", "NOME_FANTASIA": "-", "RAZAO_SOCIAL": "CHAMPAGNAT SERVICOS EDUCACIONAIS LTDA", "RESPONSAVEL": "GRACIANE NAVES PEREIRA DA COSTA", "MUNICIPIO": "UBERLANDIA", "BANCO": "BDMG", "LINHA_AVAL_NOME": "GIRO", "STATUS_OPERACIONAL": "APLICAR T2" }, "geometry": { "type": "Point", "coordinates": [ -48.2448789, -18.9036362 ] } },
{ "type": "Feature", "properties": { "NROCNPJ_PAD": "56153502000107", "NOME_FANTASIA": "FAGUNNI TRANSPORTES", "RAZAO_SOCIAL": "FAGUNNI TRANSPORTES ESPECIAIS LTDA", "RESPONSAVEL": "DAYANEFAGUNIBARBOSADASILVAPESSOA", "MUNICIPIO": "UBERLANDIA", "BANCO": "SICOOB", "LINHA_AVAL_NOME": "Giro", "STATUS_OPERACIONAL": "APLICAR T2" }, "geometry": { "type": "Point", "coordinates": [ -48.2443681, -18.8984389 ] } },
{ "type": "Feature", "properties": { "NROCNPJ_PAD": "04305908000164", "NOME_FANTASIA": "MARISTAUDI", "RAZAO_SOCIAL": "MARISTA UDI EDUCACAO LTDA", "RESPONSAVEL": "GRACIELLE NAVES PEREIRA DA COSTA", "MUNICIPIO": "UBERLANDIA", "BANCO": "BDMG", "LINHA_AVAL_NOME": "GIRO", "STATUS_OPERACIONAL": "APLICAR T2" }, "geometry": { "type": "Point", "coordinates": [ -48.2449922, -18.9035906 ] } },
{ "type": "Feature", "properties": { "NROCNPJ_PAD": "32448951000114", "NOME_FANTASIA": "7 FITNESS SABIA", "RAZAO_SOCIAL": "7 FITNESS ACADEMIA SABIA LTDA", "RESPONSAVEL": "-", "MUNICIPIO": "UBERLANDIA", "BANCO": "BRADESCO", "LINHA_AVAL_NOME": "-", "STATUS_OPERACIONAL": "APLICAR T2" }, "geometry": { "type": "Point", "coordinates": [ -48.248139, -18.9094706 ] } },
{ "type": "Feature", "properties": { "NROCNPJ_PAD": "10900534000128", "NOME_FANTASIA": "JP VEICULOS", "RAZAO_SOCIAL": "JOAO DIAS BARBOSA NETTO", "RESPONSAVEL": "JOAODIASBARBOSANETTO", "MUNICIPIO": "UBERLANDIA", "BANCO": "SICOOB", "LINHA_AVAL_NOME": "Giro", "STATUS_OPERACIONAL": "APLICAR T2" }, "geometry": { "type": "Point", "coordinates": [ -48.2624175, -18.8935028 ] } },
{ "type": "Feature", "properties": { "NROCNPJ_PAD": "19283792000187", "NOME_FANTASIA": "RONDON SOCIETY", "RAZAO_SOCIAL": "RONDON FUTEBOL SOCIETY LTDA", "RESPONSAVEL": "MATHEUS GIGLIOTTI KASSAGAS|THIAGO GIGLIOTTI KASSAGAS", "MUNICIPIO": "UBERLANDIA", "BANCO": "BDMG", "LINHA_AVAL_NOME": "Giro", "STATUS_OPERACIONAL": "APLICAR T2" }, "geometry": { "type": "Point", "coordinates": [ -48.2797939, -18.9316196 ] } },
{ "type": "Feature", "properties": { "NROCNPJ_PAD": "30346559000139", "NOME_FANTASIA": "PHOENIX CONDOMINIOS", "RAZAO_SOCIAL": "PHOENIX CONDOMINIOS LTDA", "RESPONSAVEL": "DIVINOCESARPEREIRADEOLIVEIRA", "MUNICIPIO": "UBERLANDIA", "BANCO": "SICOOB", "LINHA_AVAL_NOME": "GIRO", "STATUS_OPERACIONAL": "APLICAR T2" }, "geometry": { "type": "Point", "coordinates": [ -48.2775316, -18.9069776 ] } },
{ "type": "Feature", "properties": { "NROCNPJ_PAD": "33629393000156", "NOME_FANTASIA": "PRIME ASSESSORIA IMOBILIARIA", "RAZAO_SOCIAL": "PRIME SERVICOS DE APOIO ADMINISTRATIVO LTDA", "RESPONSAVEL": "BARBARA GONCALVES MENDES|GUSTAVO SOUSA MACHADO RIBEIRO", "MUNICIPIO": "UBERLANDIA", "BANCO": "SICREDI 2", "LINHA_AVAL_NOME": "GIRO", "STATUS_OPERACIONAL": "APLICAR T2" }, "geometry": { "type": "Point", "coordinates": [ -48.2721892, -18.9445589 ] } },
{ "type": "Feature", "properties": { "NROCNPJ_PAD": "55505202000187", "NOME_FANTASIA": "TECTRIB", "RAZAO_SOCIAL": "LFM TECTRIB SOLUCOES LTDA", "RESPONSAVEL": "LEONARDO FERREIRA MIRANDA", "MUNICIPIO": "UBERLANDIA", "BANCO": "BDMG", "LINHA_AVAL_NOME": "GIRO", "STATUS_OPERACIONAL": "APLICAR T2" }, "geometry": { "type": "Point", "coordinates": [ -48.2474353, -18.9566825 ] } },
{ "type": "Feature", "properties": { "NROCNPJ_PAD": "60029904000171", "NOME_FANTASIA": "ALTACREDI SOLUCOES EM CREDITO", "RAZAO_SOCIAL": "ALTACREDI SOLUCOES EM CREDITO LTDA", "RESPONSAVEL": "BARBARAGONCALVESMENDES|GUSTAVOSOUSAMACHADORIBEIRO", "MUNICIPIO": "UBERLANDIA", "BANCO": "SICOOB", "LINHA_AVAL_NOME": "EMPREENDEDORISMO FEM", "STATUS_OPERACIONAL": "APLICAR T2" }, "geometry": { "type": "Point", "coordinates": [ -48.2722055, -18.9446384 ] } },
{ "type": "Feature", "properties": { "NROCNPJ_PAD": "36937315000107", "NOME_FANTASIA": "INOVAR HOME MOVEIS PLANEJADOS", "RAZAO_SOCIAL": "36.937.315 THIAGO PEREIRA CAMPOS", "RESPONSAVEL": "THIAGOPEREIRACAMPOS", "MUNICIPIO": "UBERLANDIA", "BANCO": "SICOOB", "LINHA_AVAL_NOME": "GIRO", "STATUS_OPERACIONAL": "APLICAR T2" }, "geometry": { "type": "Point", "coordinates": [ -48.2601374, -18.8673365 ] } },
{ "type": "Feature", "properties": { "NROCNPJ_PAD": "04633351000190", "NOME_FANTASIA": "-", "RAZAO_SOCIAL": "J J MOLAS LTDA", "RESPONSAVEL": "ROSEVALDO ALVES PEREIRA", "MUNICIPIO": "UBERLANDIA", "BANCO": "BDMG", "LINHA_AVAL_NOME": "GIRO", "STATUS_OPERACIONAL": "APLICAR T2" }, "geometry": { "type": "Point", "coordinates": [ -48.2770793, -18.8747828 ] } },
{ "type": "Feature", "properties": { "NROCNPJ_PAD": "51900562000122", "NOME_FANTASIA": "DIEGO MOURA", "RAZAO_SOCIAL": "SAINT JOSEPH MOSCATI LTDA", "RESPONSAVEL": "DIEGO PATRICK VELOSO DE MOURA", "MUNICIPIO": "UBERLANDIA", "BANCO": "BDMG", "LINHA_AVAL_NOME": "GIRO", "STATUS_OPERACIONAL": "APLICAR T2" }, "geometry": { "type": "Point", "coordinates": [ -48.2732534, -18.8764283 ] } },
{ "type": "Feature", "properties": { "NROCNPJ_PAD": "33241432000143", "NOME_FANTASIA": "TORNEADORA UNIAO", "RAZAO_SOCIAL": "TORNEADORA UNIAO LTDA", "RESPONSAVEL": "HAMILTONDECASTROAGRANITO", "MUNICIPIO": "UBERLANDIA", "BANCO": "SICOOB", "LINHA_AVAL_NOME": "Giro", "STATUS_OPERACIONAL": "APLICAR T2" }, "geometry": { "type": "Point", "coordinates": [ -48.2666885, -18.8695637 ] } },
{ "type": "Feature", "properties": { "NROCNPJ_PAD": "32098146000108", "NOME_FANTASIA": "ROMARIO BARBER", "RAZAO_SOCIAL": "ROMARIO BARBER SHOP LTDA", "RESPONSAVEL": "ROMARIODELIMADANTAS", "MUNICIPIO": "UBERLANDIA", "BANCO": "SICOOB", "LINHA_AVAL_NOME": "Giro", "STATUS_OPERACIONAL": "APLICAR T2" }, "geometry": { "type": "Point", "coordinates": [ -48.2837997, -18.8978479 ] } },
{ "type": "Feature", "properties": { "NROCNPJ_PAD": "62747525000142", "NOME_FANTASIA": "-", "RAZAO_SOCIAL": "62.747.525 MARIA DO ROSARIO BATISTA", "RESPONSAVEL": "MARIADOROSARIOBATISTA", "MUNICIPIO": "UBERLANDIA", "BANCO": "SICOOB", "LINHA_AVAL_NOME": "Empreendedorismo Fem", "STATUS_OPERACIONAL": "APLICAR T2" }, "geometry": { "type": "Point", "coordinates": [ -48.2955362, -18.8973275 ] } },
{ "type": "Feature", "properties": { "NROCNPJ_PAD": "03327760000104", "NOME_FANTASIA": "INVERNADA AGRONEGOCIOS", "RAZAO_SOCIAL": "MURILO ASSUNCAO DE QUEIROZ", "RESPONSAVEL": "MURILO ASSUNCAO DE QUEIROZ", "MUNICIPIO": "UBERLANDIA", "BANCO": "BDMG", "LINHA_AVAL_NOME": "Giro", "STATUS_OPERACIONAL": "APLICAR T2" }, "geometry": { "type": "Point", "coordinates": [ -48.3005361, -18.9302684 ] } },
{ "type": "Feature", "properties": { "NROCNPJ_PAD": "18402338000135", "NOME_FANTASIA": "-", "RAZAO_SOCIAL": "NOVA AVA CORRETORA DE SEGUROS LTDA", "RESPONSAVEL": "SEBASTIAO INES TEIXEIRA|VINICIUS HENRIQUE TEIXEIRA", "MUNICIPIO": "UBERLANDIA", "BANCO": "BDMG", "LINHA_AVAL_NOME": "Giro", "STATUS_OPERACIONAL": "APLICAR T2" }, "geometry": { "type": "Point", "coordinates": [ -48.2910423, -18.949169 ] } },
{ "type": "Feature", "properties": { "NROCNPJ_PAD": "20714597000143", "NOME_FANTASIA": "MAIS TINTAS", "RAZAO_SOCIAL": "ABSOLUTA COMERCIO DE TINTAS LTDA", "RESPONSAVEL": "RICARDO SILVA FELIX", "MUNICIPIO": "UBERLANDIA", "BANCO": "BDMG", "LINHA_AVAL_NOME": "GIRO", "STATUS_OPERACIONAL": "APLICAR T2" }, "geometry": { "type": "Point", "coordinates": [ -48.2855702, -18.8937147 ] } },
{ "type": "Feature", "properties": { "NROCNPJ_PAD": "32253673000140", "NOME_FANTASIA": "PRIME DISTRIBUIDORA", "RAZAO_SOCIAL": "PRIME DISTRIBUIDORA DE EMBALAGENS LTDA", "RESPONSAVEL": "MARIA ROSA DA SILVA", "MUNICIPIO": "UBERLANDIA", "BANCO": "BDMG", "LINHA_AVAL_NOME": "GIRO", "STATUS_OPERACIONAL": "APLICAR T2" }, "geometry": { "type": "Point", "coordinates": [ -48.2844981, -18.8844485 ] } },
{ "type": "Feature", "properties": { "NROCNPJ_PAD": "23006068000183", "NOME_FANTASIA": "-", "RAZAO_SOCIAL": "RIMAR DINIZ VIEIRA JUNIOR", "RESPONSAVEL": "RIMARDINIZVIEIRAJUNIOR", "MUNICIPIO": "UBERLANDIA", "BANCO": "SICOOB", "LINHA_AVAL_NOME": "GIRO", "STATUS_OPERACIONAL": "APLICAR T2" }, "geometry": { "type": "Point", "coordinates": [ -48.2696076, -18.8802508 ] } },
{ "type": "Feature", "properties": { "NROCNPJ_PAD": "17506442000107", "NOME_FANTASIA": "GRUPO VIVERE", "RAZAO_SOCIAL": "CARVALHO & INOCENCIO SERVICOS MEDICOS LTDA", "RESPONSAVEL": "ISABELATARGASINOCENCIODECARVALHO|MARNAYHELBODECARVALHO", "MUNICIPIO": "UBERLANDIA", "BANCO": "SICOOB", "LINHA_AVAL_NOME": "GIRO", "STATUS_OPERACIONAL": "APLICAR T2" }, "geometry": { "type": "Point", "coordinates": [ -48.2694984, -18.9478178 ] } },
{ "type": "Feature", "properties": { "NROCNPJ_PAD": "29783228000187", "NOME_FANTASIA": "BARROS & MILINSKI", "RAZAO_SOCIAL": "BARROS E REIS SERVICOS E CONSULTORIA LTDA", "RESPONSAVEL": "PEDRO LUIZ DOS REIS BARROS", "MUNICIPIO": "UBERLANDIA", "BANCO": "BDMG", "LINHA_AVAL_NOME": "GIRO", "STATUS_OPERACIONAL": "APLICAR T2" }, "geometry": { "type": "Point", "coordinates": [ -48.2684929, -18.8920251 ] } },
{ "type": "Feature", "properties": { "NROCNPJ_PAD": "21734720000150", "NOME_FANTASIA": "JBG COMERCIO DE PRODUTOS GRAFICOS", "RAZAO_SOCIAL": "JBG COMERCIO DE PRODUTOS GRAFICOS LTDA", "RESPONSAVEL": "EDONES BRUNO", "MUNICIPIO": "UBERLANDIA", "BANCO": "BDMG", "LINHA_AVAL_NOME": "GIRO", "STATUS_OPERACIONAL": "APLICAR T2" }, "geometry": { "type": "Point", "coordinates": [ -48.2901785, -18.8814634 ] } },
{ "type": "Feature", "properties": { "NROCNPJ_PAD": "09646676000121", "NOME_FANTASIA": "GS SERVICOS LTDA", "RAZAO_SOCIAL": "GOMES & SILVA SERVICOS LTDA", "RESPONSAVEL": "JUCELITOGOMESDASILVA", "MUNICIPIO": "UBERLANDIA", "BANCO": "SICOOB", "LINHA_AVAL_NOME": "GIRO", "STATUS_OPERACIONAL": "APLICAR T2" }, "geometry": { "type": "Point", "coordinates": [ -48.2648448, -18.8916094 ] } },
{ "type": "Feature", "properties": { "NROCNPJ_PAD": "04208852000120", "NOME_FANTASIA": "-", "RAZAO_SOCIAL": "TRIANGULIN AUTO ELETRICO LTDA", "RESPONSAVEL": "-", "MUNICIPIO": "UBERLANDIA", "BANCO": "BRADESCO", "LINHA_AVAL_NOME": "GIRO", "STATUS_OPERACIONAL": "APLICAR T2" }, "geometry": { "type": "Point", "coordinates": [ -48.2636346, -18.886491 ] } },
{ "type": "Feature", "properties": { "NROCNPJ_PAD": "52692396000189", "NOME_FANTASIA": "SEU EURICO BAR", "RAZAO_SOCIAL": "SEU EURICO BAR LTDA", "RESPONSAVEL": "LUCASRIBEIROAMPARO|PAOLAVITORIASILVABORGES", "MUNICIPIO": "UBERLANDIA", "BANCO": "SICOOB", "LINHA_AVAL_NOME": "GIRO", "STATUS_OPERACIONAL": "APLICAR T2" }, "geometry": { "type": "Point", "coordinates": [ -48.2350924, -18.9151553 ] } },
{ "type": "Feature", "properties": { "NROCNPJ_PAD": "32325583000117", "NOME_FANTASIA": "AMPLA ADMINISTRADORA DE CONDOMINIOS", "RAZAO_SOCIAL": "AMPLA ADMINISTRADORA DE CONDOMINIOS E RECUPERACAO DE CREDITO LTDA", "RESPONSAVEL": "ANDERSONROSAVAZ", "MUNICIPIO": "UBERLANDIA", "BANCO": "SICOOB", "LINHA_AVAL_NOME": "GIRO", "STATUS_OPERACIONAL": "APLICAR T2" }, "geometry": { "type": "Point", "coordinates": [ -48.2577203, -18.8964612 ] } },
{ "type": "Feature", "properties": { "NROCNPJ_PAD": "46842002000129", "NOME_FANTASIA": "SANTIAGO PISCINAS", "RAZAO_SOCIAL": "SANTIAGO PISCINAS LTDA", "RESPONSAVEL": "EDUARDO SANTIAGO MERCADANTE SOARES", "MUNICIPIO": "UBERLANDIA", "BANCO": "BDMG", "LINHA_AVAL_NOME": "Giro", "STATUS_OPERACIONAL": "APLICAR T2" }, "geometry": { "type": "Point", "coordinates": [ -48.2618812, -18.8875214 ] } },
{ "type": "Feature", "properties": { "NROCNPJ_PAD": "71442362000180", "NOME_FANTASIA": "-", "RAZAO_SOCIAL": "SEBASTIAO CELSO MIRANDA", "RESPONSAVEL": "SEBASTIAOCELSOMIRANDA", "MUNICIPIO": "UBERLANDIA", "BANCO": "SICOOB", "LINHA_AVAL_NOME": "GIRO", "STATUS_OPERACIONAL": "APLICAR T2" }, "geometry": { "type": "Point", "coordinates": [ -48.3261931, -18.9131875 ] } },
{ "type": "Feature", "properties": { "NROCNPJ_PAD": "48335917000173", "NOME_FANTASIA": "CACAU SHOW", "RAZAO_SOCIAL": "LEAO DE FREITAS COMERCIO VAREJISTA DE CHOCOLATES FINOS LTDA", "RESPONSAVEL": "GABRIELLALEAODEFREITAS|HELOISALEAODEFREITAS", "MUNICIPIO": "UBERLANDIA", "BANCO": "SICOOB", "LINHA_AVAL_NOME": "GIRO", "STATUS_OPERACIONAL": "APLICAR T2" }, "geometry": { "type": "Point", "coordinates": [ -48.3286119, -18.9156133 ] } },
{ "type": "Feature", "properties": { "NROCNPJ_PAD": "57049901000195", "NOME_FANTASIA": "MAGAZINE DA VAL", "RAZAO_SOCIAL": "COMERCIAL VAREJISTA AZEVEDO LTDA", "RESPONSAVEL": "WILLIANAZEVEDOSILVA", "MUNICIPIO": "UBERLANDIA", "BANCO": "SICOOB", "LINHA_AVAL_NOME": "GIRO", "STATUS_OPERACIONAL": "APLICAR T2" }, "geometry": { "type": "Point", "coordinates": [ -48.3295647, -18.916693 ] } },
{ "type": "Feature", "properties": { "NROCNPJ_PAD": "22051543000170", "NOME_FANTASIA": "STOCK CAR", "RAZAO_SOCIAL": "LLMR PRESTACAO DE SERVICOS LTDA", "RESPONSAVEL": "LISIANECAROLINEBATISTA", "MUNICIPIO": "UBERLANDIA", "BANCO": "SICOOB", "LINHA_AVAL_NOME": "EMPREENDEDORISMO FEM", "STATUS_OPERACIONAL": "APLICAR T2" }, "geometry": { "type": "Point", "coordinates": [ -48.2679172, -18.8670858 ] } },
{ "type": "Feature", "properties": { "NROCNPJ_PAD": "54236453000140", "NOME_FANTASIA": "ATACADAO DAS RACOES", "RAZAO_SOCIAL": "COMERCIAL OLIVEIRA VAREJO E ATACADO LTDA", "RESPONSAVEL": "-", "MUNICIPIO": "UBERLANDIA", "BANCO": "-", "LINHA_AVAL_NOME": "-", "STATUS_OPERACIONAL": "APLICAR T2" }, "geometry": { "type": "Point", "coordinates": [ -48.291129, -18.9139114 ] } },
{ "type": "Feature", "properties": { "NROCNPJ_PAD": "43044000000104", "NOME_FANTASIA": "EMPORIO M & V", "RAZAO_SOCIAL": "EMPORIO M & V LTDA", "RESPONSAVEL": "MARCO ANTONIO RIBEIRO", "MUNICIPIO": "UBERLANDIA", "BANCO": "SICREDI 2", "LINHA_AVAL_NOME": "GIRO", "STATUS_OPERACIONAL": "APLICAR T2" }, "geometry": { "type": "Point", "coordinates": [ -48.3278847, -18.9094456 ] } },
{ "type": "Feature", "properties": { "NROCNPJ_PAD": "34269717000155", "NOME_FANTASIA": "ESQUINA DA TILAPIA", "RAZAO_SOCIAL": "BAR E RESTAURANTE ESQUINA DA TILAPIA LTDA", "RESPONSAVEL": "PATRIC RODRIGUES ROCHA", "MUNICIPIO": "UBERLANDIA", "BANCO": "BDMG", "LINHA_AVAL_NOME": "GIRO", "STATUS_OPERACIONAL": "APLICAR T2" }, "geometry": { "type": "Point", "coordinates": [ -48.3392684, -18.9178513 ] } },
{ "type": "Feature", "properties": { "NROCNPJ_PAD": "59950316000197", "NOME_FANTASIA": "-", "RAZAO_SOCIAL": "PH AREIAS BRITAS E TRANSPORTE LTDA", "RESPONSAVEL": "PEDRO HENRIQUE SILVA SANTANA ", "MUNICIPIO": "UBERLANDIA", "BANCO": "-", "LINHA_AVAL_NOME": "#N/D", "STATUS_OPERACIONAL": "APLICAR T2" }, "geometry": { "type": "Point", "coordinates": [ -48.3360141, -18.9378082 ] } },
{ "type": "Feature", "properties": { "NROCNPJ_PAD": "49316281000185", "NOME_FANTASIA": "L F D SERVICOS DE APOIO ADMINISTRATIVOS", "RAZAO_SOCIAL": "L F D SERVICOS DE APOIO ADMINISTRATIVOS LTDA", "RESPONSAVEL": "LUIZ FERNANDO DUARTE", "MUNICIPIO": "UBERLANDIA", "BANCO": "BDMG", "LINHA_AVAL_NOME": "Giro", "STATUS_OPERACIONAL": "APLICAR T2" }, "geometry": { "type": "Point", "coordinates": [ -48.3370695, -18.9374836 ] } },
{ "type": "Feature", "properties": { "NROCNPJ_PAD": "20532580000175", "NOME_FANTASIA": "TEMPERO EM FAMILIA", "RAZAO_SOCIAL": "ERLON PATRICK R.DA SILVA", "RESPONSAVEL": "ERLONPATRICKRAMOSDASILVA", "MUNICIPIO": "UBERLANDIA", "BANCO": "SICOOB", "LINHA_AVAL_NOME": "Giro", "STATUS_OPERACIONAL": "APLICAR T2" }, "geometry": { "type": "Point", "coordinates": [ -48.3158997, -18.9448035 ] } },
{ "type": "Feature", "properties": { "NROCNPJ_PAD": "58434411000175", "NOME_FANTASIA": "-", "RAZAO_SOCIAL": "DECK 76 COMERCIO LTDA", "RESPONSAVEL": "NARILEYJOSERODRIGUESPEREIRA|THATIELLEDELIMAPAMPLONA", "MUNICIPIO": "UBERLANDIA", "BANCO": "SICOOB", "LINHA_AVAL_NOME": "GIRO", "STATUS_OPERACIONAL": "APLICAR T2" }, "geometry": { "type": "Point", "coordinates": [ -48.3077081, -18.9410435 ] } },
{ "type": "Feature", "properties": { "NROCNPJ_PAD": "49033489000197", "NOME_FANTASIA": "CORTINAS E ALMOFADAS ELIANE - SOB MEDIDA", "RAZAO_SOCIAL": "49.033.489 ELIANE MELO DE OLIVEIRA", "RESPONSAVEL": "ELIANEMELODEOLIVEIRA", "MUNICIPIO": "UBERLANDIA", "BANCO": "SICOOB", "LINHA_AVAL_NOME": "EMPREENDEDORISMO FEM", "STATUS_OPERACIONAL": "APLICAR T2" }, "geometry": { "type": "Point", "coordinates": [ -48.3232204, -18.9046554 ] } },
{ "type": "Feature", "properties": { "NROCNPJ_PAD": "01411323000130", "NOME_FANTASIA": "MARMOMAX", "RAZAO_SOCIAL": "HM MARMORE E GRANITO LTDA", "RESPONSAVEL": "-", "MUNICIPIO": "UBERLANDIA", "BANCO": "BRADESCO", "LINHA_AVAL_NOME": "GIRO", "STATUS_OPERACIONAL": "APLICAR T2" }, "geometry": { "type": "Point", "coordinates": [ -48.3195092, -18.9068751 ] } },
{ "type": "Feature", "properties": { "NROCNPJ_PAD": "18536558000151", "NOME_FANTASIA": "RODRIGUES MATERIAIS DE CONSTRUCAO E AGRO", "RAZAO_SOCIAL": "RODRIGUES MATERIAIS DE CONSTRUCAO E AGRO LTDA", "RESPONSAVEL": "ELCIMARFERNANDESRODRIGUES", "MUNICIPIO": "UBERLANDIA", "BANCO": "SICOOB", "LINHA_AVAL_NOME": "EMPREENDEDORISMO FEM", "STATUS_OPERACIONAL": "APLICAR T2" }, "geometry": { "type": "Point", "coordinates": [ -48.2007722, -18.913736 ] } }
]
}
