{
"type": "FeatureCollection",
"name": "MURIAE",
"crs": { "type": "name", "properties": { "name": "urn:ogc:def:crs:OGC:1.3:CRS84" } },
"features": [
{ "type": "Feature", "properties": { "NROCNPJ_PAD": "04230943000161", "NOME_FANTASIA": "-", "RAZAO_SOCIAL": "J.M. BALANCAS E PECAS DE MURIAE LTDA", "RESPONSAVEL": "CASSIOSILVAOLIVEIRA|JOSEMARIODEOLIVEIRA|MARIASTELADELFINOROSA", "MUNICIPIO": "MURIAE", "ENDEE": "RUA MARECHAL FLORIANO, 40, LOJA, BARRA, 36884-113, MURIAÉ, MG, BRASIL", "BANCO": "SICOOB", "LINHA_AVAL_NOME": "Giro", "STATUS": "AGENDADO" }, "geometry": { "type": "Point", "coordinates": [ -42.3828209, -21.1280495 ] } },
{ "type": "Feature", "properties": { "NROCNPJ_PAD": "05024747000101", "NOME_FANTASIA": "CAROL DISTRIBUIDORA DE MURIAE LTDA", "RAZAO_SOCIAL": "CAROL DISTRIBUIDORA DE MURIAE LTDA", "RESPONSAVEL": "CARLOSALBERTODEPAULA", "MUNICIPIO": "MURIAE", "ENDEE": "RUA JOSE MAXIMO RIBEIRO, 280, COLETY, 36880-180, MURIAÉ, MG, BRASIL", "BANCO": "SICOOB", "LINHA_AVAL_NOME": "Giro", "STATUS": "AGENDADO" }, "geometry": { "type": "Point", "coordinates": [ -42.3723263, -21.1380463 ] } },
{ "type": "Feature", "properties": { "NROCNPJ_PAD": "27266936000115", "NOME_FANTASIA": "RM SEGURANCA PERIMETRAL", "RAZAO_SOCIAL": "27.266.936 RONALDO MARQUES DE SOUZA", "RESPONSAVEL": "RONALDOMARQUESDESOUZA", "MUNICIPIO": "MURIAE", "ENDEE": "RUA JOSE MAXIMO RIBEIRO, 250, COLETY, 36880-180, MURIAÉ, MG, BRASIL", "BANCO": "SICOOB", "LINHA_AVAL_NOME": "Giro", "STATUS": "AGENDADO" }, "geometry": { "type": "Point", "coordinates": [ -42.3721273, -21.1381914 ] } },
{ "type": "Feature", "properties": { "NROCNPJ_PAD": "19129636000166", "NOME_FANTASIA": "ESTAMPARIA ARCO IRIS", "RAZAO_SOCIAL": "NELSINA MARIA DE SOUZA", "RESPONSAVEL": "FLAVIADESOUZAALMEIDAMONTEIRO|NELSINAMARIADESOUZA", "MUNICIPIO": "MURIAE", "ENDEE": "RUA ELOI CARNEIRO MELO, 170, CARDOSO DE MELO, 36887-222, MURIAÉ, MG, BRASIL", "BANCO": "SICOOB", "LINHA_AVAL_NOME": "Giro", "STATUS": "AGENDADO" }, "geometry": { "type": "Point", "coordinates": [ -42.401258, -21.127029 ] } },
{ "type": "Feature", "properties": { "NROCNPJ_PAD": "19662565000162", "NOME_FANTASIA": "PARADISE BOUTIQUE", "RAZAO_SOCIAL": "PARADISE BOUTIQUE LTDA", "RESPONSAVEL": "DEIVERSONMACHADOHENRIQUES|WENDELSOANICALDEIRA", "MUNICIPIO": "MURIAE", "ENDEE": "RUA CORONEL MARCIANO RODRIGUES, 268, LOJA 2, CENTRO, 36880-027, MURIAÉ, MG, BRASIL", "BANCO": "SICOOB", "LINHA_AVAL_NOME": "Giro", "STATUS": "AGENDADO" }, "geometry": { "type": "Point", "coordinates": [ -42.3607163, -21.1310077 ] } },
{ "type": "Feature", "properties": { "NROCNPJ_PAD": "22681864000159", "NOME_FANTASIA": "-", "RAZAO_SOCIAL": "HENRI CONCEPT HAIR LTDA.", "RESPONSAVEL": "CARLOSHENRIQUEMARTINSHIGINO", "MUNICIPIO": "MURIAE", "ENDEE": "RUA CAPITAO JOSE JUSTINO, 90, CENTRO, 36880-029, MURIAÉ, MG, BRASIL", "BANCO": "SICOOB", "LINHA_AVAL_NOME": "Giro", "STATUS": "AGENDADO" }, "geometry": { "type": "Point", "coordinates": [ -42.364046, -21.129996 ] } },
{ "type": "Feature", "properties": { "NROCNPJ_PAD": "17800040000110", "NOME_FANTASIA": "PANI DE VITORIA", "RAZAO_SOCIAL": "WILLIAN CARDOSO SOARES 04381013670", "RESPONSAVEL": "WILLIANCARDOSOSOARES", "MUNICIPIO": "MURIAE", "ENDEE": "AVENIDA SILVERIO CAMPOS, 716, SAFIRA, 36883-051, MURIAÉ, MG, BRASIL", "BANCO": "SICOOB", "LINHA_AVAL_NOME": "Giro", "STATUS": "RETORNAR_COMERCIAL" }, "geometry": { "type": "Point", "coordinates": [ -42.3773324, -21.132938 ] } },
{ "type": "Feature", "properties": { "NROCNPJ_PAD": "06043001000108", "NOME_FANTASIA": "AGRO-BOI", "RAZAO_SOCIAL": "AGRO-BOI DE MURIAE LTDA", "RESPONSAVEL": "CRISTIANOLEVATEDECARVALHO|JOSEGERALDODECARVALHO|RAMONLEVATEDECARVALHO", "MUNICIPIO": "MURIAE", "ENDEE": "RUA GIL MOREIRA, 44, BARRA, 36884-112, MURIAÉ, MG, BRASIL", "BANCO": "SICOOB", "LINHA_AVAL_NOME": "Giro", "STATUS": "RETORNAR_COMERCIAL" }, "geometry": { "type": "Point", "coordinates": [ -42.3822629, -21.1278854 ] } },
{ "type": "Feature", "properties": { "NROCNPJ_PAD": "27923123000150", "NOME_FANTASIA": "SONHO LINDO", "RAZAO_SOCIAL": "COMERCIO DE COLCHOES CABRAL LTDA", "RESPONSAVEL": "ANACRISTINACABRALDEMENDONCA", "MUNICIPIO": "MURIAE", "ENDEE": "RUA DOUTOR SILVEIRA BRUM, 65, CENTRO, 36880-071, MURIAÉ, MG, BRASIL", "BANCO": "SICOOB", "LINHA_AVAL_NOME": "Empreendedorismo Fem", "STATUS": "RETORNAR_COMERCIAL" }, "geometry": { "type": "Point", "coordinates": [ -42.3639708, -21.1317858 ] } },
{ "type": "Feature", "properties": { "NROCNPJ_PAD": "43299863000114", "NOME_FANTASIA": "SEMPRE BELLA", "RAZAO_SOCIAL": "AM PRESTACAO DE SERVICOS DE MURIAE LTDA", "RESPONSAVEL": "ANA MARIA VIEIRA MARQUEZ", "MUNICIPIO": "MURIAE", "ENDEE": "RUA DOUTOR SILVEIRA BRUM, 114, ANDAR SEGUNDO, CENTRO, 36880-071, MURIAÉ, MG, BRASIL", "BANCO": "ESTÍMULO", "LINHA_AVAL_NOME": "Investimento + giro", "STATUS": "RETORNAR_COMERCIAL" }, "geometry": { "type": "Point", "coordinates": [ -42.3645285, -21.1320772 ] } },
{ "type": "Feature", "properties": { "NROCNPJ_PAD": "37471275000113", "NOME_FANTASIA": "-", "RAZAO_SOCIAL": "PAULIENNE COMERCIO ELETRONICO DE ROUPAS LTDA", "RESPONSAVEL": "PAULINA DE SOUZA GOUVEA PEREIRA", "MUNICIPIO": "MURIAE", "ENDEE": "AVENIDA DOUTOR PASSOS, 738, FUNDOSB, BARRA, 36884-002, MURIAÉ, MG, BRASIL", "BANCO": "BDMG", "LINHA_AVAL_NOME": "Giro", "STATUS": "RETORNAR_COMERCIAL" }, "geometry": { "type": "Point", "coordinates": [ -42.37282, -21.129228 ] } },
{ "type": "Feature", "properties": { "NROCNPJ_PAD": "61870765000177", "NOME_FANTASIA": "SAGRADO CAFE BISTRO", "RAZAO_SOCIAL": "SAGRADO CAFE BISTRO LTDA.", "RESPONSAVEL": "LUIZ INACIO VERDEIRO ROQUE", "MUNICIPIO": "MURIAE", "ENDEE": "PRACA CORONEL PACHECO DE MEDEIROS, 30, CENTRO, 36880-015, MURIAÉ, MG, BRASIL", "BANCO": "SICREDI 2", "LINHA_AVAL_NOME": "Giro", "STATUS": "RETORNAR_COMERCIAL" }, "geometry": { "type": "Point", "coordinates": [ -42.3656603, -21.1308132 ] } },
{ "type": "Feature", "properties": { "NROCNPJ_PAD": "17188774000190", "NOME_FANTASIA": "-", "RAZAO_SOCIAL": "L S RANCAO - SORVETERIA", "RESPONSAVEL": "LEONARDO SILVA RANCAO", "MUNICIPIO": "MURIAE", "ENDEE": "AVENIDA CONSTANTINO PINTO, 161, CENTRO, 36880-003, MURIAÉ, MG, BRASIL", "BANCO": "BDMG", "LINHA_AVAL_NOME": "Giro", "STATUS": "RETORNAR_COMERCIAL" }, "geometry": { "type": "Point", "coordinates": [ -42.370134, -21.130641 ] } },
{ "type": "Feature", "properties": { "NROCNPJ_PAD": "01779993000104", "NOME_FANTASIA": "ELETRICA DO POVO", "RAZAO_SOCIAL": "MANOEL DIAS NERY", "RESPONSAVEL": "MANOEL DIAS NERY", "MUNICIPIO": "MURIAE", "ENDEE": "RUA BENEDITO VALADARES, 488, BARRA, 36884-084, MURIAÉ, MG, BRASIL", "BANCO": "BDMG", "LINHA_AVAL_NOME": "Giro", "STATUS": "RETORNAR_COMERCIAL" }, "geometry": { "type": "Point", "coordinates": [ -42.3789998, -21.1296171 ] } },
{ "type": "Feature", "properties": { "NROCNPJ_PAD": "35881279000144", "NOME_FANTASIA": "-", "RAZAO_SOCIAL": "HIPPOCAMPUS LTDA", "RESPONSAVEL": "SERGIOGOMESDASILVA", "MUNICIPIO": "MURIAE", "ENDEE": "RUA LUIZ HENRIQUE CARNEIRO, 255, APT 301, CHACARA DA GAVEA, 36889-028, MURIAÉ, MG, BRASIL", "BANCO": "SICOOB", "LINHA_AVAL_NOME": "Giro", "STATUS": "RETORNAR_RESIDENCIAL" }, "geometry": { "type": "Point", "coordinates": [ -42.3680077, -21.1248911 ] } },
{ "type": "Feature", "properties": { "NROCNPJ_PAD": "49548026000168", "NOME_FANTASIA": "BRAKBULL", "RAZAO_SOCIAL": "BRAKBULL INDUSTRIA LTDA", "RESPONSAVEL": "LETICIACARDOSOGARCIA", "MUNICIPIO": "MURIAE", "ENDEE": "RUA LOURENCO CANDIDO MAGALHAES, 4, CARDOSO DE MELO, 36887-227, MURIAÉ, MG, BRASIL", "BANCO": "SICOOB", "LINHA_AVAL_NOME": "Giro", "STATUS": "RETORNAR_RESIDENCIAL" }, "geometry": { "type": "Point", "coordinates": [ -42.4034719, -21.1280361 ] } },
{ "type": "Feature", "properties": { "NROCNPJ_PAD": "22125487000171", "NOME_FANTASIA": "GRAZIELA SALOMAO - ASSESSORIA E CERIMONIAL", "RAZAO_SOCIAL": "GRAZIELA RODRIGUES SALOMAO 07092559693", "RESPONSAVEL": "GRAZIELARODRIGUESSALOMAO", "MUNICIPIO": "MURIAE", "ENDEE": "RUA JULIO BRANDAO, 55, APT 402, BARRA, 36884-005, MURIAÉ, MG, BRASIL", "BANCO": "SICOOB", "LINHA_AVAL_NOME": "Giro", "STATUS": "RETORNAR_RESIDENCIAL" }, "geometry": { "type": "Point", "coordinates": [ -42.3715946, -21.1296233 ] } },
{ "type": "Feature", "properties": { "NROCNPJ_PAD": "43077276000180", "NOME_FANTASIA": "BORRACHARIA E OFICINA DO EDINHO", "RAZAO_SOCIAL": "43.077.276 DYENIFER PARMIER SILVA GARCIA", "RESPONSAVEL": "DYENIFERPARMIERSILVAGARCIA", "MUNICIPIO": "MURIAE", "ENDEE": "RUA RUTH DO CARMO, 385, MACUCO, 36892-600, MURIAÉ, MG, BRASIL", "BANCO": "SICOOB", "LINHA_AVAL_NOME": "Giro", "STATUS": "RETORNAR_RESIDENCIAL" }, "geometry": { "type": "Point", "coordinates": [ -42.403206, -21.1297316 ] } },
{ "type": "Feature", "properties": { "NROCNPJ_PAD": "34669498000100", "NOME_FANTASIA": "CREDIARIO AGUIAR", "RAZAO_SOCIAL": "LEANDRO AGUIAR DA SILVA 04888602611", "RESPONSAVEL": "LEANDROAGUIARDASILVA", "MUNICIPIO": "MURIAE", "ENDEE": "RUA LIRIO CESAR RAMOS, 220, BOM PASTOR, 36887-166, MURIAÉ, MG, BRASIL", "BANCO": "SICOOB", "LINHA_AVAL_NOME": "Giro", "STATUS": "RETORNAR_RESIDENCIAL" }, "geometry": { "type": "Point", "coordinates": [ -42.4037043, -21.1308395 ] } },
{ "type": "Feature", "properties": { "NROCNPJ_PAD": "23542777000183", "NOME_FANTASIA": "-", "RAZAO_SOCIAL": "NATALIA NOGUEIRA DEMARQUE RODRIGUES", "RESPONSAVEL": "-", "MUNICIPIO": "MURIAE", "ENDEE": "RUA SAO DIMAS, 12, DORNELAS, 36884-216, MURIAÉ, MG, BRASIL", "BANCO": "BRADESCO", "LINHA_AVAL_NOME": "GIRO", "STATUS": "RETORNAR_RESIDENCIAL" }, "geometry": { "type": "Point", "coordinates": [ -42.3895855, -21.1321306 ] } },
{ "type": "Feature", "properties": { "NROCNPJ_PAD": "30301698000146", "NOME_FANTASIA": "LARA GUEDES BUFFET E DECORACOES", "RAZAO_SOCIAL": "LARA OLIVEIRA GUEDES DOS SANTOS 05149915696", "RESPONSAVEL": "LARAOLIVEIRAGUEDESDOSSANTOS", "MUNICIPIO": "MURIAE", "ENDEE": "RUA DOUTOR OLAVO TOSTES, 163, CENTRO, 36880-023, MURIAÉ, MG, BRASIL", "BANCO": "SICOOB", "LINHA_AVAL_NOME": "Giro", "STATUS": "RETORNAR_RESIDENCIAL" }, "geometry": { "type": "Point", "coordinates": [ -42.365276, -21.129371 ] } },
{ "type": "Feature", "properties": { "NROCNPJ_PAD": "33185815000141", "NOME_FANTASIA": "MAIRINK & OLIVEIRA REPRESENTACAO", "RAZAO_SOCIAL": "MAIRINK & OLIVEIRA REPRESENTACAO LTDA", "RESPONSAVEL": "LUCASMAIRINKDEOLIVEIRA", "MUNICIPIO": "MURIAE", "ENDEE": "RUA DOUTOR NILO PACHECO DE MEDEIROS, 595, APT 03, SANTANA, 36887-100, MURIAÉ, MG, BRASIL", "BANCO": "SICOOB", "LINHA_AVAL_NOME": "Giro", "STATUS": "RETORNAR_RESIDENCIAL" }, "geometry": { "type": "Point", "coordinates": [ -42.4025419, -21.133902 ] } },
{ "type": "Feature", "properties": { "NROCNPJ_PAD": "53587369000109", "NOME_FANTASIA": "-", "RAZAO_SOCIAL": "PH SERVICOS ESPECIALIZADOS LTDA", "RESPONSAVEL": "TAYNAPORFIROCOSTA", "MUNICIPIO": "MURIAE", "ENDEE": "RUA CAPITAO WILLIAM DA COSTA PEREIRA, 300, PORTO BELO, 36889-209, MURIAÉ, MG, BRASIL", "BANCO": "SICOOB", "LINHA_AVAL_NOME": "Giro", "STATUS": "RETORNAR_RESIDENCIAL" }, "geometry": { "type": "Point", "coordinates": [ -42.3521699, -21.1237236 ] } },
{ "type": "Feature", "properties": { "NROCNPJ_PAD": "30979051000178", "NOME_FANTASIA": "CHURRASQUINHO DA DINA", "RAZAO_SOCIAL": "CHURRASQUINHOS DA DINA LTDA", "RESPONSAVEL": "WILSONDIONISIODEOLIVEIRA", "MUNICIPIO": "MURIAE", "ENDEE": "AVENIDA ALTINO RODRIGUES PEREIRA, 188, CASA, JOSE CIRILO, 36886-009, MURIAÉ, MG, BRASIL", "BANCO": "SICOOB", "LINHA_AVAL_NOME": "Giro", "STATUS": "RETORNAR_RESIDENCIAL" }, "geometry": { "type": "Point", "coordinates": [ -42.3984994, -21.1342601 ] } },
{ "type": "Feature", "properties": { "NROCNPJ_PAD": "34747422000147", "NOME_FANTASIA": "-", "RAZAO_SOCIAL": "MARLY CRISTINA DA ROCHA CORREA 04853656693", "RESPONSAVEL": "MARLYCRISTINADAROCHACORREA", "MUNICIPIO": "MURIAE", "ENDEE": "AVENIDA REGINA ANTUNES NAPOLEAO, 238, CARDOSO DE MELO, 36887-215, MURIAÉ, MG, BRASIL", "BANCO": "SICOOB", "LINHA_AVAL_NOME": "Giro", "STATUS": "RETORNAR_RESIDENCIAL" }, "geometry": { "type": "Point", "coordinates": [ -42.3975573, -21.1284651 ] } },
{ "type": "Feature", "properties": { "NROCNPJ_PAD": "28402502000168", "NOME_FANTASIA": "TIO VOVO FESTAS", "RAZAO_SOCIAL": "SAMIRIS SILVA DUTRA PAUL", "RESPONSAVEL": "SAMIRIS SILVA DUTRA PAUL", "MUNICIPIO": "MURIAE", "ENDEE": "RUA WILSON FRUTUOSO BRAGA, 64, CHACARA DOUTOR BRUM, 36889-048, MURIAÉ, MG, BRASIL", "BANCO": "SICREDI 2", "LINHA_AVAL_NOME": "Giro", "STATUS": "CARTEIRA" }, "geometry": { "type": "Point", "coordinates": [ -42.3823717, -21.1201414 ] } },
{ "type": "Feature", "properties": { "NROCNPJ_PAD": "27743381000155", "NOME_FANTASIA": "BETINHO PEDREIRO", "RAZAO_SOCIAL": "27.743.381 ALBERTO RODRIGUES BANDEIRA", "RESPONSAVEL": "ALBERTORODRIGUESBANDEIRA", "MUNICIPIO": "MURIAE", "ENDEE": "RUA PAULO DE OLIVEIRA GOES, 145, GASPAR, 36888-105, MURIAÉ, MG, BRASIL", "BANCO": "SICOOB", "LINHA_AVAL_NOME": "Giro", "STATUS": "CARTEIRA" }, "geometry": { "type": "Point", "coordinates": [ -42.382945, -21.1220752 ] } },
{ "type": "Feature", "properties": { "NROCNPJ_PAD": "45033940000115", "NOME_FANTASIA": "MP GESSO MURIAE", "RAZAO_SOCIAL": "MP GESSO MURIAE LTDA", "RESPONSAVEL": "MARCOSPAULOPIRESDECARVALHO", "MUNICIPIO": "MURIAE", "ENDEE": "RUA PREFEITO FRANCISCO TEODORO FILHO, 1124, SAO JOSE, 36887-006, MURIAÉ, MG, BRASIL", "BANCO": "SICOOB", "LINHA_AVAL_NOME": "Giro", "STATUS": "CARTEIRA" }, "geometry": { "type": "Point", "coordinates": [ -42.3928658, -21.1244716 ] } },
{ "type": "Feature", "properties": { "NROCNPJ_PAD": "18796574000183", "NOME_FANTASIA": "-", "RAZAO_SOCIAL": "CAIQUE FOURNY RECEPUTE", "RESPONSAVEL": "CAIQUEFOURNYRECEPUTE", "MUNICIPIO": "MURIAE", "ENDEE": "RUA TOMAZ ANTONIO GONZAGA, 150, INCONFIDENCIA, 36889-412, MURIAÉ, MG, BRASIL", "BANCO": "SICOOB", "LINHA_AVAL_NOME": "Giro", "STATUS": "CARTEIRA" }, "geometry": { "type": "Point", "coordinates": [ -42.3478213, -21.1269004 ] } },
{ "type": "Feature", "properties": { "NROCNPJ_PAD": "27326445000112", "NOME_FANTASIA": "-", "RAZAO_SOCIAL": "CONSTRUTORA CARDOSO E TRANSPORTES LTDA", "RESPONSAVEL": "ANTONIOCARDOSONETO", "MUNICIPIO": "MURIAE", "ENDEE": "RUA JOSE AUGUSTO SOARES CANEDO, 35, APT 102, CHACARA DOUTOR BRUM, 36889-060, MURIAÉ, MG, BRASIL", "BANCO": "SICOOB", "LINHA_AVAL_NOME": "Giro", "STATUS": "CARTEIRA" }, "geometry": { "type": "Point", "coordinates": [ -42.3630939, -21.1269683 ] } },
{ "type": "Feature", "properties": { "NROCNPJ_PAD": "26823386000125", "NOME_FANTASIA": "MINEIRO PECAS NOVAS E USADAS", "RAZAO_SOCIAL": "MINEIRO PECAS LTDA", "RESPONSAVEL": "BRUNOBARBOSALOPES|THIAGOALVESSANTOS", "MUNICIPIO": "MURIAE", "ENDEE": "AVENIDA PREFEITO DANTE BRUNO, 190, DORNELAS, 36884-178, MURIAÉ, MG, BRASIL", "BANCO": "SICOOB", "LINHA_AVAL_NOME": "Giro", "STATUS": "CARTEIRA" }, "geometry": { "type": "Point", "coordinates": [ -42.388496, -21.129033 ] } },
{ "type": "Feature", "properties": { "NROCNPJ_PAD": "18924310000168", "NOME_FANTASIA": "ACL GLASS PARTS", "RAZAO_SOCIAL": "BRUNO PIRES MARTINS 04282719605", "RESPONSAVEL": "BRUNOPIRESMARTINS", "MUNICIPIO": "MURIAE", "ENDEE": "RUA JOSE CARLOS SOBRINHO, 265, BARRA, 36884-108, MURIAÉ, MG, BRASIL", "BANCO": "SICOOB", "LINHA_AVAL_NOME": "Giro", "STATUS": "CARTEIRA" }, "geometry": { "type": "Point", "coordinates": [ -42.3823764, -21.1310055 ] } },
{ "type": "Feature", "properties": { "NROCNPJ_PAD": "28926441000138", "NOME_FANTASIA": "PEQUENINOS", "RAZAO_SOCIAL": "RAFAEL RODRIGUES CORREA", "RESPONSAVEL": "RAFAEL RODRIGUES CORREA", "MUNICIPIO": "MURIAE", "ENDEE": "RUA PASCHOAL DEMARQUES, 03, DORNELAS, 36884-186, MURIAÉ, MG, BRASIL", "BANCO": "BDMG", "LINHA_AVAL_NOME": "Giro", "STATUS": "CARTEIRA" }, "geometry": { "type": "Point", "coordinates": [ -42.3915146, -21.1310162 ] } },
{ "type": "Feature", "properties": { "NROCNPJ_PAD": "14698664000180", "NOME_FANTASIA": "BERISCALL SERVICOS", "RAZAO_SOCIAL": "BERISCALL SERVICOS LTDA", "RESPONSAVEL": "FERNANDACARLADACUNHASCALLA|PAULODEJESUSBERIZONZI|WELERSONSCALLA", "MUNICIPIO": "MURIAE", "ENDEE": "RUA JOAO DORNELAS, 419, LOJA B, DORNELAS, 36884-179, MURIAÉ, MG, BRASIL", "BANCO": "SICOOB", "LINHA_AVAL_NOME": "Giro", "STATUS": "CARTEIRA" }, "geometry": { "type": "Point", "coordinates": [ -42.390482, -21.1310563 ] } },
{ "type": "Feature", "properties": { "NROCNPJ_PAD": "60347437000128", "NOME_FANTASIA": "-", "RAZAO_SOCIAL": "JUNQMED PLANO ASSISTENCIAL LTDA", "RESPONSAVEL": "KETYMICHELEMARTINSJUNQUEIRA", "MUNICIPIO": "MURIAE", "ENDEE": "AVENIDA PRESIDENTE ARTHUR BERNARDES, 91, APT 204 SALA A, CENTRO, 36880-005, MURIAÉ, MG, BRASIL", "BANCO": "SICOOB", "LINHA_AVAL_NOME": "Giro", "STATUS": "CARTEIRA" }, "geometry": { "type": "Point", "coordinates": [ -42.3682157, -21.1311241 ] } },
{ "type": "Feature", "properties": { "NROCNPJ_PAD": "47442621000199", "NOME_FANTASIA": "PRISCILA DE OLIVEIRA PAIVA DEMARQUE", "RAZAO_SOCIAL": "47.442.621 PRISCILA DE OLIVEIRA PAIVA DEMARQUE", "RESPONSAVEL": "PRISCILADEOLIVEIRAPAIVADEMARQUE", "MUNICIPIO": "MURIAE", "ENDEE": "RUA PASCHOAL BERNARDINO, 25, SALA 01, CENTRO, 36880-049, MURIAÉ, MG, BRASIL", "BANCO": "SICOOB", "LINHA_AVAL_NOME": "Giro", "STATUS": "CARTEIRA" }, "geometry": { "type": "Point", "coordinates": [ -42.3617917, -21.1312016 ] } },
{ "type": "Feature", "properties": { "NROCNPJ_PAD": "07454512000177", "NOME_FANTASIA": "BAESSO ASSESSORIA CONTABIL", "RAZAO_SOCIAL": "BAESSO ADMINISTRACAO EMPRESARIAL LTDA", "RESPONSAVEL": "CELINACARMENSOARESDASILVA|JOAOBATISTABAESSO|ROSIMAR PAULA BORTOLINO BAESSO", "MUNICIPIO": "MURIAE", "ENDEE": "PRACA JOAO PINHEIRO, 15, SALA 07, CENTRO, 36880-043, MURIAÉ, MG, BRASIL", "BANCO": "SICOOB", "LINHA_AVAL_NOME": "Giro", "STATUS": "CARTEIRA" }, "geometry": { "type": "Point", "coordinates": [ -42.3634001, -21.1314794 ] } },
{ "type": "Feature", "properties": { "NROCNPJ_PAD": "57541297000110", "NOME_FANTASIA": "LIFE MED SERVICOS MEDICO LTDA", "RAZAO_SOCIAL": "LIFE MED SERVICOS MEDICO LTDA", "RESPONSAVEL": "THIAGOPEREIRAPORTELA", "MUNICIPIO": "MURIAE", "ENDEE": "RUA SAO PEDRO, 84, APT 601, CENTRO, 36880-075, MURIAÉ, MG, BRASIL", "BANCO": "SICOOB", "LINHA_AVAL_NOME": "Giro", "STATUS": "CARTEIRA" }, "geometry": { "type": "Point", "coordinates": [ -42.3646304, -21.1330077 ] } },
{ "type": "Feature", "properties": { "NROCNPJ_PAD": "12853501000108", "NOME_FANTASIA": "INDIKE REPRESENTACOES E MARCENARIA LTDA", "RAZAO_SOCIAL": "INDIKE REPRESENTACOES E MARCENARIA LTDA", "RESPONSAVEL": "MAXMAURO ANDRADE NERY", "MUNICIPIO": "MURIAE", "ENDEE": "RUA MARIO DE OLIVEIRA CARVALHO, 455, DISTRITO INDUSTRIAL, 36883-281, MURIAÉ, MG, BRASIL", "BANCO": "SICREDI 2", "LINHA_AVAL_NOME": "Giro", "STATUS": "CARTEIRA" }, "geometry": { "type": "Point", "coordinates": [ -42.3353083, -21.1330894 ] } },
{ "type": "Feature", "properties": { "NROCNPJ_PAD": "04543086000150", "NOME_FANTASIA": "MARCELO RACING", "RAZAO_SOCIAL": "MARCELO DIAS RODRIGUES", "RESPONSAVEL": "MARCELODIASRODRIGUES", "MUNICIPIO": "MURIAE", "ENDEE": "RUA VICENTE CASCELLI, 380, DORNELAS, 36884-227, MURIAÉ, MG, BRASIL", "BANCO": "SICOOB", "LINHA_AVAL_NOME": "Giro", "STATUS": "CARTEIRA" }, "geometry": { "type": "Point", "coordinates": [ -42.3877517, -21.1338912 ] } },
{ "type": "Feature", "properties": { "NROCNPJ_PAD": "02148113000164", "NOME_FANTASIA": "-", "RAZAO_SOCIAL": "ARACAGY SORVETES LTDA", "RESPONSAVEL": "HENRIQUE SILVA RANCAO|LEONARDO SILVA RANCAO", "MUNICIPIO": "MURIAE", "ENDEE": "RUA SAO SEBASTIAO, 412, PREFEITO HELIO ARAUJO, 36880-172, MURIAÉ, MG, BRASIL", "BANCO": "BDMG", "LINHA_AVAL_NOME": "Giro", "STATUS": "CARTEIRA" }, "geometry": { "type": "Point", "coordinates": [ -42.3716874, -21.1343636 ] } },
{ "type": "Feature", "properties": { "NROCNPJ_PAD": "46448592000100", "NOME_FANTASIA": "M & M CONFECCOES E ESTAMPARIA", "RAZAO_SOCIAL": "M & M CONFECCOES E ESTAMPARIA LTDA", "RESPONSAVEL": "PRISCILLASANTOSDEFREITASSOUZA|RONERROBSONDESOUZA", "MUNICIPIO": "MURIAE", "ENDEE": "RUA WALDIR CARDOSO DE MELO, 25, JOSE CIRILO, 36886-020, MURIAÉ, MG, BRASIL", "BANCO": "SICOOB", "LINHA_AVAL_NOME": "Giro", "STATUS": "CARTEIRA" }, "geometry": { "type": "Point", "coordinates": [ -42.3966642, -21.1347061 ] } },
{ "type": "Feature", "properties": { "NROCNPJ_PAD": "33812559000175", "NOME_FANTASIA": "-", "RAZAO_SOCIAL": "A.T. SERVICOS MEDICOS LTDA", "RESPONSAVEL": "ANTONIOCASCELLIVAZFILHO|TADEUCARLOSSANTANNABOUZADA", "MUNICIPIO": "MURIAE", "ENDEE": "RUA JOSE PIRES JUNIOR, 23, SAO FRANCISCO, 36881-006, MURIAÉ, MG, BRASIL", "BANCO": "SICOOB", "LINHA_AVAL_NOME": "Giro", "STATUS": "CARTEIRA" }, "geometry": { "type": "Point", "coordinates": [ -42.3625852, -21.1351199 ] } },
{ "type": "Feature", "properties": { "NROCNPJ_PAD": "08661215000165", "NOME_FANTASIA": "-", "RAZAO_SOCIAL": "FERNANDA APARECIDA RECEPUTE WAROL", "RESPONSAVEL": "FERNANDAAPARECIDARECEPUTEWAROL", "MUNICIPIO": "MURIAE", "ENDEE": "AVENIDA SILVERIO CAMPOS, 209, LOJA A, SAFIRA, 36880-000, MURIAÉ, MG, BRASIL", "BANCO": "SICOOB", "LINHA_AVAL_NOME": "Giro", "STATUS": "CARTEIRA" }, "geometry": { "type": "Point", "coordinates": [ -42.3748859, -21.1353449 ] } },
{ "type": "Feature", "properties": { "NROCNPJ_PAD": "47661588000198", "NOME_FANTASIA": "TAYNARA ACESSORIOS E PERFUMARIA", "RAZAO_SOCIAL": "47.661.588 TAYNARA DOS SANTOS PEREIRA MAGALHAES", "RESPONSAVEL": "TAYNARADOSSANTOSPEREIRAMAGALHAES", "MUNICIPIO": "MURIAE", "ENDEE": "RUA SILVERIO CAMPOS, 124, SAFIRA, 36883-033, MURIAÉ, MG, BRASIL", "BANCO": "SICOOB", "LINHA_AVAL_NOME": "Giro", "STATUS": "CARTEIRA" }, "geometry": { "type": "Point", "coordinates": [ -42.3741477, -21.1356709 ] } },
{ "type": "Feature", "properties": { "NROCNPJ_PAD": "33779278000168", "NOME_FANTASIA": "-", "RAZAO_SOCIAL": "W. S. DA SILVA SERVICOS DE APOIO LTDA", "RESPONSAVEL": "WILLIANSSANTIAGODASILVA", "MUNICIPIO": "MURIAE", "ENDEE": "RUA SANTA MARIA, 325, LOJA C, SAFIRA, 36883-063, MURIAÉ, MG, BRASIL", "BANCO": "SICOOB", "LINHA_AVAL_NOME": "Giro", "STATUS": "CARTEIRA" }, "geometry": { "type": "Point", "coordinates": [ -42.3754377, -21.1365746 ] } },
{ "type": "Feature", "properties": { "NROCNPJ_PAD": "21320424000103", "NOME_FANTASIA": "CABANA MATERIAIS DE CONSTRUCOES", "RAZAO_SOCIAL": "JFS MATERIAIS DE CONSTRUCAO", "RESPONSAVEL": "JOSEFELICIANODESOUZA", "MUNICIPIO": "MURIAE", "ENDEE": "RUA JOSE MAXIMO RIBEIRO, 58, JOAO XXIII, 36883-190, MURIAÉ, MG, BRASIL", "BANCO": "SICOOB", "LINHA_AVAL_NOME": "Giro", "STATUS": "CARTEIRA" }, "geometry": { "type": "Point", "coordinates": [ -42.3712569, -21.1366003 ] } },
{ "type": "Feature", "properties": { "NROCNPJ_PAD": "30881314000101", "NOME_FANTASIA": "ELETRICA DO POVO", "RAZAO_SOCIAL": "PEDRO HENRIQUE GUILHERME NERY", "RESPONSAVEL": "PEDRO HENRIQUE GUILHERME NERY", "MUNICIPIO": "MURIAE", "ENDEE": "RUA JOSE MAXIMO RIBEIRO, 33, LOJA A, COLETY, 36880-180, MURIAÉ, MG, BRASIL", "BANCO": "BDMG", "LINHA_AVAL_NOME": "Giro", "STATUS": "CARTEIRA" }, "geometry": { "type": "Point", "coordinates": [ -42.3711261, -21.136922 ] } },
{ "type": "Feature", "properties": { "NROCNPJ_PAD": "24224067000178", "NOME_FANTASIA": "DISK ENTULHO", "RAZAO_SOCIAL": "24.224.067 MARCELO DA SILVA CORREA", "RESPONSAVEL": "MARCELODASILVACORREA", "MUNICIPIO": "MURIAE", "ENDEE": "RUA PROFESSORA IVONILDE MURATORI ROCHA, 504, SANTO ANTONIO, 36881-149, MURIAÉ, MG, BRASIL", "BANCO": "SICOOB", "LINHA_AVAL_NOME": "Giro", "STATUS": "CARTEIRA" }, "geometry": { "type": "Point", "coordinates": [ -42.3563787, -21.1370067 ] } },
{ "type": "Feature", "properties": { "NROCNPJ_PAD": "53833723000138", "NOME_FANTASIA": "-", "RAZAO_SOCIAL": "53.833.723 DAVI MARTINS BANDEIRA RODRIGUES", "RESPONSAVEL": "DAVIMARTINSBANDEIRARODRIGUES", "MUNICIPIO": "MURIAE", "ENDEE": "RUA VICENTE CASCELLI, 246, DORNELAS, 36884-227, MURIAÉ, MG, BRASIL", "BANCO": "SICOOB", "LINHA_AVAL_NOME": "Giro", "STATUS": "CARTEIRA" }, "geometry": { "type": "Point", "coordinates": [ -42.3869783, -21.1370441 ] } },
{ "type": "Feature", "properties": { "NROCNPJ_PAD": "37511006000133", "NOME_FANTASIA": "ALICE REPRESENTACOES", "RAZAO_SOCIAL": "AXL PROMOCOES DE VENDAS LTDA .", "RESPONSAVEL": "FABRICIORAIMUNDOLEITE", "MUNICIPIO": "MURIAE", "ENDEE": "RUA MANOEL VILAS BOAS, 314, SAO FRANCISCO, 36881-019, MURIAÉ, MG, BRASIL", "BANCO": "SICOOB", "LINHA_AVAL_NOME": "Giro", "STATUS": "CARTEIRA" }, "geometry": { "type": "Point", "coordinates": [ -42.3615397, -21.1372555 ] } },
{ "type": "Feature", "properties": { "NROCNPJ_PAD": "54050700000110", "NOME_FANTASIA": "-", "RAZAO_SOCIAL": "CHOCOSHOW A CONFEITARIA LTDA", "RESPONSAVEL": "MICAEL ALEXANDRE ROCHA DA SILVA", "MUNICIPIO": "MURIAE", "ENDEE": "RUA SANTA MARIA, 1, SAFIRA, 36883-063, MURIAÉ, MG, BRASIL", "BANCO": "BDMG", "LINHA_AVAL_NOME": "Giro", "STATUS": "CARTEIRA" }, "geometry": { "type": "Point", "coordinates": [ -42.3736703, -21.137864 ] } },
{ "type": "Feature", "properties": { "NROCNPJ_PAD": "35137743000192", "NOME_FANTASIA": "PET ALEGRIA", "RAZAO_SOCIAL": "35.137.743 LUIZ ANTONIO DE ARAUJO", "RESPONSAVEL": "LUIZANTONIODEARAUJO", "MUNICIPIO": "MURIAE", "ENDEE": "AVENIDA VICENTE ALVES, 380, LOJA 1, PREFEITO HELIO ARAUJO, 36880-160, MURIAÉ, MG, BRASIL", "BANCO": "SICOOB", "LINHA_AVAL_NOME": "Giro", "STATUS": "CARTEIRA" }, "geometry": { "type": "Point", "coordinates": [ -42.3703669, -21.1380869 ] } },
{ "type": "Feature", "properties": { "NROCNPJ_PAD": "45586817000121", "NOME_FANTASIA": "ART FINAL ESTAMPARIA", "RAZAO_SOCIAL": "45.586.817 HERIVELTO SANCHES PEREIRA", "RESPONSAVEL": "HERIVELTOSANCHESPEREIRA", "MUNICIPIO": "MURIAE", "ENDEE": "RUA JOSE AUGUSTO DE ABREU, 419, SAFIRA, 36883-031, MURIAÉ, MG, BRASIL", "BANCO": "SICOOB", "LINHA_AVAL_NOME": "Giro", "STATUS": "CARTEIRA" }, "geometry": { "type": "Point", "coordinates": [ -42.372883, -21.138132 ] } },
{ "type": "Feature", "properties": { "NROCNPJ_PAD": "50363941000168", "NOME_FANTASIA": "R & L REPRESENTACOES", "RAZAO_SOCIAL": "ALVES & PAIVA REPRESENTACOES LTDA", "RESPONSAVEL": "RODSONALVESDESOUZA", "MUNICIPIO": "MURIAE", "ENDEE": "RUA LUIZ ANTONIO FARIA, 135, VALE DO CASTELO, 36881-064, MURIAÉ, MG, BRASIL", "BANCO": "SICOOB", "LINHA_AVAL_NOME": "Giro", "STATUS": "CARTEIRA" }, "geometry": { "type": "Point", "coordinates": [ -42.3633622, -21.1399418 ] } },
{ "type": "Feature", "properties": { "NROCNPJ_PAD": "57427105000149", "NOME_FANTASIA": "REMAN AMORTECEDORES.", "RAZAO_SOCIAL": "REMAN AMORTECEDORES MURIAE LTDA", "RESPONSAVEL": "ANTONIOJOSEGOMES", "MUNICIPIO": "MURIAE", "ENDEE": "RUA MAXIMIANO FRAGA, 35, JOAO XXIII, 36883-191, MURIAÉ, MG, BRASIL", "BANCO": "SICOOB", "LINHA_AVAL_NOME": "Giro", "STATUS": "CARTEIRA" }, "geometry": { "type": "Point", "coordinates": [ -42.372099, -21.1426632 ] } },
{ "type": "Feature", "properties": { "NROCNPJ_PAD": "29921407000133", "NOME_FANTASIA": "ANDERSON MECANICO TRATORES", "RAZAO_SOCIAL": "ANDERSON DE OLIVEIRA POLITO 04234879657", "RESPONSAVEL": "ANDERSONDEOLIVEIRAPOLITO", "MUNICIPIO": "MURIAE", "ENDEE": "RUA ROSA BATISTA DOS SANTOS BALDANZA, 53, JOANOPOLIS, 36886-068, MURIAÉ, MG, BRASIL", "BANCO": "SICOOB", "LINHA_AVAL_NOME": "Giro", "STATUS": "CARTEIRA" }, "geometry": { "type": "Point", "coordinates": [ -42.3962919, -21.1428344 ] } },
{ "type": "Feature", "properties": { "NROCNPJ_PAD": "57883879000184", "NOME_FANTASIA": "ESPACO W.C.", "RAZAO_SOCIAL": "ESPACO W.C. DE MURIAE LTDA", "RESPONSAVEL": "CHARLESFAZIONATOSILVA", "MUNICIPIO": "MURIAE", "ENDEE": "RUA PEDRO MAZZINI, 536, SANTO ANTONIO, 36881-152, MURIAÉ, MG, BRASIL", "BANCO": "SICOOB", "LINHA_AVAL_NOME": "Giro", "STATUS": "CARTEIRA" }, "geometry": { "type": "Point", "coordinates": [ -42.3562083, -21.143749 ] } },
{ "type": "Feature", "properties": { "NROCNPJ_PAD": "53245143000120", "NOME_FANTASIA": "-", "RAZAO_SOCIAL": "53.245.143 JOSIEL FERREIRA DA VEIGA", "RESPONSAVEL": "JOSIELFERREIRADAVEIGA", "MUNICIPIO": "MURIAE", "ENDEE": "RUA MARIA ZENITH MADRIAGA DOS SANTOS, 40, SAO GOTARDO, 36880-209, MURIAÉ, MG, BRASIL", "BANCO": "SICOOB", "LINHA_AVAL_NOME": "Giro", "STATUS": "CARTEIRA" }, "geometry": { "type": "Point", "coordinates": [ -42.367751, -21.144555 ] } },
{ "type": "Feature", "properties": { "NROCNPJ_PAD": "37000521000159", "NOME_FANTASIA": "ENXOVAIS RENASCER", "RAZAO_SOCIAL": "ENXOVAIS RENASCER COMERCIO DE MURIAE LTDA", "RESPONSAVEL": "FLAVIANOMENDESDOSSANTOS", "MUNICIPIO": "MURIAE", "ENDEE": "RUA MANOEL FRANCISCO DE ASSIS, 104, QUADRAB LOTE 06, JOAO VI, 36883-258, MURIAÉ, MG, BRASIL", "BANCO": "SICOOB", "LINHA_AVAL_NOME": "Giro", "STATUS": "CARTEIRA" }, "geometry": { "type": "Point", "coordinates": [ -42.3763445, -21.1491213 ] } },
{ "type": "Feature", "properties": { "NROCNPJ_PAD": "33384510000169", "NOME_FANTASIA": "MOTTA REPRESENTACOES", "RAZAO_SOCIAL": "33.384.510 JERONIMO DO MILAGRE MOTTA", "RESPONSAVEL": "JERONIMODOMILAGREMOTTA", "MUNICIPIO": "MURIAE", "ENDEE": "RUA IZALTINA DE ABREU, 270, AUGUSTO DE ABREU, 36883-176, MURIAÉ, MG, BRASIL", "BANCO": "SICOOB", "LINHA_AVAL_NOME": "Giro", "STATUS": "CARTEIRA" }, "geometry": { "type": "Point", "coordinates": [ -42.3778042, -21.1414431 ] } },
{ "type": "Feature", "properties": { "NROCNPJ_PAD": "10450664000106", "NOME_FANTASIA": "SILVA COMERCIAL", "RAZAO_SOCIAL": "RJ DA SILVA AUTO PECAS E ACESSORIOS", "RESPONSAVEL": "RONILDOJOSEDASILVA", "MUNICIPIO": "MURIAE", "ENDEE": "RUA IZALTINA DE ABREU, 250, AUGUSTO DE ABREU, 36883-176, MURIAÉ, MG, BRASIL", "BANCO": "SICOOB", "LINHA_AVAL_NOME": "Giro", "STATUS": "CARTEIRA" }, "geometry": { "type": "Point", "coordinates": [ -42.3777137, -21.1414973 ] } },
{ "type": "Feature", "properties": { "NROCNPJ_PAD": "47361238000106", "NOME_FANTASIA": "DELORD CAR DETAIL", "RAZAO_SOCIAL": "JEFFERSON RUAN DA SILVA DE ASSIS 10277933633", "RESPONSAVEL": "JEFFERSONRUANDASILVADEASSIS", "MUNICIPIO": "MURIAE", "ENDEE": "RUA HELSON HASTENREITER, 225, LOJA TERREO, SAO GOTARDO, 36880-224, MURIAÉ, MG, BRASIL", "BANCO": "SICOOB", "LINHA_AVAL_NOME": "Giro", "STATUS": "CARTEIRA" }, "geometry": { "type": "Point", "coordinates": [ -42.3647419, -21.1408603 ] } },
{ "type": "Feature", "properties": { "NROCNPJ_PAD": "54637452000108", "NOME_FANTASIA": "-", "RAZAO_SOCIAL": "SONHO BOM LINHA NOITE LTDA", "RESPONSAVEL": "ROSANEDAROCHA", "MUNICIPIO": "MURIAE", "ENDEE": "RUA GUIOMAR PEREIRA DE SOUZA, 65, VILLA REAL, 36880-289, MURIAÉ, MG, BRASIL", "BANCO": "SICOOB", "LINHA_AVAL_NOME": "Giro", "STATUS": "CARTEIRA" }, "geometry": { "type": "Point", "coordinates": [ -42.3604074, -21.1436037 ] } },
{ "type": "Feature", "properties": { "NROCNPJ_PAD": "30369895000105", "NOME_FANTASIA": "SACOLAO DO SERGINHO", "RAZAO_SOCIAL": "30.369.895 LUANA MARTINS DO NASCIMENTO SOUZA", "RESPONSAVEL": "LUANAMARTINSDONASCIMENTOSOUZA", "MUNICIPIO": "MURIAE", "ENDEE": "RUA FRITZ DUVANEL, 31, FRANCO SUICO, 36886-172, MURIAÉ, MG, BRASIL", "BANCO": "SICOOB", "LINHA_AVAL_NOME": "Giro", "STATUS": "CARTEIRA" }, "geometry": { "type": "Point", "coordinates": [ -42.4037687, -21.1364417 ] } },
{ "type": "Feature", "properties": { "NROCNPJ_PAD": "40804149000148", "NOME_FANTASIA": "-", "RAZAO_SOCIAL": "40.804.149 DOUGLAS SILVA CAETANO", "RESPONSAVEL": "DOUGLASSILVACAETANO", "MUNICIPIO": "MURIAE", "ENDEE": "RUA FRANCISCO VICENTE MOREIRA, 382, JOAO XXIII, 36883-197, MURIAÉ, MG, BRASIL", "BANCO": "SICOOB", "LINHA_AVAL_NOME": "Giro", "STATUS": "CARTEIRA" }, "geometry": { "type": "Point", "coordinates": [ -42.369854, -21.1440002 ] } },
{ "type": "Feature", "properties": { "NROCNPJ_PAD": "68549906000101", "NOME_FANTASIA": "-", "RAZAO_SOCIAL": "TRANSBOGONI TRANSPORTES E LOCACOES LTDA", "RESPONSAVEL": "JOSELUIZDEOLIVEIRAGOES|LUCIANAFERNANDESDESOUZA", "MUNICIPIO": "MURIAE", "ENDEE": "RUA FRANCISCA MADALENA, 111, JOAO XXIII, 36883-196, MURIAÉ, MG, BRASIL", "BANCO": "SICOOB", "LINHA_AVAL_NOME": "Giro", "STATUS": "CARTEIRA" }, "geometry": { "type": "Point", "coordinates": [ -42.3694332, -21.145568 ] } },
{ "type": "Feature", "properties": { "NROCNPJ_PAD": "03356753000122", "NOME_FANTASIA": "AGRO TUDO", "RAZAO_SOCIAL": "AGRO TUDO COMERCIO DE PRODUTOS AGROPECUARIOS LTDA.", "RESPONSAVEL": "CLOVISJOSEALVES|CRISTIANORODRIGUESDECAMPOSALVES", "MUNICIPIO": "MURIAE", "ENDEE": "RUA EUCARIO GODINHO, 81, BARRA, 36884-116, MURIAÉ, MG, BRASIL", "BANCO": "SICOOB", "LINHA_AVAL_NOME": "Giro", "STATUS": "CARTEIRA" }, "geometry": { "type": "Point", "coordinates": [ -42.3844844, -21.1296071 ] } },
{ "type": "Feature", "properties": { "NROCNPJ_PAD": "13171188000182", "NOME_FANTASIA": "CONTABILIZAR ESCRITORIO CONTABIL", "RAZAO_SOCIAL": "CONTABILIZAR ESCRITORIO CONTABIL LTDA", "RESPONSAVEL": "ALEXANDRAAPARECIDARIBEIROVIEIRA", "MUNICIPIO": "MURIAE", "ENDEE": "RUA ESCOBAR GOMES DE SOUZA, 115, SAO GOTARDO, 36880-213, MURIAÉ, MG, BRASIL", "BANCO": "SICOOB", "LINHA_AVAL_NOME": "Giro", "STATUS": "CARTEIRA" }, "geometry": { "type": "Point", "coordinates": [ -42.3661504, -21.1413237 ] } },
{ "type": "Feature", "properties": { "NROCNPJ_PAD": "37139019000123", "NOME_FANTASIA": "ATELIE GABRIEL DORNELAS", "RAZAO_SOCIAL": "SIMONE S S DORNELAS", "RESPONSAVEL": "SIMONESOUZASANTOSDORNELAS", "MUNICIPIO": "MURIAE", "ENDEE": "RUA DOUTOR NILO PACHECO DE MEDEIROS, 540, GALPAO01 - SEGUNDO PISO, SANTANA, 36887-100, MURIAÉ, MG, BRASIL", "BANCO": "SICOOB", "LINHA_AVAL_NOME": "Giro", "STATUS": "CARTEIRA" }, "geometry": { "type": "Point", "coordinates": [ -42.399845, -21.132373 ] } },
{ "type": "Feature", "properties": { "NROCNPJ_PAD": "17971816000165", "NOME_FANTASIA": "EDMAR ELETRICISTA", "RAZAO_SOCIAL": "EDMAR MIGUEL DA SILVA 75163861620", "RESPONSAVEL": "EDMARMIGUELDASILVA", "MUNICIPIO": "MURIAE", "ENDEE": "RUA DOUTOR NEWTON REZENDE, 150, CENTRO, 36880-065, MURIAÉ, MG, BRASIL", "BANCO": "SICOOB", "LINHA_AVAL_NOME": "Giro", "STATUS": "CARTEIRA" }, "geometry": { "type": "Point", "coordinates": [ -42.3593464, -21.1326907 ] } },
{ "type": "Feature", "properties": { "NROCNPJ_PAD": "23239370000181", "NOME_FANTASIA": "TATIANE SCOPARO MUNIZ", "RAZAO_SOCIAL": "TATIANE SCOPARO MUNIZ", "RESPONSAVEL": "TATIANESCOPAROMUNIZ", "MUNICIPIO": "MURIAE", "ENDEE": "PRACA DOUTOR LISBOA JUNIOR, 41, CENTRO, 36880-070, MURIAÉ, MG, BRASIL", "BANCO": "SICOOB", "LINHA_AVAL_NOME": "Giro", "STATUS": "CARTEIRA" }, "geometry": { "type": "Point", "coordinates": [ -42.360618, -21.135161 ] } },
{ "type": "Feature", "properties": { "NROCNPJ_PAD": "44192723000105", "NOME_FANTASIA": "SUSHI DELIVERY", "RAZAO_SOCIAL": "EMILIANO BARBOSA MILIAO 09191255651", "RESPONSAVEL": "EMILIANOBARBOSAMILIAO", "MUNICIPIO": "MURIAE", "ENDEE": "RUA DOUTOR JOSE CLOVIS FIGUEIRA DE AQUINO, 15, ALTEROSA, 36880-243, MURIAÉ, MG, BRASIL", "BANCO": "SICOOB", "LINHA_AVAL_NOME": "Giro", "STATUS": "CARTEIRA" }, "geometry": { "type": "Point", "coordinates": [ -42.3656254, -21.1424964 ] } },
{ "type": "Feature", "properties": { "NROCNPJ_PAD": "31323057000155", "NOME_FANTASIA": "-", "RAZAO_SOCIAL": "PANIFICADORA ALICE DE MURIAE LTDA", "RESPONSAVEL": "HUDIELLISON CHAVES DE PAIVA", "MUNICIPIO": "MURIAE", "ENDEE": "RUA HIDEMBURGO VILHENA, 19, SAO FRANCISCO, 36881-044, MURIAÉ, MG, BRASIL", "BANCO": "BDMG", "LINHA_AVAL_NOME": "Giro", "STATUS": "CARTEIRA" }, "geometry": { "type": "Point", "coordinates": [ -42.3616421, -21.1396339 ] } },
{ "type": "Feature", "properties": { "NROCNPJ_PAD": "08519697000113", "NOME_FANTASIA": "CASTILHO SILVA", "RAZAO_SOCIAL": "CASTILHO SILVA & CIA LTDA", "RESPONSAVEL": "DANIELA CAMPOS VIEIRA E SILVA", "MUNICIPIO": "MURIAE", "ENDEE": "RUA DOUTOR ALVES PEQUENO, 237, SALA 117, CENTRO, 36880-074, MURIAÉ, MG, BRASIL", "BANCO": "BDMG", "LINHA_AVAL_NOME": "Giro", "STATUS": "CARTEIRA" }, "geometry": { "type": "Point", "coordinates": [ -42.3654429, -21.1325492 ] } },
{ "type": "Feature", "properties": { "NROCNPJ_PAD": "32537526000100", "NOME_FANTASIA": "PAULA DELIA", "RAZAO_SOCIAL": "PAULA DELIA BOUTIQUE LTDA.", "RESPONSAVEL": "PAULADELIADEAGUIAR", "MUNICIPIO": "MURIAE", "ENDEE": "RUA DESEMBARGADOR CANEDO, 215, CENTRO, 36880-078, MURIAÉ, MG, BRASIL", "BANCO": "SICOOB", "LINHA_AVAL_NOME": "Giro", "STATUS": "CARTEIRA" }, "geometry": { "type": "Point", "coordinates": [ -42.3657188, -21.1330917 ] } },
{ "type": "Feature", "properties": { "NROCNPJ_PAD": "43513112000159", "NOME_FANTASIA": "-", "RAZAO_SOCIAL": "AZEVEDO INTERMEDIACOES DE NEGOCIOS LTDA", "RESPONSAVEL": "MATHEUSARAUJOAZEVEDO", "MUNICIPIO": "MURIAE", "ENDEE": "RUA VICENTE CASCELLI, 70, APT 303, DORNELAS, 36884-227, MURIAÉ, MG, BRASIL", "BANCO": "SICOOB", "LINHA_AVAL_NOME": "Giro", "STATUS": "CARTEIRA" }, "geometry": { "type": "Point", "coordinates": [ -42.3860875, -21.1382871 ] } },
{ "type": "Feature", "properties": { "NROCNPJ_PAD": "40559001000195", "NOME_FANTASIA": "RAVVIVARE MODA NOITE", "RAZAO_SOCIAL": "RAVVIVARE INDUSTRIA E COMERCIO DE CONFECCOES LTDA", "RESPONSAVEL": "JOAOBOSCODOSSANTOSPAIVA", "MUNICIPIO": "MURIAE", "ENDEE": "ALAMEDA DAS VIOLETAS, 145, QUINTA DAS FLORES, 36880-146, MURIAÉ, MG, BRASIL", "BANCO": "SICOOB", "LINHA_AVAL_NOME": "Giro", "STATUS": "CARTEIRA" }, "geometry": { "type": "Point", "coordinates": [ -42.3666071, -21.1399512 ] } },
{ "type": "Feature", "properties": { "NROCNPJ_PAD": "09458046000123", "NOME_FANTASIA": "DINASTIA BOUTIQUE", "RAZAO_SOCIAL": "G.H. COMERCIO LTDA", "RESPONSAVEL": "GABRIEL HENRIQUE FREITAS DE OLIVEIRA", "MUNICIPIO": "MURIAE", "ENDEE": "RUA CORONEL MARCIANO RODRIGUES, 95A, CENTRO, 36880-027, MURIAÉ, MG, BRASIL", "BANCO": "BDMG", "LINHA_AVAL_NOME": "Giro", "STATUS": "CARTEIRA" }, "geometry": { "type": "Point", "coordinates": [ -42.3626248, -21.1308105 ] } },
{ "type": "Feature", "properties": { "NROCNPJ_PAD": "20790342000160", "NOME_FANTASIA": "-", "RAZAO_SOCIAL": "DINASTIA EMPREENDIMENTOS IMOBILIARIOS LTDA", "RESPONSAVEL": "GILCEIA APARECIDA DE FREITAS|ODAIR JOSE DE OLIVEIRA", "MUNICIPIO": "MURIAE", "ENDEE": "RUA CORONEL MARCIANO RODRIGUES, 95 A, SALA 1, CENTRO, 36880-027, MURIAÉ, MG, BRASIL", "BANCO": "BDMG", "LINHA_AVAL_NOME": "Giro", "STATUS": "CARTEIRA" }, "geometry": { "type": "Point", "coordinates": [ -42.3626248, -21.1308105 ] } },
{ "type": "Feature", "properties": { "NROCNPJ_PAD": "58395239000198", "NOME_FANTASIA": "CLINICA NATALIA CAMPBELL", "RAZAO_SOCIAL": "NATALIA JULIANI CAMPBELL - CLINICA", "RESPONSAVEL": "NATALIAJULIANICAMPBELL", "MUNICIPIO": "MURIAE", "ENDEE": "RUA CORONEL IZALINO, 187, SALA 108, CENTRO, 36880-103, MURIAÉ, MG, BRASIL", "BANCO": "SICOOB", "LINHA_AVAL_NOME": "Giro", "STATUS": "CARTEIRA" }, "geometry": { "type": "Point", "coordinates": [ -42.3654055, -21.1374095 ] } },
{ "type": "Feature", "properties": { "NROCNPJ_PAD": "20226545000128", "NOME_FANTASIA": "BODY GYM CT", "RAZAO_SOCIAL": "BODY GYM CENTRO DE TREINAMENTO LTDA", "RESPONSAVEL": "FABIANOSERGIOBARBOSA|VICTORCARVALHODESOUZA", "MUNICIPIO": "MURIAE", "ENDEE": "AVENIDA COMENDADOR FREITAS, 22, ANDAR 2 ANDAR 3, CENTRO, 36880-061, MURIAÉ, MG, BRASIL", "BANCO": "SICOOB", "LINHA_AVAL_NOME": "Giro", "STATUS": "CARTEIRA" }, "geometry": { "type": "Point", "coordinates": [ -42.3609571, -21.133175 ] } },
{ "type": "Feature", "properties": { "NROCNPJ_PAD": "04688238000102", "NOME_FANTASIA": "-", "RAZAO_SOCIAL": "ELETROCAR COMERCIO DE PECAS MURIAE LTDA", "RESPONSAVEL": "CLEUBERJOSEDEFATIMAFOGAL|JOSECARLOSDEOLIVEIRA|LUIZAUGUSTODEFATIMAFINTELMANFOGAL", "MUNICIPIO": "MURIAE", "ENDEE": "RODOVIA BR-116, 8600, LOJA D, UNIVERSITARIO, 36888-230, MURIAÉ, MG, BRASIL", "BANCO": "SICOOB", "LINHA_AVAL_NOME": "Giro", "STATUS": "CARTEIRA" }, "geometry": { "type": "Point", "coordinates": [ -42.3767747, -21.1008393 ] } },
{ "type": "Feature", "properties": { "NROCNPJ_PAD": "34198318000140", "NOME_FANTASIA": "VAGUINHO AUTO PECAS", "RAZAO_SOCIAL": "VAGNER REIS DE SOUZA", "RESPONSAVEL": "VAGNERREISDESOUZA", "MUNICIPIO": "MURIAE", "ENDEE": "RODOVIA BR-116, 8390, UNIVERSITARIO, 36888-230, MURIAÉ, MG, BRASIL", "BANCO": "SICOOB", "LINHA_AVAL_NOME": "Giro", "STATUS": "CARTEIRA" }, "geometry": { "type": "Point", "coordinates": [ -51.1635911, -29.2991427 ] } },
{ "type": "Feature", "properties": { "NROCNPJ_PAD": "13227256000188", "NOME_FANTASIA": "-", "RAZAO_SOCIAL": "AUTO VESTE LTDA", "RESPONSAVEL": "ALCINODOSSANTOS", "MUNICIPIO": "MURIAE", "ENDEE": "RODOVIA BR-116, 5995, GASPAR, 36888-090, MURIAÉ, MG, BRASIL", "BANCO": "SICOOB", "LINHA_AVAL_NOME": "Giro", "STATUS": "CARTEIRA" }, "geometry": { "type": "Point", "coordinates": [ -42.3802858, -21.1214032 ] } },
{ "type": "Feature", "properties": { "NROCNPJ_PAD": "17196874000169", "NOME_FANTASIA": "ELETRICA GOMES", "RAZAO_SOCIAL": "ELETRICA GOMES LTDA", "RESPONSAVEL": "-", "MUNICIPIO": "MURIAE", "ENDEE": "RODOVIA BR 116, SN, KM 708, BARRA, 36880-000, MURIAÉ, MG, BRASIL", "BANCO": "BRADESCO", "LINHA_AVAL_NOME": "Empreendedorismo Fem", "STATUS": "CARTEIRA" }, "geometry": { "type": "Point", "coordinates": [ -42.3795319, -21.1215989 ] } },
{ "type": "Feature", "properties": { "NROCNPJ_PAD": "20720244000156", "NOME_FANTASIA": "MARANATA REPRESENTACOES", "RAZAO_SOCIAL": "COMERCIAL DRM LTDA", "RESPONSAVEL": "MATIASFERREIRA|ROMARIOMARCELINODEOLIVEIRA", "MUNICIPIO": "MURIAE", "ENDEE": "RUA ASTROGILDO FIGUEIREDO BARROS, 931, JOAO XXIII, 36883-211, MURIAÉ, MG, BRASIL", "BANCO": "SICOOB", "LINHA_AVAL_NOME": "Giro", "STATUS": "CARTEIRA" }, "geometry": { "type": "Point", "coordinates": [ -42.3664475, -21.1488488 ] } },
{ "type": "Feature", "properties": { "NROCNPJ_PAD": "43616664000192", "NOME_FANTASIA": "GRANITOS MURIAE", "RAZAO_SOCIAL": "GRANITOS MURIAE LTDA", "RESPONSAVEL": "CARLANMARTINSGIAGIO|DANIELRAIMUNDODAROCHA", "MUNICIPIO": "MURIAE", "ENDEE": "RUA ANTONIO TURETA, 544, SAO JOAQUIM, 36886-114, MURIAÉ, MG, BRASIL", "BANCO": "SICOOB", "LINHA_AVAL_NOME": "Giro", "STATUS": "CARTEIRA" }, "geometry": { "type": "Point", "coordinates": [ -42.3975606, -21.1390146 ] } },
{ "type": "Feature", "properties": { "NROCNPJ_PAD": "55330554000149", "NOME_FANTASIA": "NACIONAL DIESEL MURIAE", "RAZAO_SOCIAL": "NACIONAL DIESEL MURIAE LTDA", "RESPONSAVEL": "-", "MUNICIPIO": "MURIAE", "ENDEE": "RUA ANTERO LOPES CARVALHO, SN, KM 704, BARRA, 36884-124, MURIAÉ, MG, BRASIL", "BANCO": "BRADESCO", "LINHA_AVAL_NOME": "Giro", "STATUS": "CARTEIRA" }, "geometry": { "type": "Point", "coordinates": [ -42.3867701, -21.1347591 ] } },
{ "type": "Feature", "properties": { "NROCNPJ_PAD": "43736219000166", "NOME_FANTASIA": "-", "RAZAO_SOCIAL": "APARECIDA DE FATIMA PEREIRA DE CARVALHO 42446570615", "RESPONSAVEL": "APARECIDADEFATIMAPEREIRADECARVALHO", "MUNICIPIO": "MURIAE", "ENDEE": "RUA AMANCIO DE FREITAS, 66, PORTO, 36889-244, MURIAÉ, MG, BRASIL", "BANCO": "SICOOB", "LINHA_AVAL_NOME": "Giro", "STATUS": "CARTEIRA" }, "geometry": { "type": "Point", "coordinates": [ -42.3532187, -21.1287341 ] } },
{ "type": "Feature", "properties": { "NROCNPJ_PAD": "42970990000130", "NOME_FANTASIA": "BABY LAURA CREATIVE", "RAZAO_SOCIAL": "42.970.990 MERCEDES DARCYRA BRAGA CHAVES", "RESPONSAVEL": "MERCEDESDARCYRABRAGACHAVES", "MUNICIPIO": "MURIAE", "ENDEE": "RUA CALIPES TROTTA, 39, FRANCO SUICO, 36886-186, MURIAÉ, MG, BRASIL", "BANCO": "SICOOB", "LINHA_AVAL_NOME": "Giro", "STATUS": "CARTEIRA" }, "geometry": { "type": "Point", "coordinates": [ -42.404984, -21.138725 ] } },
{ "type": "Feature", "properties": { "NROCNPJ_PAD": "55087729000139", "NOME_FANTASIA": "COMERCIO DE RACOES E INSUMOS MARTINS", "RAZAO_SOCIAL": "COMERCIO DE RACOES MARTINS LTDA", "RESPONSAVEL": "WESLEYALVESMARTINS", "MUNICIPIO": "MURIAE", "ENDEE": "AVENIDA ALTINO RODRIGUES PEREIRA, 230, JOSE CIRILO, 36886-009, MURIAÉ, MG, BRASIL", "BANCO": "SICOOB", "LINHA_AVAL_NOME": "Giro", "STATUS": "CARTEIRA" }, "geometry": { "type": "Point", "coordinates": [ -42.3943442, -21.1312937 ] } },
{ "type": "Feature", "properties": { "NROCNPJ_PAD": "60625573000132", "NOME_FANTASIA": "MECANICA DE PAULA", "RAZAO_SOCIAL": "MECANICA DE PAULA DE MURIAE LTDA", "RESPONSAVEL": "WALMIRDEPAULASILVEIRA", "MUNICIPIO": "MURIAE", "ENDEE": "RUA ALBERTO JOSE FERREIRA, 95, SAO VICENTE DE PAULO, 36883-080, MURIAÉ, MG, BRASIL", "BANCO": "SICOOB", "LINHA_AVAL_NOME": "Giro", "STATUS": "CARTEIRA" }, "geometry": { "type": "Point", "coordinates": [ -42.3780349, -21.133959 ] } },
{ "type": "Feature", "properties": { "NROCNPJ_PAD": "04909267000157", "NOME_FANTASIA": "TRANSPORTE GARCIA", "RAZAO_SOCIAL": "TRANSPORTE ESCOLAR GARCIA LTDA", "RESPONSAVEL": "EDSONANTONIOGARCIA|SANDRAMARIADASILVAGARCIA", "MUNICIPIO": "MURIAE", "ENDEE": "SITIO MATA ONCA ESTRADA DISTRITO DE MACUCO A DORES DE VITORIA, S/N, ZONA RURAL, MACUCO, 36892-976, MURIAÉ, MG, BRASIL", "BANCO": "SICOOB", "LINHA_AVAL_NOME": "Giro", "STATUS": "CARTEIRA" }, "geometry": { "type": "Point", "coordinates": [ -42.5959704, -21.1039263 ] } },
{ "type": "Feature", "properties": { "NROCNPJ_PAD": "36990643000177", "NOME_FANTASIA": "BIO RECICLAVEL - EMPRESA COLETORA DE OL", "RAZAO_SOCIAL": "LINDOMAR ALVES DO AMARAL 11502291606", "RESPONSAVEL": "LINDOMARALVESDOAMARAL", "MUNICIPIO": "MURIAE", "ENDEE": "RUA PEDRO MAZZINI, 32, SANTO ANTONIO, 36881-152, MURIAÉ, MG, BRASIL", "BANCO": "SICOOB", "LINHA_AVAL_NOME": "Giro", "STATUS": "CARTEIRA" }, "geometry": { "type": "Point", "coordinates": [ -42.3554551, -21.1419176 ] } },
{ "type": "Feature", "properties": { "NROCNPJ_PAD": "01346179000104", "NOME_FANTASIA": "-", "RAZAO_SOCIAL": "EDSON ANTONIO DE LACERDA FILHO", "RESPONSAVEL": "EDSONANTONIODELACERDAFILHO", "MUNICIPIO": "MURIAE", "ENDEE": "RUA CORONEL LUCIANO ALVES PEREIRA, 355, LOJA A, BELISARIO, 36892-200, MURIAÉ, MG, BRASIL", "BANCO": "SICOOB", "LINHA_AVAL_NOME": "Giro", "STATUS": "CARTEIRA" }, "geometry": { "type": "Point", "coordinates": [ -42.4574387, -20.9270635 ] } },
{ "type": "Feature", "properties": { "NROCNPJ_PAD": "33347044000141", "NOME_FANTASIA": "-", "RAZAO_SOCIAL": "DUTRA PREMOLDADOS LTDA", "RESPONSAVEL": "LUANDASILVADUTRA", "MUNICIPIO": "MURIAE", "ENDEE": "ESTRADA RUA DO IVAI, 85, SANTO ANTONIO, 36891-899, MURIAÉ, MG, BRASIL", "BANCO": "SICOOB", "LINHA_AVAL_NOME": "Giro", "STATUS": "CARTEIRA" }, "geometry": { "type": "Point", "coordinates": [ -42.3562045, -21.1389473 ] } },
{ "type": "Feature", "properties": { "NROCNPJ_PAD": "45298506000167", "NOME_FANTASIA": "-", "RAZAO_SOCIAL": "45.298.506 LUCIANO FORTUNATO RIBEIRO", "RESPONSAVEL": "LUCIANOFORTUNATORIBEIRO", "MUNICIPIO": "MURIAE", "ENDEE": "ALAMEDA DOS JAMBEIROS, 159, CASA B, PRIMAVERA, 36880-266, MURIAÉ, MG, BRASIL", "BANCO": "SICOOB", "LINHA_AVAL_NOME": "Giro", "STATUS": "CARTEIRA" }, "geometry": { "type": "Point", "coordinates": [ -42.3634137, -21.1474307 ] } },
{ "type": "Feature", "properties": { "NROCNPJ_PAD": "65289134000110", "NOME_FANTASIA": "-", "RAZAO_SOCIAL": "BAR E RESTAURANTE NETINHO LTDA", "RESPONSAVEL": "ALBERTOAUGUSTOSILVAFERREIRA|JULIANASILVAFERREIRA|PEDROAUGUSTOSILVAFERREIRA", "MUNICIPIO": "MURIAE", "ENDEE": "RUA MANOEL VILAS BOAS, 228, SAO FRANCISCO, 36881-019, MURIAÉ, MG, BRASIL", "BANCO": "SICOOB", "LINHA_AVAL_NOME": "Giro", "STATUS": "CARTEIRA" }, "geometry": { "type": "Point", "coordinates": [ -42.362157, -21.1361874 ] } },
{ "type": "Feature", "properties": { "NROCNPJ_PAD": "42248595000149", "NOME_FANTASIA": "-", "RAZAO_SOCIAL": "42.248.595 FABIOLA ROCHA DE OLIVEIRA BITENCOURT", "RESPONSAVEL": "FABIOLAROCHADEOLIVEIRABITENCOURT", "MUNICIPIO": "MURIAE", "ENDEE": "RUA JOAO DORNELAS, 408, DORNELAS, 36884-179, MURIAÉ, MG, BRASIL", "BANCO": "SICOOB", "LINHA_AVAL_NOME": "Giro", "STATUS": "CARTEIRA" }, "geometry": { "type": "Point", "coordinates": [ -42.3903606, -21.1308323 ] } },
{ "type": "Feature", "properties": { "NROCNPJ_PAD": "58169354000144", "NOME_FANTASIA": "-", "RAZAO_SOCIAL": "58.169.354 REGINALDO WASHINGTON DE OLIVEIRA", "RESPONSAVEL": "REGINALDOWASHINGTONDEOLIVEIRA", "MUNICIPIO": "MURIAE", "ENDEE": "RUA LUIZ ANTONIO FARIA, 120, VALE DO CASTELO, 36881-064, MURIAÉ, MG, BRASIL", "BANCO": "SICOOB", "LINHA_AVAL_NOME": "Giro", "STATUS": "CARTEIRA" }, "geometry": { "type": "Point", "coordinates": [ -42.3635749, -21.1398772 ] } }
]
}
