{
"type": "FeatureCollection",
"name": "POCOS_CALDAS",
"crs": { "type": "name", "properties": { "name": "urn:ogc:def:crs:OGC:1.3:CRS84" } },
"features": [
{ "type": "Feature", "properties": { "NROCNPJ_PAD": "11819464000140", "STATUS_MAILING": "EMPRESA ELEGÍVEL ONLINE SEM SUCESSO NO CONTATO TELEFÔNICO/EMPRESA ELEGÍVEL PRESENCIAL NÃO VISITADA", "NOME_FANTASIA": "MINI-MERCADO E ACOUGUE CORREGO DANTAS", "RAZAO_SOCIAL": "DOMILSON FERREIRA BRITO MINI-MERCADO E ACOUGUE", "RESPONSAVEL": "DOMILSONFERREIRABRITO", "MUNICIPIO": "POCOS DE CALDAS", "ENDEE": "FAZENDA RIO DAS ANTAS, 00020, ZONA RURAL, 37701-970, POCOS DE CALDAS, MG, BRASIL", "BANCO": "SICOOB AGROCREDI", "LINHA_AVAL_NOME": "GIRO", "LATITUDE": "-21.7499909", "LONGITUDE": "-46.6036848", "STATUS_OPERACIONAL": "CARTEIRA", "STATUS": "CARTEIRA", "field_14": null, "field_15": null, "field_16": null }, "geometry": { "type": "Point", "coordinates": [ -46.6036848, -21.7499909 ] } },
{ "type": "Feature", "properties": { "NROCNPJ_PAD": "63723279000151", "STATUS_MAILING": "EMPRESA ELEGÍVEL ONLINE SEM SUCESSO NO CONTATO TELEFÔNICO/EMPRESA ELEGÍVEL PRESENCIAL NÃO VISITADA", "NOME_FANTASIA": null, "RAZAO_SOCIAL": "63.723.279 SARAH ELIZA GUERRA GOUVEIA", "RESPONSAVEL": "SARAH ELIZA GUERRA GOUVEIA", "MUNICIPIO": "POCOS DE CALDAS", "ENDEE": "JOSE MAMUD ASSAN, 394, JARDIM SAO JORGE, 37701-445, POCOS DE CALDAS, MG, BRASIL", "BANCO": "SICREDI UNIESTADOS", "LINHA_AVAL_NOME": "EMPREENDEDORISMO FEM", "LATITUDE": "-21.778827", "LONGITUDE": "-46.590511", "STATUS_OPERACIONAL": "CARTEIRA", "STATUS": "CARTEIRA", "field_14": null, "field_15": null, "field_16": null }, "geometry": { "type": "Point", "coordinates": [ -46.590511, -21.778827 ] } },
{ "type": "Feature", "properties": { "NROCNPJ_PAD": "33382030000169", "STATUS_MAILING": "EMPRESA ELEGÍVEL ONLINE SEM SUCESSO NO CONTATO TELEFÔNICO/EMPRESA ELEGÍVEL PRESENCIAL NÃO VISITADA", "NOME_FANTASIA": "GUIMARAES ENGENHARIA E PROJETOS", "RAZAO_SOCIAL": "CALACIO GUIMARAES ENGENHARIA E PROJETOS LTDA.", "RESPONSAVEL": "ALVAROCALACIOGUIMARAES|LUCASGUIMARAESRIBEIRONOBLE", "MUNICIPIO": "POCOS DE CALDAS", "ENDEE": "PEDRO BERTOZZI, 75, VILA OLIMPICA, 37704-375, POCOS DE CALDAS, MG, BRASIL", "BANCO": "SICOOB AGROCREDI", "LINHA_AVAL_NOME": "GIRO", "LATITUDE": "-21.7791855", "LONGITUDE": "-46.6042438", "STATUS_OPERACIONAL": "CARTEIRA", "STATUS": "CARTEIRA", "field_14": null, "field_15": null, "field_16": null }, "geometry": { "type": "Point", "coordinates": [ -46.6042438, -21.7791855 ] } },
{ "type": "Feature", "properties": { "NROCNPJ_PAD": "53417757000141", "STATUS_MAILING": "EMPRESA ELEGÍVEL ONLINE SEM SUCESSO NO CONTATO TELEFÔNICO/EMPRESA ELEGÍVEL PRESENCIAL NÃO VISITADA", "NOME_FANTASIA": null, "RAZAO_SOCIAL": "MARIA GABRIELLA FERREIRA GREGORIO LTDA", "RESPONSAVEL": "MARIA GABRIELLA FERREIRA GREGORIO", "MUNICIPIO": "POCOS DE CALDAS", "ENDEE": "ASSIS FIGUEIREDO, 156, CENTRO, 37701-704, POCOS DE CALDAS, MG, BRASIL", "BANCO": "BDMG", "LINHA_AVAL_NOME": "GIRO", "LATITUDE": "-21.7795758", "LONGITUDE": "-46.5651431", "STATUS_OPERACIONAL": "CARTEIRA", "STATUS": "CARTEIRA", "field_14": null, "field_15": null, "field_16": null }, "geometry": { "type": "Point", "coordinates": [ -46.5651431, -21.7795758 ] } },
{ "type": "Feature", "properties": { "NROCNPJ_PAD": "47854699000110", "STATUS_MAILING": "EMPRESA ELEGÍVEL ONLINE SEM SUCESSO NO CONTATO TELEFÔNICO/EMPRESA ELEGÍVEL PRESENCIAL NÃO VISITADA", "NOME_FANTASIA": "VAREJISTA DE GAS E AGUA PORTO", "RAZAO_SOCIAL": "COMERCIO DE GAS E VAREJISTA DE BEBIDAS PORTO LTDA", "RESPONSAVEL": "JOSEANTONIOPORTO", "MUNICIPIO": "POCOS DE CALDAS", "ENDEE": "ANTONIO TOGNI, 2665, VILA CRUZ, 37704-356, POCOS DE CALDAS, MG, BRASIL", "BANCO": "SICOOB SAROM", "LINHA_AVAL_NOME": "GIRO", "LATITUDE": "-21.7796398", "LONGITUDE": "-46.5984872", "STATUS_OPERACIONAL": "CARTEIRA", "STATUS": "CARTEIRA", "field_14": null, "field_15": null, "field_16": null }, "geometry": { "type": "Point", "coordinates": [ -46.5984872, -21.7796398 ] } },
{ "type": "Feature", "properties": { "NROCNPJ_PAD": "10834206000170", "STATUS_MAILING": "EMPRESA ELEGÍVEL ONLINE SEM SUCESSO NO CONTATO TELEFÔNICO/EMPRESA ELEGÍVEL PRESENCIAL NÃO VISITADA", "NOME_FANTASIA": null, "RAZAO_SOCIAL": "VRL TRANSPORTES LTDA", "RESPONSAVEL": "LIDIANEMARECAMENDES|ROBERTOCARLOSMENDES", "MUNICIPIO": "POCOS DE CALDAS", "ENDEE": "MANSUR FRAYHA, 4.600, JARDIM ELIZABETE, 37704-355, POCOS DE CALDAS, MG, BRASIL", "BANCO": "SICOOB AGROCREDI", "LINHA_AVAL_NOME": "GIRO", "LATITUDE": "-21.7797298", "LONGITUDE": "-46.6017712", "STATUS_OPERACIONAL": "CARTEIRA", "STATUS": "CARTEIRA", "field_14": null, "field_15": null, "field_16": null }, "geometry": { "type": "Point", "coordinates": [ -46.6017712, -21.7797298 ] } },
{ "type": "Feature", "properties": { "NROCNPJ_PAD": "49388337000107", "STATUS_MAILING": "EMPRESA ELEGÍVEL ONLINE SEM SUCESSO NO CONTATO TELEFÔNICO/EMPRESA ELEGÍVEL PRESENCIAL NÃO VISITADA", "NOME_FANTASIA": "PJB CONSTRUCOES E REFORMAS", "RAZAO_SOCIAL": "PJB CONSTRUCOES E REFORMAS LTDA", "RESPONSAVEL": "-", "MUNICIPIO": "POCOS DE CALDAS", "ENDEE": "FELICIO BUARQUE, 62, JARDIM GAMA CRUZ, 37701-429, POCOS DE CALDAS, MG, BRASIL", "BANCO": "-", "LINHA_AVAL_NOME": "GIRO", "LATITUDE": "-21.7800323", "LONGITUDE": "-46.5899862", "STATUS_OPERACIONAL": "CARTEIRA", "STATUS": "CARTEIRA", "field_14": null, "field_15": null, "field_16": null }, "geometry": { "type": "Point", "coordinates": [ -46.5899862, -21.7800323 ] } },
{ "type": "Feature", "properties": { "NROCNPJ_PAD": "11955536000187", "STATUS_MAILING": "EMPRESA ELEGÍVEL ONLINE SEM SUCESSO NO CONTATO TELEFÔNICO/EMPRESA ELEGÍVEL PRESENCIAL NÃO VISITADA", "NOME_FANTASIA": "GR MOTOS", "RAZAO_SOCIAL": "11.955.536 EVERSON PEDRO JUVENTINO", "RESPONSAVEL": "EVERSONPEDROJUVENTINO", "MUNICIPIO": "POCOS DE CALDAS", "ENDEE": "JOSE MAMUD ASSAN, 13, JARDIM SAO JORGE, 37701-445, POCOS DE CALDAS, MG, BRASIL", "BANCO": "SICOOB AGROCREDI", "LINHA_AVAL_NOME": "GIRO", "LATITUDE": "-21.7810371", "LONGITUDE": "-46.593696", "STATUS_OPERACIONAL": "CARTEIRA", "STATUS": "CARTEIRA", "field_14": null, "field_15": null, "field_16": null }, "geometry": { "type": "Point", "coordinates": [ -46.593696, -21.7810371 ] } },
{ "type": "Feature", "properties": { "NROCNPJ_PAD": "38627289000146", "STATUS_MAILING": "EMPRESA ELEGÍVEL ONLINE SEM SUCESSO NO CONTATO TELEFÔNICO/EMPRESA ELEGÍVEL PRESENCIAL NÃO VISITADA", "NOME_FANTASIA": "ANIMAFESTAS", "RAZAO_SOCIAL": "ANIMA FESTAS PRODUCOES LTDA", "RESPONSAVEL": "WALLACY TEIXEIRA DA SILVA", "MUNICIPIO": "POCOS DE CALDAS", "ENDEE": "CHAMPAGNAT, 1028, SAO DOMINGOS, 37701-391, POCOS DE CALDAS, MG, BRASIL", "BANCO": "SICREDI UNIESTADOS", "LINHA_AVAL_NOME": "GIRO", "LATITUDE": "-21.782088", "LONGITUDE": "-46.5836869", "STATUS_OPERACIONAL": "CARTEIRA", "STATUS": "CARTEIRA", "field_14": null, "field_15": null, "field_16": null }, "geometry": { "type": "Point", "coordinates": [ -46.5836869, -21.782088 ] } },
{ "type": "Feature", "properties": { "NROCNPJ_PAD": "46893109000104", "STATUS_MAILING": "EMPRESA ELEGÍVEL ONLINE SEM SUCESSO NO CONTATO TELEFÔNICO/EMPRESA ELEGÍVEL PRESENCIAL NÃO VISITADA", "NOME_FANTASIA": "THE COFFEE TRADE CAFES ESPECIAIS", "RAZAO_SOCIAL": "THE COFFEE TRADE ASSESSORIA EM CAFES ESPECIAIS LTDA", "RESPONSAVEL": "THIAGOCASEMIROTROVO", "MUNICIPIO": "POCOS DE CALDAS", "ENDEE": "CHAMPAGNAT, 1340, SAO DOMINGOS, 37701-391, POCOS DE CALDAS, MG, BRASIL", "BANCO": "SICOOB AGROCREDI", "LINHA_AVAL_NOME": "GIRO", "LATITUDE": "-21.782577", "LONGITUDE": "-46.5865429", "STATUS_OPERACIONAL": "CARTEIRA", "STATUS": "CARTEIRA", "field_14": null, "field_15": null, "field_16": null }, "geometry": { "type": "Point", "coordinates": [ -46.5865429, -21.782577 ] } },
{ "type": "Feature", "properties": { "NROCNPJ_PAD": "59293836000174", "STATUS_MAILING": "EMPRESA ELEGÍVEL ONLINE SEM SUCESSO NO CONTATO TELEFÔNICO/EMPRESA ELEGÍVEL PRESENCIAL NÃO VISITADA", "NOME_FANTASIA": "OISHII BY O ARMAZEM DA VILA", "RAZAO_SOCIAL": "EFG GASTRONOMIA LTDA", "RESPONSAVEL": "LIVIA CRISTINA CASTRO E SILVA ALMEIDA", "MUNICIPIO": "POCOS DE CALDAS", "ENDEE": "CHAMPAGNAT, 1384, SAO DOMINGOS, 37701-391, POCOS DE CALDAS, MG, BRASIL", "BANCO": "SICREDI UNIESTADOS", "LINHA_AVAL_NOME": "EMPREENDEDORISMO FEM", "LATITUDE": "-21.7826005", "LONGITUDE": "-46.5869025", "STATUS_OPERACIONAL": "CARTEIRA", "STATUS": "CARTEIRA", "field_14": null, "field_15": null, "field_16": null }, "geometry": { "type": "Point", "coordinates": [ -46.5869025, -21.7826005 ] } },
{ "type": "Feature", "properties": { "NROCNPJ_PAD": "58216779000167", "STATUS_MAILING": "EMPRESA ELEGÍVEL ONLINE SEM SUCESSO NO CONTATO TELEFÔNICO/EMPRESA ELEGÍVEL PRESENCIAL NÃO VISITADA", "NOME_FANTASIA": null, "RAZAO_SOCIAL": "58.216.779 CRISTIANE CORREA DE OLIVEIRA FLORES", "RESPONSAVEL": "CRISTIANECORREADEOLIVEIRAFLORES", "MUNICIPIO": "POCOS DE CALDAS", "ENDEE": "CHAMPAGNAT, 1481, VILA CRUZ, 37701-870, POCOS DE CALDAS, MG, BRASIL", "BANCO": "SICOOB SAROM", "LINHA_AVAL_NOME": "EMPREENDEDORISMO FEM", "LATITUDE": "-21.7827579", "LONGITUDE": "-46.5879103", "STATUS_OPERACIONAL": "CARTEIRA", "STATUS": "CARTEIRA", "field_14": null, "field_15": null, "field_16": null }, "geometry": { "type": "Point", "coordinates": [ -46.5879103, -21.7827579 ] } },
{ "type": "Feature", "properties": { "NROCNPJ_PAD": "10638734000154", "STATUS_MAILING": "EMPRESA ELEGÍVEL ONLINE SEM SUCESSO NO CONTATO TELEFÔNICO/EMPRESA ELEGÍVEL PRESENCIAL NÃO VISITADA", "NOME_FANTASIA": "AUTO SOCORRO PASTEIS", "RAZAO_SOCIAL": "RODRIGUES SILVA DE OLIVEIRA", "RESPONSAVEL": "RODRIGUESSILVADEOLIVEIRA", "MUNICIPIO": "POCOS DE CALDAS", "ENDEE": "ANTONIO BORTOLAN, 250, BORTOLAN, 37704-397, POCOS DE CALDAS, MG, BRASIL", "BANCO": "-", "LINHA_AVAL_NOME": "GIRO", "LATITUDE": "-21.783105", "LONGITUDE": "-46.6296783", "STATUS_OPERACIONAL": "CARTEIRA", "STATUS": "CARTEIRA", "field_14": null, "field_15": null, "field_16": null }, "geometry": { "type": "Point", "coordinates": [ -46.6296783, -21.783105 ] } },
{ "type": "Feature", "properties": { "NROCNPJ_PAD": "53465074000160", "STATUS_MAILING": "EMPRESA ELEGÍVEL ONLINE SEM SUCESSO NO CONTATO TELEFÔNICO/EMPRESA ELEGÍVEL PRESENCIAL NÃO VISITADA", "NOME_FANTASIA": null, "RAZAO_SOCIAL": "POCOS FIT ACADEMIA LTDA", "RESPONSAVEL": "PATRICIAINACIO|RICARDOGUIMARAES", "MUNICIPIO": "POCOS DE CALDAS", "ENDEE": "JOAO PINHEIRO, 2750, CENTRO, 37701-387, POCOS DE CALDAS, MG, BRASIL", "BANCO": "SICOOB CREDIGUAÇU", "LINHA_AVAL_NOME": "GIRO", "LATITUDE": "-21.7833489", "LONGITUDE": "-46.5986467", "STATUS_OPERACIONAL": "CARTEIRA", "STATUS": "CARTEIRA", "field_14": null, "field_15": null, "field_16": null }, "geometry": { "type": "Point", "coordinates": [ -46.5986467, -21.7833489 ] } },
{ "type": "Feature", "properties": { "NROCNPJ_PAD": "17416769000198", "STATUS_MAILING": "EMPRESA ELEGÍVEL ONLINE SEM SUCESSO NO CONTATO TELEFÔNICO/EMPRESA ELEGÍVEL PRESENCIAL NÃO VISITADA", "NOME_FANTASIA": null, "RAZAO_SOCIAL": "LABORATORIO DE ANALISES CLINICAS SAO GERALDO LTDA", "RESPONSAVEL": "ANDREARAUJORIBEIRO|OTAVIOARAUJORIBEIRO|ROSALVA FIGUEIREDO ARAUJO RIBEIRO|ROVILSON JESUS RIBEIRO", "MUNICIPIO": "POCOS DE CALDAS", "ENDEE": "NICO DUARTE, 1010, VILA CRUZ, 37701-507, POCOS DE CALDAS, MG, BRASIL", "BANCO": "SICOOB AGROCREDI", "LINHA_AVAL_NOME": "GIRO", "LATITUDE": "-21.7835237", "LONGITUDE": "-46.5912828", "STATUS_OPERACIONAL": "CARTEIRA", "STATUS": "CARTEIRA", "field_14": null, "field_15": null, "field_16": null }, "geometry": { "type": "Point", "coordinates": [ -46.5912828, -21.7835237 ] } },
{ "type": "Feature", "properties": { "NROCNPJ_PAD": "32674763000104", "STATUS_MAILING": "EMPRESA ELEGÍVEL ONLINE SEM SUCESSO NO CONTATO TELEFÔNICO/EMPRESA ELEGÍVEL PRESENCIAL NÃO VISITADA", "NOME_FANTASIA": "FRANK FUNILARIA AUTOMOTIVA", "RAZAO_SOCIAL": "FRANK COSTA EVANGELISTA 01520513682", "RESPONSAVEL": "FRANKCOSTAEVANGELISTA", "MUNICIPIO": "POCOS DE CALDAS", "ENDEE": "MANSUR FRAYHA, 539, JARDIM ELIZABETE, 37704-355, POCOS DE CALDAS, MG, BRASIL", "BANCO": "SICOOB AGROCREDI", "LINHA_AVAL_NOME": "GIRO", "LATITUDE": "-21.7836628", "LONGITUDE": "-46.5976395", "STATUS_OPERACIONAL": "CARTEIRA", "STATUS": "CARTEIRA", "field_14": null, "field_15": null, "field_16": null }, "geometry": { "type": "Point", "coordinates": [ -46.5976395, -21.7836628 ] } },
{ "type": "Feature", "properties": { "NROCNPJ_PAD": "45941933000111", "STATUS_MAILING": "EMPRESA ELEGÍVEL ONLINE SEM SUCESSO NO CONTATO TELEFÔNICO/EMPRESA ELEGÍVEL PRESENCIAL NÃO VISITADA", "NOME_FANTASIA": "CACAU SHOW", "RAZAO_SOCIAL": "JULIANO GABAS CHOCOLATES LTDA", "RESPONSAVEL": "-", "MUNICIPIO": "POCOS DE CALDAS", "ENDEE": "JOAO PINHEIRO, 2500, CENTRO, 37701-386, POCOS DE CALDAS, MG, BRASIL", "BANCO": "-", "LINHA_AVAL_NOME": "GIRO", "LATITUDE": "-21.7845603", "LONGITUDE": "-46.5969494", "STATUS_OPERACIONAL": "CARTEIRA", "STATUS": "CARTEIRA", "field_14": null, "field_15": null, "field_16": null }, "geometry": { "type": "Point", "coordinates": [ -46.5969494, -21.7845603 ] } },
{ "type": "Feature", "properties": { "NROCNPJ_PAD": "28549030000170", "STATUS_MAILING": "EMPRESA ELEGÍVEL ONLINE SEM SUCESSO NO CONTATO TELEFÔNICO/EMPRESA ELEGÍVEL PRESENCIAL NÃO VISITADA", "NOME_FANTASIA": "LAGOTERRA", "RAZAO_SOCIAL": "LAGOTERRA LOCACAO DE MAQUINAS DE TERRAPLENAGENS E TRANSPORTES LTDA", "RESPONSAVEL": "EDSONBENEDITODOLAGO|NATANJUNIODOLAGO", "MUNICIPIO": "POCOS DE CALDAS", "ENDEE": "FLAVIO ACCONCIA, 00010, PARQUE PRIMAVERA, 37704-143, POCOS DE CALDAS, MG, BRASIL", "BANCO": "SICOOB AGROCREDI", "LINHA_AVAL_NOME": "GIRO", "LATITUDE": "-21.7847566", "LONGITUDE": "-46.558752", "STATUS_OPERACIONAL": "CARTEIRA", "STATUS": "CARTEIRA", "field_14": null, "field_15": null, "field_16": null }, "geometry": { "type": "Point", "coordinates": [ -46.558752, -21.7847566 ] } },
{ "type": "Feature", "properties": { "NROCNPJ_PAD": "06985872000132", "STATUS_MAILING": "EMPRESA ELEGÍVEL ONLINE SEM SUCESSO NO CONTATO TELEFÔNICO/EMPRESA ELEGÍVEL PRESENCIAL NÃO VISITADA", "NOME_FANTASIA": "CUBE MULTICOMUNICACAO", "RAZAO_SOCIAL": "CUBE MULTICOMUNICACAO LTDA", "RESPONSAVEL": "DOUGLASMIGLIORANZIJUNIOR|JULIANAMIGOTMIGLIORANZI", "MUNICIPIO": "POCOS DE CALDAS", "ENDEE": "JOAO PINHEIRO, 1374, CENTRO, 37701-386, POCOS DE CALDAS, MG, BRASIL", "BANCO": "SICOOB AGROCREDI", "LINHA_AVAL_NOME": "GIRO", "LATITUDE": "-21.7849234", "LONGITUDE": "-46.585953", "STATUS_OPERACIONAL": "CARTEIRA", "STATUS": "CARTEIRA", "field_14": null, "field_15": null, "field_16": null }, "geometry": { "type": "Point", "coordinates": [ -46.585953, -21.7849234 ] } },
{ "type": "Feature", "properties": { "NROCNPJ_PAD": "56898402000100", "STATUS_MAILING": "EMPRESA ELEGÍVEL ONLINE SEM SUCESSO NO CONTATO TELEFÔNICO/EMPRESA ELEGÍVEL PRESENCIAL NÃO VISITADA", "NOME_FANTASIA": null, "RAZAO_SOCIAL": "56.898.402 AMANDA ALVES FLAUSINO", "RESPONSAVEL": "AMANDA ALVES FLAUSINO", "MUNICIPIO": "POCOS DE CALDAS", "ENDEE": "MAURICIO VIEIRA ROMAO, 120, JARDIM ELVIRA DIAS, 37718-108, POCOS DE CALDAS, MG, BRASIL", "BANCO": "SICREDI UNIESTADOS", "LINHA_AVAL_NOME": "EMPREENDEDORISMO FEM", "LATITUDE": "-21.7856949", "LONGITUDE": "-46.599726", "STATUS_OPERACIONAL": "CARTEIRA", "STATUS": "CARTEIRA", "field_14": null, "field_15": null, "field_16": null }, "geometry": { "type": "Point", "coordinates": [ -46.599726, -21.7856949 ] } },
{ "type": "Feature", "properties": { "NROCNPJ_PAD": "01691895000110", "STATUS_MAILING": "EMPRESA ELEGÍVEL ONLINE SEM SUCESSO NO CONTATO TELEFÔNICO/EMPRESA ELEGÍVEL PRESENCIAL NÃO VISITADA", "NOME_FANTASIA": null, "RAZAO_SOCIAL": "ELETRONICA MUNDIAL TV LTDA", "RESPONSAVEL": "-", "MUNICIPIO": "POCOS DE CALDAS", "ENDEE": "DOUTOR MARIO DE PAIVA, 637, VILA NOVA, 37701-104, POCOS DE CALDAS, MG, BRASIL", "BANCO": "-", "LINHA_AVAL_NOME": "GIRO", "LATITUDE": "-21.7868936", "LONGITUDE": "-46.5534251", "STATUS_OPERACIONAL": "CARTEIRA", "STATUS": "CARTEIRA", "field_14": null, "field_15": null, "field_16": null }, "geometry": { "type": "Point", "coordinates": [ -46.5534251, -21.7868936 ] } },
{ "type": "Feature", "properties": { "NROCNPJ_PAD": "25869181000118", "STATUS_MAILING": "EMPRESA ELEGÍVEL ONLINE SEM SUCESSO NO CONTATO TELEFÔNICO/EMPRESA ELEGÍVEL PRESENCIAL NÃO VISITADA", "NOME_FANTASIA": "BETO TRANSPORTES", "RAZAO_SOCIAL": "ALBERTO DOS SANTOS DUMONT MARTINS", "RESPONSAVEL": "ALBERTODOSSANTOSDUMONTMARTINS", "MUNICIPIO": "POCOS DE CALDAS", "ENDEE": "CEL VIRGILIO SILVA, 848, VILA NOVA, 37701-304, POCOS DE CALDAS, MG, BRASIL", "BANCO": "SICOOB AGROCREDI", "LINHA_AVAL_NOME": "GIRO", "LATITUDE": "-21.7872353", "LONGITUDE": "-46.5512985", "STATUS_OPERACIONAL": "CARTEIRA", "STATUS": "CARTEIRA", "field_14": null, "field_15": null, "field_16": null }, "geometry": { "type": "Point", "coordinates": [ -46.5512985, -21.7872353 ] } },
{ "type": "Feature", "properties": { "NROCNPJ_PAD": "19315351000110", "STATUS_MAILING": "EMPRESA ELEGÍVEL ONLINE SEM SUCESSO NO CONTATO TELEFÔNICO/EMPRESA ELEGÍVEL PRESENCIAL NÃO VISITADA", "NOME_FANTASIA": "MKM AUTOMACAO", "RAZAO_SOCIAL": "MKM SERVICOS DE AUTOMACAO ELETRICA E MECANICA LTDA", "RESPONSAVEL": "KEILASANTOSFERREIRA|MARCOAURELIOGUIMARAESDECARVALHO", "MUNICIPIO": "POCOS DE CALDAS", "ENDEE": "JOSE REMIGIO PREZIA, 1351, JARDIM SANTA ROSALIA, 37704-580, POCOS DE CALDAS, MG, BRASIL", "BANCO": "SICOOB AGROCREDI", "LINHA_AVAL_NOME": "GIRO", "LATITUDE": "-21.787378", "LONGITUDE": "-46.5438358", "STATUS_OPERACIONAL": "CARTEIRA", "STATUS": "CARTEIRA", "field_14": null, "field_15": null, "field_16": null }, "geometry": { "type": "Point", "coordinates": [ -46.5438358, -21.787378 ] } },
{ "type": "Feature", "properties": { "NROCNPJ_PAD": "23658071000181", "STATUS_MAILING": "EMPRESA ELEGÍVEL ONLINE SEM SUCESSO NO CONTATO TELEFÔNICO/EMPRESA ELEGÍVEL PRESENCIAL NÃO VISITADA", "NOME_FANTASIA": "KI AREIA DO PAULAO", "RAZAO_SOCIAL": "ANA MARIA DE PAULA", "RESPONSAVEL": "ANAMARIADEPAULADASILVA", "MUNICIPIO": "POCOS DE CALDAS", "ENDEE": "MARIA AMELIA DE SOUZA, 12, VILA NOVA, 37701-640, POCOS DE CALDAS, MG, BRASIL", "BANCO": "SICOOB AGROCREDI", "LINHA_AVAL_NOME": "GIRO", "LATITUDE": "-21.787657", "LONGITUDE": "-46.546581", "STATUS_OPERACIONAL": "CARTEIRA", "STATUS": "CARTEIRA", "field_14": null, "field_15": null, "field_16": null }, "geometry": { "type": "Point", "coordinates": [ -46.546581, -21.787657 ] } },
{ "type": "Feature", "properties": { "NROCNPJ_PAD": "22558637000130", "STATUS_MAILING": "EMPRESA ELEGÍVEL ONLINE SEM SUCESSO NO CONTATO TELEFÔNICO/EMPRESA ELEGÍVEL PRESENCIAL NÃO VISITADA", "NOME_FANTASIA": "BOSCO DISTRIBUIDORA", "RAZAO_SOCIAL": "BOSCO DISTRIBUIDORA LTDA", "RESPONSAVEL": "JOAOBOSCODAMBROSIO", "MUNICIPIO": "POCOS DE CALDAS", "ENDEE": "FRANCISCO JESUALDI, 00126, JARDIM NOVO MUNDO, 37701-346, POCOS DE CALDAS, MG, BRASIL", "BANCO": "SICOOB AGROCREDI", "LINHA_AVAL_NOME": "GIRO", "LATITUDE": "-21.7884669", "LONGITUDE": "-46.5880152", "STATUS_OPERACIONAL": "CARTEIRA", "STATUS": "CARTEIRA", "field_14": null, "field_15": null, "field_16": null }, "geometry": { "type": "Point", "coordinates": [ -46.5880152, -21.7884669 ] } },
{ "type": "Feature", "properties": { "NROCNPJ_PAD": "29666915000112", "STATUS_MAILING": "EMPRESA ELEGÍVEL ONLINE SEM SUCESSO NO CONTATO TELEFÔNICO/EMPRESA ELEGÍVEL PRESENCIAL NÃO VISITADA", "NOME_FANTASIA": "LB.CLOTHING", "RAZAO_SOCIAL": "29.666.915 LUCAS DANIEL BANHOS", "RESPONSAVEL": "LUCAS DANIEL BANHOS", "MUNICIPIO": "POCOS DE CALDAS", "ENDEE": "MAJOR JOAQUIM BERNARDES, 645, NOSSA SENHORA APARECIDA, 37701-454, POCOS DE CALDAS, MG, BRASIL", "BANCO": "SICREDI UNIESTADOS", "LINHA_AVAL_NOME": "GIRO", "LATITUDE": "-21.7884715", "LONGITUDE": "-46.5530896", "STATUS_OPERACIONAL": "CARTEIRA", "STATUS": "CARTEIRA", "field_14": null, "field_15": null, "field_16": null }, "geometry": { "type": "Point", "coordinates": [ -46.5530896, -21.7884715 ] } },
{ "type": "Feature", "properties": { "NROCNPJ_PAD": "30731571000167", "STATUS_MAILING": "EMPRESA ELEGÍVEL ONLINE SEM SUCESSO NO CONTATO TELEFÔNICO/EMPRESA ELEGÍVEL PRESENCIAL NÃO VISITADA", "NOME_FANTASIA": "LIGUE GAS CLAITON", "RAZAO_SOCIAL": "CLAITON GAS LTDA", "RESPONSAVEL": "CLAITONGARCIADOSSANTOS", "MUNICIPIO": "POCOS DE CALDAS", "ENDEE": "CORONEL VIRGILIO SILVA, 1908, SANTA EMILIA, 37704-620, POCOS DE CALDAS, MG, BRASIL", "BANCO": "SICOOB AGROCREDI", "LINHA_AVAL_NOME": "GIRO", "LATITUDE": "-21.7887055", "LONGITUDE": "-46.5424844", "STATUS_OPERACIONAL": "CARTEIRA", "STATUS": "CARTEIRA", "field_14": null, "field_15": null, "field_16": null }, "geometry": { "type": "Point", "coordinates": [ -46.5424844, -21.7887055 ] } },
{ "type": "Feature", "properties": { "NROCNPJ_PAD": "50882362000121", "STATUS_MAILING": "EMPRESA ELEGÍVEL ONLINE SEM SUCESSO NO CONTATO TELEFÔNICO/EMPRESA ELEGÍVEL PRESENCIAL NÃO VISITADA", "NOME_FANTASIA": "MAXIMUS BUFFET", "RAZAO_SOCIAL": "50.882.362 JANE GONCALVES MOREIRA", "RESPONSAVEL": "JANE GONCALVES MOREIRA", "MUNICIPIO": "POCOS DE CALDAS", "ENDEE": "JOAO BUENO BRANDAO, 140, SAO GERALDO, 37701-339, POCOS DE CALDAS, MG, BRASIL", "BANCO": "SICREDI UNIESTADOS", "LINHA_AVAL_NOME": "EMPREENDEDORISMO FEM", "LATITUDE": "-21.788832", "LONGITUDE": "-46.5857733", "STATUS_OPERACIONAL": "CARTEIRA", "STATUS": "CARTEIRA", "field_14": null, "field_15": null, "field_16": null }, "geometry": { "type": "Point", "coordinates": [ -46.5857733, -21.788832 ] } },
{ "type": "Feature", "properties": { "NROCNPJ_PAD": "33533229000140", "STATUS_MAILING": "EMPRESA ELEGÍVEL ONLINE SEM SUCESSO NO CONTATO TELEFÔNICO/EMPRESA ELEGÍVEL PRESENCIAL NÃO VISITADA", "NOME_FANTASIA": "Centro Educacional Agape", "RAZAO_SOCIAL": "AGAPE EDUCACAO INFANTIL E BERCARIO LTDA", "RESPONSAVEL": "LUISA OLIVEIRA COSTA|RODRIGO JUNQUEIRA FERREIRA", "MUNICIPIO": "POCOS DE CALDAS", "ENDEE": "ALFREDO VALQUES, 100, JARDIM COUNTRY CLUB, 37704-286, POCOS DE CALDAS, MG, BRASIL", "BANCO": "SICREDI UNIESTADOS", "LINHA_AVAL_NOME": "GIRO", "LATITUDE": "-21.7888837", "LONGITUDE": "-46.5973367", "STATUS_OPERACIONAL": "CARTEIRA", "STATUS": "CARTEIRA", "field_14": null, "field_15": null, "field_16": null }, "geometry": { "type": "Point", "coordinates": [ -46.5973367, -21.7888837 ] } },
{ "type": "Feature", "properties": { "NROCNPJ_PAD": "40237571000169", "STATUS_MAILING": "EMPRESA ELEGÍVEL ONLINE SEM SUCESSO NO CONTATO TELEFÔNICO/EMPRESA ELEGÍVEL PRESENCIAL NÃO VISITADA", "NOME_FANTASIA": "LMS INSTALACOES INDUSTRIAIS", "RAZAO_SOCIAL": "LUCIANO MAIOCHI SAMPAIO", "RESPONSAVEL": "LUCIANO MAIOCHI SAMPAIO", "MUNICIPIO": "POCOS DE CALDAS", "ENDEE": "LAZARO FRAGA, 140, JARDIM COUNTRY CLUB, 37704-294, POCOS DE CALDAS, MG, BRASIL", "BANCO": "BDMG", "LINHA_AVAL_NOME": "GIRO", "LATITUDE": "-21.7896071", "LONGITUDE": "-46.5959872", "STATUS_OPERACIONAL": "CARTEIRA", "STATUS": "CARTEIRA", "field_14": null, "field_15": null, "field_16": null }, "geometry": { "type": "Point", "coordinates": [ -46.5959872, -21.7896071 ] } },
{ "type": "Feature", "properties": { "NROCNPJ_PAD": "55842914000191", "STATUS_MAILING": "EMPRESA ELEGÍVEL ONLINE SEM SUCESSO NO CONTATO TELEFÔNICO/EMPRESA ELEGÍVEL PRESENCIAL NÃO VISITADA", "NOME_FANTASIA": null, "RAZAO_SOCIAL": "55.842.914 MARIA EDUARDA DE PAULA MARCELINO", "RESPONSAVEL": "MARIA EDUARDA DE PAULA MARCELINO", "MUNICIPIO": "POCOS DE CALDAS", "ENDEE": "DOUTOR MARTINIANO BRANDAO, 243, NOSSA SENHORA APARECIDA, 37701-145, POCOS DE CALDAS, MG, BRASIL", "BANCO": "SICREDI UNIESTADOS", "LINHA_AVAL_NOME": "EMPREENDEDORISMO FEM", "LATITUDE": "-21.7898197", "LONGITUDE": "-46.5546641", "STATUS_OPERACIONAL": "CARTEIRA", "STATUS": "CARTEIRA", "field_14": null, "field_15": null, "field_16": null }, "geometry": { "type": "Point", "coordinates": [ -46.5546641, -21.7898197 ] } },
{ "type": "Feature", "properties": { "NROCNPJ_PAD": "22208137000179", "STATUS_MAILING": "EMPRESA ELEGÍVEL ONLINE SEM SUCESSO NO CONTATO TELEFÔNICO/EMPRESA ELEGÍVEL PRESENCIAL NÃO VISITADA", "NOME_FANTASIA": "DROGAVILA SUPER", "RAZAO_SOCIAL": "DROGARIA DROGAVILA SUPER LTDA", "RESPONSAVEL": "BRUNA FAUSTINO SIRCA|NATALIA FAUSTINO SIRCA CORREA", "MUNICIPIO": "POCOS DE CALDAS", "ENDEE": "MONSENHOR ALDERIGI, 00230, JARDIM COUNTRY CLUB, 37704-284, POCOS DE CALDAS, MG, BRASIL", "BANCO": "SICREDI DEXIS", "LINHA_AVAL_NOME": "EMPREENDEDORISMO FEM", "LATITUDE": "-21.7900339", "LONGITUDE": "-46.6002689", "STATUS_OPERACIONAL": "CARTEIRA", "STATUS": "CARTEIRA", "field_14": null, "field_15": null, "field_16": null }, "geometry": { "type": "Point", "coordinates": [ -46.6002689, -21.7900339 ] } },
{ "type": "Feature", "properties": { "NROCNPJ_PAD": "08039392000104", "STATUS_MAILING": "EMPRESA ELEGÍVEL ONLINE SEM SUCESSO NO CONTATO TELEFÔNICO/EMPRESA ELEGÍVEL PRESENCIAL NÃO VISITADA", "NOME_FANTASIA": "EL SHADAY TRANSPORTES", "RAZAO_SOCIAL": "RODRIGO DOS SANTOS TRANSPORTE", "RESPONSAVEL": "RODRIGODOSSANTOS", "MUNICIPIO": "POCOS DE CALDAS", "ENDEE": "DOUTOR VICENTE RISOLA, 306, SAO BENEDITO, 37701-168, POCOS DE CALDAS, MG, BRASIL", "BANCO": "SICOOB AGROCREDI", "LINHA_AVAL_NOME": "GIRO", "LATITUDE": "-21.7909651", "LONGITUDE": "-46.5601854", "STATUS_OPERACIONAL": "CARTEIRA", "STATUS": "CARTEIRA", "field_14": null, "field_15": null, "field_16": null }, "geometry": { "type": "Point", "coordinates": [ -46.5601854, -21.7909651 ] } },
{ "type": "Feature", "properties": { "NROCNPJ_PAD": "49504184000116", "STATUS_MAILING": "EMPRESA ELEGÍVEL ONLINE SEM SUCESSO NO CONTATO TELEFÔNICO/EMPRESA ELEGÍVEL PRESENCIAL NÃO VISITADA", "NOME_FANTASIA": "ORIENTE ENGENHARIA", "RAZAO_SOCIAL": "ORIENS ENGENHARIA LTDA", "RESPONSAVEL": "-", "MUNICIPIO": "POCOS DE CALDAS", "ENDEE": "DOUTOR WILSON RAFAEL DANZA, 531, SAO GERALDO, 37701-336, POCOS DE CALDAS, MG, BRASIL", "BANCO": "-", "LINHA_AVAL_NOME": "GIRO", "LATITUDE": "-21.7910457", "LONGITUDE": "-46.5838314", "STATUS_OPERACIONAL": "CARTEIRA", "STATUS": "CARTEIRA", "field_14": null, "field_15": null, "field_16": null }, "geometry": { "type": "Point", "coordinates": [ -46.5838314, -21.7910457 ] } },
{ "type": "Feature", "properties": { "NROCNPJ_PAD": "57557995000103", "STATUS_MAILING": "EMPRESA ELEGÍVEL ONLINE SEM SUCESSO NO CONTATO TELEFÔNICO/EMPRESA ELEGÍVEL PRESENCIAL NÃO VISITADA", "NOME_FANTASIA": "MERCA10", "RAZAO_SOCIAL": "MERCA10 COMERCIO DE PRODUTOS ALIMENTICIOS LTDA", "RESPONSAVEL": "LUCCAS CORREA EUZEBIO|RICARDO MERI OSSANI|WILLIAM APARECIDO RAMOS", "MUNICIPIO": "POCOS DE CALDAS", "ENDEE": "JOVINA MORAS DINIZ, 645, RESIDENCIAL VEREDAS, 37704-860, POCOS DE CALDAS, MG, BRASIL", "BANCO": "SICREDI DEXIS", "LINHA_AVAL_NOME": "GIRO", "LATITUDE": "-21.7917626", "LONGITUDE": "-46.6070404", "STATUS_OPERACIONAL": "CARTEIRA", "STATUS": "CARTEIRA", "field_14": null, "field_15": null, "field_16": null }, "geometry": { "type": "Point", "coordinates": [ -46.6070404, -21.7917626 ] } },
{ "type": "Feature", "properties": { "NROCNPJ_PAD": "08659596000148", "STATUS_MAILING": "EMPRESA ELEGÍVEL ONLINE SEM SUCESSO NO CONTATO TELEFÔNICO/EMPRESA ELEGÍVEL PRESENCIAL NÃO VISITADA", "NOME_FANTASIA": "MINAS GRAN MARMORARIA LTDA", "RAZAO_SOCIAL": "MINAS GRAN MARMORARIA LTDA", "RESPONSAVEL": "CARLOSROBERTOPEREIRA|JULIOCESARPEREIRA", "MUNICIPIO": "POCOS DE CALDAS", "ENDEE": "PRESIDENTE WENCESLAU BRAZ, 840, PARQUE PRIMAVERA, 37706-000, POCOS DE CALDAS, MG, BRASIL", "BANCO": "SICOOB AGROCREDI", "LINHA_AVAL_NOME": "GIRO", "LATITUDE": "-21.7921675", "LONGITUDE": "-46.5328635", "STATUS_OPERACIONAL": "CARTEIRA", "STATUS": "CARTEIRA", "field_14": null, "field_15": null, "field_16": null }, "geometry": { "type": "Point", "coordinates": [ -46.5328635, -21.7921675 ] } },
{ "type": "Feature", "properties": { "NROCNPJ_PAD": "39814953000129", "STATUS_MAILING": "EMPRESA ELEGÍVEL ONLINE SEM SUCESSO NO CONTATO TELEFÔNICO/EMPRESA ELEGÍVEL PRESENCIAL NÃO VISITADA", "NOME_FANTASIA": "BELLA VITA", "RAZAO_SOCIAL": "IRIS SILVEIRA PILATES E DERMATOFUNCIONAL LTDA", "RESPONSAVEL": "IRIS SILVEIRA", "MUNICIPIO": "POCOS DE CALDAS", "ENDEE": "DOUTOR REINALDO AMARANTE, 460, DA SAUDE, 37701-050, POCOS DE CALDAS, MG, BRASIL", "BANCO": "SICREDI UNIESTADOS", "LINHA_AVAL_NOME": "EMPREENDEDORISMO FEM", "LATITUDE": "-21.7928024", "LONGITUDE": "-46.570382", "STATUS_OPERACIONAL": "CARTEIRA", "STATUS": "CARTEIRA", "field_14": null, "field_15": null, "field_16": null }, "geometry": { "type": "Point", "coordinates": [ -46.570382, -21.7928024 ] } },
{ "type": "Feature", "properties": { "NROCNPJ_PAD": "38419817000171", "STATUS_MAILING": "EMPRESA ELEGÍVEL ONLINE SEM SUCESSO NO CONTATO TELEFÔNICO/EMPRESA ELEGÍVEL PRESENCIAL NÃO VISITADA", "NOME_FANTASIA": "JARDINAGEM MANUTENCAO FIGUEIREDO", "RAZAO_SOCIAL": "38.419.817 HOMERO LUIZ DE FIGUEIREDO", "RESPONSAVEL": "HOMEROLUIZDEFIGUEIREDO", "MUNICIPIO": "POCOS DE CALDAS", "ENDEE": "CANINDE, 98, JARDIM SAO PAULO, 37704-005, POCOS DE CALDAS, MG, BRASIL", "BANCO": "SICOOB SAROM", "LINHA_AVAL_NOME": "GIRO", "LATITUDE": "-21.7931629", "LONGITUDE": "-46.5526954", "STATUS_OPERACIONAL": "CARTEIRA", "STATUS": "CARTEIRA", "field_14": null, "field_15": null, "field_16": null }, "geometry": { "type": "Point", "coordinates": [ -46.5526954, -21.7931629 ] } },
{ "type": "Feature", "properties": { "NROCNPJ_PAD": "24176171000134", "STATUS_MAILING": "EMPRESA ELEGÍVEL ONLINE SEM SUCESSO NO CONTATO TELEFÔNICO/EMPRESA ELEGÍVEL PRESENCIAL NÃO VISITADA", "NOME_FANTASIA": "RENOVE PNEUS", "RAZAO_SOCIAL": "LEIDIANA KAREN GONCALVES RODRIGUES", "RESPONSAVEL": "LEIDIANAKARENGONCALVESRODRIGUES", "MUNICIPIO": "POCOS DE CALDAS", "ENDEE": "MARECHAL CASTELO BRANCO, 545, JARDIM SAO PAULO, 37704-000, POCOS DE CALDAS, MG, BRASIL", "BANCO": "SICOOB SAROM", "LINHA_AVAL_NOME": "EMPREENDEDORISMO FEM", "LATITUDE": "-21.7932617", "LONGITUDE": "-46.5505486", "STATUS_OPERACIONAL": "CARTEIRA", "STATUS": "CARTEIRA", "field_14": null, "field_15": null, "field_16": null }, "geometry": { "type": "Point", "coordinates": [ -46.5505486, -21.7932617 ] } },
{ "type": "Feature", "properties": { "NROCNPJ_PAD": "27501751000148", "STATUS_MAILING": "EMPRESA ELEGÍVEL ONLINE SEM SUCESSO NO CONTATO TELEFÔNICO/EMPRESA ELEGÍVEL PRESENCIAL NÃO VISITADA", "NOME_FANTASIA": "HCA EXECUCOES", "RAZAO_SOCIAL": "CLAUDIO HENRIQUE AMORIM PEREIRA 26979176838", "RESPONSAVEL": "CLAUDIO HENRIQUE AMORIM PEREIRA", "MUNICIPIO": "POCOS DE CALDAS", "ENDEE": "ANTONIO EMIDIO DE REZENDE, 978, JARDIM COUNTRY CLUB, 37704-283, POCOS DE CALDAS, MG, BRASIL", "BANCO": "BDMG", "LINHA_AVAL_NOME": "GIRO", "LATITUDE": "-21.7933326", "LONGITUDE": "-46.5993303", "STATUS_OPERACIONAL": "CARTEIRA", "STATUS": "CARTEIRA", "field_14": null, "field_15": null, "field_16": null }, "geometry": { "type": "Point", "coordinates": [ -46.5993303, -21.7933326 ] } },
{ "type": "Feature", "properties": { "NROCNPJ_PAD": "53515997000189", "STATUS_MAILING": "EMPRESA ELEGÍVEL ONLINE SEM SUCESSO NO CONTATO TELEFÔNICO/EMPRESA ELEGÍVEL PRESENCIAL NÃO VISITADA", "NOME_FANTASIA": null, "RAZAO_SOCIAL": "MIZU DISTRIBUIDORA LTDA", "RESPONSAVEL": "VALERIA CASSIA SCHULTZ", "MUNICIPIO": "POCOS DE CALDAS", "ENDEE": "IPIRANGA, 69, DOM BOSCO, 37704-111, POCOS DE CALDAS, MG, BRASIL", "BANCO": "SICREDI UNIESTADOS", "LINHA_AVAL_NOME": "EMPREENDEDORISMO FEM", "LATITUDE": "-21.7934942", "LONGITUDE": "-46.535611", "STATUS_OPERACIONAL": "CARTEIRA", "STATUS": "CARTEIRA", "field_14": null, "field_15": null, "field_16": null }, "geometry": { "type": "Point", "coordinates": [ -46.535611, -21.7934942 ] } },
{ "type": "Feature", "properties": { "NROCNPJ_PAD": "41268873000167", "STATUS_MAILING": "EMPRESA ELEGÍVEL ONLINE SEM SUCESSO NO CONTATO TELEFÔNICO/EMPRESA ELEGÍVEL PRESENCIAL NÃO VISITADA", "NOME_FANTASIA": "ORGANIZACAO ERGO PREMIUM DE SOLUCOES LTDA", "RAZAO_SOCIAL": "ORGANIZACAO ERGO PREMIUM DE SOLUCOES LTDA", "RESPONSAVEL": "-", "MUNICIPIO": "POCOS DE CALDAS", "ENDEE": "CASTRO ALVES, 409, JARDIM CASCATINHA, 37701-832, POCOS DE CALDAS, MG, BRASIL", "BANCO": "-", "LINHA_AVAL_NOME": "GIRO", "LATITUDE": "-21.7938136", "LONGITUDE": "-46.5586683", "STATUS_OPERACIONAL": "CARTEIRA", "STATUS": "CARTEIRA", "field_14": null, "field_15": null, "field_16": null }, "geometry": { "type": "Point", "coordinates": [ -46.5586683, -21.7938136 ] } },
{ "type": "Feature", "properties": { "NROCNPJ_PAD": "55014547000138", "STATUS_MAILING": "EMPRESA ELEGÍVEL ONLINE SEM SUCESSO NO CONTATO TELEFÔNICO/EMPRESA ELEGÍVEL PRESENCIAL NÃO VISITADA", "NOME_FANTASIA": null, "RAZAO_SOCIAL": "55.014.547 JUNIOR SATURNINO DA SILVA", "RESPONSAVEL": "JUNIORSATURNINODASILVA", "MUNICIPIO": "POCOS DE CALDAS", "ENDEE": "BARAO DO CAMPO MISTICO, 760, CENTRO, 37701-039, POCOS DE CALDAS, MG, BRASIL", "BANCO": "SICOOB AGROCREDI", "LINHA_AVAL_NOME": "GIRO", "LATITUDE": "-21.7954436", "LONGITUDE": "-46.5705849", "STATUS_OPERACIONAL": "CARTEIRA", "STATUS": "CARTEIRA", "field_14": null, "field_15": null, "field_16": null }, "geometry": { "type": "Point", "coordinates": [ -46.5705849, -21.7954436 ] } },
{ "type": "Feature", "properties": { "NROCNPJ_PAD": "56124277000180", "STATUS_MAILING": "EMPRESA ELEGÍVEL ONLINE SEM SUCESSO NO CONTATO TELEFÔNICO/EMPRESA ELEGÍVEL PRESENCIAL NÃO VISITADA", "NOME_FANTASIA": "77 AUTO PECAS", "RAZAO_SOCIAL": "77 AUTO PECAS LTDA", "RESPONSAVEL": "GABRIELPEREIRADASILVA", "MUNICIPIO": "POCOS DE CALDAS", "ENDEE": "ANTONIO MARCELLO, 15, JARDIM BELA VISTA, 37701-459, POCOS DE CALDAS, MG, BRASIL", "BANCO": "SICOOB AGROCREDI", "LINHA_AVAL_NOME": "GIRO", "LATITUDE": "-21.795906", "LONGITUDE": "-46.566339", "STATUS_OPERACIONAL": "CARTEIRA", "STATUS": "CARTEIRA", "field_14": null, "field_15": null, "field_16": null }, "geometry": { "type": "Point", "coordinates": [ -46.566339, -21.795906 ] } },
{ "type": "Feature", "properties": { "NROCNPJ_PAD": "46349550000111", "STATUS_MAILING": "EMPRESA ELEGÍVEL ONLINE SEM SUCESSO NO CONTATO TELEFÔNICO/EMPRESA ELEGÍVEL PRESENCIAL NÃO VISITADA", "NOME_FANTASIA": "LEADERLOG CONSULTORIA E GESTAO DE FRETES", "RAZAO_SOCIAL": "LEADERLOG CONSULTORIA E GESTAO DE FRETES LTDA", "RESPONSAVEL": "-", "MUNICIPIO": "POCOS DE CALDAS", "ENDEE": "MARIA FRANCISCA SILVA GARCIA, 705, PARQUE VIVALDI LEITE RIBEIRO, 37701-193, POCOS DE CALDAS, MG, BRASIL", "BANCO": "-", "LINHA_AVAL_NOME": "-", "LATITUDE": "-21.7964417", "LONGITUDE": "-46.5522543", "STATUS_OPERACIONAL": "CARTEIRA", "STATUS": "CARTEIRA", "field_14": null, "field_15": null, "field_16": null }, "geometry": { "type": "Point", "coordinates": [ -46.5522543, -21.7964417 ] } },
{ "type": "Feature", "properties": { "NROCNPJ_PAD": "08722982000137", "STATUS_MAILING": "EMPRESA ELEGÍVEL ONLINE SEM SUCESSO NO CONTATO TELEFÔNICO/EMPRESA ELEGÍVEL PRESENCIAL NÃO VISITADA", "NOME_FANTASIA": "WLOC LOCACOES", "RAZAO_SOCIAL": "WANDERLEI DO CARMO FERREIRA", "RESPONSAVEL": "MARIA OLIMPIA FERREIRA|WANDERLEI DO CARMO FERREIRA", "MUNICIPIO": "POCOS DE CALDAS", "ENDEE": "MANOEL DE FREITAS, 75, CHACARA ALVORADA, 37706-004, POCOS DE CALDAS, MG, BRASIL", "BANCO": "SICREDI UNIESTADOS", "LINHA_AVAL_NOME": "GIRO", "LATITUDE": "-21.7969426", "LONGITUDE": "-46.524478", "STATUS_OPERACIONAL": "CARTEIRA", "STATUS": "CARTEIRA", "field_14": null, "field_15": null, "field_16": null }, "geometry": { "type": "Point", "coordinates": [ -46.524478, -21.7969426 ] } },
{ "type": "Feature", "properties": { "NROCNPJ_PAD": "18050825000186", "STATUS_MAILING": "EMPRESA ELEGÍVEL ONLINE SEM SUCESSO NO CONTATO TELEFÔNICO/EMPRESA ELEGÍVEL PRESENCIAL NÃO VISITADA", "NOME_FANTASIA": "TO COM FOME MARMITARIA E DELIVERY", "RAZAO_SOCIAL": "18.050.825 CARLA CRISTINA SCASSIOTTI BASSO", "RESPONSAVEL": "CARLA CRISTINA SCASSIOTTI BASSO", "MUNICIPIO": "POCOS DE CALDAS", "ENDEE": "VEREADOR ADELINO LORO, 337, JARDIM CAMPOS ELISIOS, 37706-033, POCOS DE CALDAS, MG, BRASIL", "BANCO": "SICREDI UNIESTADOS", "LINHA_AVAL_NOME": "EMPREENDEDORISMO FEM", "LATITUDE": "-21.7972904", "LONGITUDE": "-46.5070793", "STATUS_OPERACIONAL": "CARTEIRA", "STATUS": "CARTEIRA", "field_14": null, "field_15": null, "field_16": null }, "geometry": { "type": "Point", "coordinates": [ -46.5070793, -21.7972904 ] } },
{ "type": "Feature", "properties": { "NROCNPJ_PAD": "14877136000199", "STATUS_MAILING": "EMPRESA ELEGÍVEL ONLINE SEM SUCESSO NO CONTATO TELEFÔNICO/EMPRESA ELEGÍVEL PRESENCIAL NÃO VISITADA", "NOME_FANTASIA": "ROSECLER ELISETE DOS SANTOS", "RAZAO_SOCIAL": "ROSECLER ELISETE DOS SANTOS MORAS 52353737668", "RESPONSAVEL": "ROSECLERELISETEDOSSANTOSMORAS", "MUNICIPIO": "POCOS DE CALDAS", "ENDEE": "JORGE PALMERIO PEREIRA, 135, SANTA MARIA, 37701-298, POCOS DE CALDAS, MG, BRASIL", "BANCO": "SICOOB SAROM", "LINHA_AVAL_NOME": "EMPREENDEDORISMO FEM", "LATITUDE": "-21.7973624", "LONGITUDE": "-46.5780301", "STATUS_OPERACIONAL": "CARTEIRA", "STATUS": "CARTEIRA", "field_14": null, "field_15": null, "field_16": null }, "geometry": { "type": "Point", "coordinates": [ -46.5780301, -21.7973624 ] } },
{ "type": "Feature", "properties": { "NROCNPJ_PAD": "39649823000188", "STATUS_MAILING": "EMPRESA ELEGÍVEL ONLINE SEM SUCESSO NO CONTATO TELEFÔNICO/EMPRESA ELEGÍVEL PRESENCIAL NÃO VISITADA", "NOME_FANTASIA": "MONITORE", "RAZAO_SOCIAL": "SOLIMAR RODRIGUES PEREIRA", "RESPONSAVEL": "SOLIMAR RODRIGUES PEREIRA|SOLIMARRODRIGUESPEREIRA", "MUNICIPIO": "POCOS DE CALDAS", "ENDEE": "JUSCELINO KUBITSCHEK DE OLIVEIRA, 46, PARQUE VIVALDI LEITE RIBEIRO, 37701-186, POCOS DE CALDAS, MG, BRASIL", "BANCO": "BDMG", "LINHA_AVAL_NOME": "GIRO", "LATITUDE": "-21.7975301", "LONGITUDE": "-46.5609775", "STATUS_OPERACIONAL": "CARTEIRA", "STATUS": "CARTEIRA", "field_14": null, "field_15": null, "field_16": null }, "geometry": { "type": "Point", "coordinates": [ -46.5609775, -21.7975301 ] } },
{ "type": "Feature", "properties": { "NROCNPJ_PAD": "58252897000120", "STATUS_MAILING": "EMPRESA ELEGÍVEL ONLINE SEM SUCESSO NO CONTATO TELEFÔNICO/EMPRESA ELEGÍVEL PRESENCIAL NÃO VISITADA", "NOME_FANTASIA": "ACOUGUE E MERCEARIA VILAS BOAS", "RAZAO_SOCIAL": "ACOUGUE E MERCEARIA VILAS BOAS LTDA", "RESPONSAVEL": "GISELEMAGDADEOLIVEIRAVILASBOAS", "MUNICIPIO": "POCOS DE CALDAS", "ENDEE": "TRES CORACOES, 389, CHACARA ALVORADA, 37706-001, POCOS DE CALDAS, MG, BRASIL", "BANCO": "SICOOB AGROCREDI", "LINHA_AVAL_NOME": "GIRO", "LATITUDE": "-21.799135", "LONGITUDE": "-46.5276256", "STATUS_OPERACIONAL": "CARTEIRA", "STATUS": "CARTEIRA", "field_14": null, "field_15": null, "field_16": null }, "geometry": { "type": "Point", "coordinates": [ -46.5276256, -21.799135 ] } },
{ "type": "Feature", "properties": { "NROCNPJ_PAD": "43775405000104", "STATUS_MAILING": "EMPRESA ELEGÍVEL ONLINE SEM SUCESSO NO CONTATO TELEFÔNICO/EMPRESA ELEGÍVEL PRESENCIAL NÃO VISITADA", "NOME_FANTASIA": "ESTUDIO ALFA BRILHO", "RAZAO_SOCIAL": "BRUNO LEONARDO SALES 07455206690", "RESPONSAVEL": "BRUNOLEONARDOSALES", "MUNICIPIO": "POCOS DE CALDAS", "ENDEE": "PROFESSOR ANTONIO VIVIANI, 555, JARDIM IPE, 37704-204, POCOS DE CALDAS, MG, BRASIL", "BANCO": "SICOOB SAROM", "LINHA_AVAL_NOME": "GIRO", "LATITUDE": "-21.7999692", "LONGITUDE": "-46.5489139", "STATUS_OPERACIONAL": "CARTEIRA", "STATUS": "CARTEIRA", "field_14": null, "field_15": null, "field_16": null }, "geometry": { "type": "Point", "coordinates": [ -46.5489139, -21.7999692 ] } },
{ "type": "Feature", "properties": { "NROCNPJ_PAD": "55257222000186", "STATUS_MAILING": "EMPRESA ELEGÍVEL ONLINE SEM SUCESSO NO CONTATO TELEFÔNICO/EMPRESA ELEGÍVEL PRESENCIAL NÃO VISITADA", "NOME_FANTASIA": "NOVA EUROPA - FARMACIA E DROGARIA", "RAZAO_SOCIAL": "NOVA EUROPA - FARMACIA E DROGARIA LTDA", "RESPONSAVEL": "-", "MUNICIPIO": "POCOS DE CALDAS", "ENDEE": "LISBOA, 333, JARDIM EUROPA, 37716-128, POCOS DE CALDAS, MG, BRASIL", "BANCO": "-", "LINHA_AVAL_NOME": "GIRO", "LATITUDE": "-21.8001456", "LONGITUDE": "-46.5881647", "STATUS_OPERACIONAL": "CARTEIRA", "STATUS": "CARTEIRA", "field_14": null, "field_15": null, "field_16": null }, "geometry": { "type": "Point", "coordinates": [ -46.5881647, -21.8001456 ] } },
{ "type": "Feature", "properties": { "NROCNPJ_PAD": "57415336000132", "STATUS_MAILING": "EMPRESA ELEGÍVEL ONLINE SEM SUCESSO NO CONTATO TELEFÔNICO/EMPRESA ELEGÍVEL PRESENCIAL NÃO VISITADA", "NOME_FANTASIA": null, "RAZAO_SOCIAL": "57.415.336 MARIA VALNEIDE MOREIRA SILVA", "RESPONSAVEL": "MARIAVALNEIDEMOREIRASILVA", "MUNICIPIO": "POCOS DE CALDAS", "ENDEE": "MIGUEL GRADINETTI, 5, JARDIM IPE, 37704-209, POCOS DE CALDAS, MG, BRASIL", "BANCO": "SICOOB AGROCREDI", "LINHA_AVAL_NOME": "GIRO", "LATITUDE": "-21.8008198", "LONGITUDE": "-46.5483535", "STATUS_OPERACIONAL": "CARTEIRA", "STATUS": "CARTEIRA", "field_14": null, "field_15": null, "field_16": null }, "geometry": { "type": "Point", "coordinates": [ -46.5483535, -21.8008198 ] } },
{ "type": "Feature", "properties": { "NROCNPJ_PAD": "18601380000185", "STATUS_MAILING": "EMPRESA ELEGÍVEL ONLINE SEM SUCESSO NO CONTATO TELEFÔNICO/EMPRESA ELEGÍVEL PRESENCIAL NÃO VISITADA", "NOME_FANTASIA": "JR CARGAS", "RAZAO_SOCIAL": "JR CARGAS LTDA", "RESPONSAVEL": "JOSEROBERTOLIMASANTOS", "MUNICIPIO": "POCOS DE CALDAS", "ENDEE": "PADRE JOSE GERALDI, 80, MARIA IMACULADA, 37701-377, POCOS DE CALDAS, MG, BRASIL", "BANCO": "SICOOB SAROM", "LINHA_AVAL_NOME": "GIRO", "LATITUDE": "-21.8020356", "LONGITUDE": "-46.6040302", "STATUS_OPERACIONAL": "CARTEIRA", "STATUS": "CARTEIRA", "field_14": null, "field_15": null, "field_16": null }, "geometry": { "type": "Point", "coordinates": [ -46.6040302, -21.8020356 ] } },
{ "type": "Feature", "properties": { "NROCNPJ_PAD": "41541258000182", "STATUS_MAILING": "EMPRESA ELEGÍVEL ONLINE SEM SUCESSO NO CONTATO TELEFÔNICO/EMPRESA ELEGÍVEL PRESENCIAL NÃO VISITADA", "NOME_FANTASIA": "MODERNIZA MOVELARIA", "RAZAO_SOCIAL": "DURVAL BUENO LEITE 82347891634", "RESPONSAVEL": "DURVAL BUENO LEITE", "MUNICIPIO": "POCOS DE CALDAS", "ENDEE": "DILERMANO REIS, 426, ESTANCIA SAO JOSE, 37706-026, POCOS DE CALDAS, MG, BRASIL", "BANCO": "SICREDI UNIESTADOS", "LINHA_AVAL_NOME": "GIRO", "LATITUDE": "-21.8024025", "LONGITUDE": "-46.5223216", "STATUS_OPERACIONAL": "CARTEIRA", "STATUS": "CARTEIRA", "field_14": null, "field_15": null, "field_16": null }, "geometry": { "type": "Point", "coordinates": [ -46.5223216, -21.8024025 ] } },
{ "type": "Feature", "properties": { "NROCNPJ_PAD": "33963427000144", "STATUS_MAILING": "EMPRESA ELEGÍVEL ONLINE SEM SUCESSO NO CONTATO TELEFÔNICO/EMPRESA ELEGÍVEL PRESENCIAL NÃO VISITADA", "NOME_FANTASIA": null, "RAZAO_SOCIAL": "JEAN FRANCISCO HIPOLITO 12842937694", "RESPONSAVEL": "JEAN FRANCISCO HIPOLITO", "MUNICIPIO": "POCOS DE CALDAS", "ENDEE": "SIDNEY BARBOSA, 110, ESTANCIA POCOS DE CALDAS, 37706-050, POCOS DE CALDAS, MG, BRASIL", "BANCO": "BDMG", "LINHA_AVAL_NOME": "GIRO", "LATITUDE": "-21.8034739", "LONGITUDE": "-46.5034752", "STATUS_OPERACIONAL": "CARTEIRA", "STATUS": "CARTEIRA", "field_14": null, "field_15": null, "field_16": null }, "geometry": { "type": "Point", "coordinates": [ -46.5034752, -21.8034739 ] } },
{ "type": "Feature", "properties": { "NROCNPJ_PAD": "19154288000187", "STATUS_MAILING": "EMPRESA ELEGÍVEL ONLINE SEM SUCESSO NO CONTATO TELEFÔNICO/EMPRESA ELEGÍVEL PRESENCIAL NÃO VISITADA", "NOME_FANTASIA": "SUPERLAMP MATERIAIS ELETRICOS", "RAZAO_SOCIAL": "SUPERLAMP MATERIAIS ELETRICOS LTDA", "RESPONSAVEL": "ALICERIVASRIBEIRO|ANTONIOCARLOSPEREIRARIBEIRO", "MUNICIPIO": "POCOS DE CALDAS", "ENDEE": "MIGUEL CANDIDO FRAGA, 00106, JARDIM CENTENARIO, 37704-267, POCOS DE CALDAS, MG, BRASIL", "BANCO": "SICOOB AGROCREDI", "LINHA_AVAL_NOME": "GIRO", "LATITUDE": "-21.8036691", "LONGITUDE": "-46.5639861", "STATUS_OPERACIONAL": "CARTEIRA", "STATUS": "CARTEIRA", "field_14": null, "field_15": null, "field_16": null }, "geometry": { "type": "Point", "coordinates": [ -46.5639861, -21.8036691 ] } },
{ "type": "Feature", "properties": { "NROCNPJ_PAD": "47477305000152", "STATUS_MAILING": "EMPRESA ELEGÍVEL ONLINE SEM SUCESSO NO CONTATO TELEFÔNICO/EMPRESA ELEGÍVEL PRESENCIAL NÃO VISITADA", "NOME_FANTASIA": "JULIANA DE MARIA CURADORIA", "RAZAO_SOCIAL": "JULIANA DE MARIA CURADORIA", "RESPONSAVEL": "JULIANADEMARIA", "MUNICIPIO": "POCOS DE CALDAS", "ENDEE": "COSTA RICA, 321, JARDIM QUISISANA, 37701-247, POCOS DE CALDAS, MG, BRASIL", "BANCO": "SICOOB SAROM", "LINHA_AVAL_NOME": "EMPREENDEDORISMO FEM", "LATITUDE": "-21.8036719", "LONGITUDE": "-46.5659509", "STATUS_OPERACIONAL": "CARTEIRA", "STATUS": "CARTEIRA", "field_14": null, "field_15": null, "field_16": null }, "geometry": { "type": "Point", "coordinates": [ -46.5659509, -21.8036719 ] } },
{ "type": "Feature", "properties": { "NROCNPJ_PAD": "54920785000140", "STATUS_MAILING": "EMPRESA ELEGÍVEL ONLINE SEM SUCESSO NO CONTATO TELEFÔNICO/EMPRESA ELEGÍVEL PRESENCIAL NÃO VISITADA", "NOME_FANTASIA": null, "RAZAO_SOCIAL": "54.920.785 LIDIANE PEREIRA SILVA", "RESPONSAVEL": "LIDIANE PEREIRA SILVA", "MUNICIPIO": "POCOS DE CALDAS", "ENDEE": "LASARINA ALVISI TORRACA, 840, JARDIM AMARYLLIS, 37705-202, POCOS DE CALDAS, MG, BRASIL", "BANCO": "SICREDI UNIESTADOS", "LINHA_AVAL_NOME": "EMPREENDEDORISMO FEM", "LATITUDE": "-21.8046534", "LONGITUDE": "-46.5422046", "STATUS_OPERACIONAL": "CARTEIRA", "STATUS": "CARTEIRA", "field_14": null, "field_15": null, "field_16": null }, "geometry": { "type": "Point", "coordinates": [ -46.5422046, -21.8046534 ] } },
{ "type": "Feature", "properties": { "NROCNPJ_PAD": "25083946000190", "STATUS_MAILING": "EMPRESA ELEGÍVEL ONLINE SEM SUCESSO NO CONTATO TELEFÔNICO/EMPRESA ELEGÍVEL PRESENCIAL NÃO VISITADA", "NOME_FANTASIA": "HIDRAUPOCOS", "RAZAO_SOCIAL": "25.083.946 ALEXANDRE AURELIANO DE SOUZA", "RESPONSAVEL": "ALEXANDREAURELIANODESOUZA", "MUNICIPIO": "POCOS DE CALDAS", "ENDEE": "UMBERTO CARLOS VILLA, 175, JARDIM IPE, 37704-208, POCOS DE CALDAS, MG, BRASIL", "BANCO": "SICOOB AGROCREDI", "LINHA_AVAL_NOME": "GIRO", "LATITUDE": "-21.8050463", "LONGITUDE": "-46.5492794", "STATUS_OPERACIONAL": "CARTEIRA", "STATUS": "CARTEIRA", "field_14": null, "field_15": null, "field_16": null }, "geometry": { "type": "Point", "coordinates": [ -46.5492794, -21.8050463 ] } },
{ "type": "Feature", "properties": { "NROCNPJ_PAD": "62050005000186", "STATUS_MAILING": "EMPRESA ELEGÍVEL ONLINE SEM SUCESSO NO CONTATO TELEFÔNICO/EMPRESA ELEGÍVEL PRESENCIAL NÃO VISITADA", "NOME_FANTASIA": null, "RAZAO_SOCIAL": "62.050.005 MARCELI BELISARIO DE OLIVEIRA", "RESPONSAVEL": "MARCELI BELISARIO DE OLIVEIRA", "MUNICIPIO": "POCOS DE CALDAS", "ENDEE": "JULIO MARICHI, 612, JARDIM DAS HORTENSIAS, 37705-012, POCOS DE CALDAS, MG, BRASIL", "BANCO": "SICREDI UNIESTADOS", "LINHA_AVAL_NOME": "EMPREENDEDORISMO FEM", "LATITUDE": "-21.8059882", "LONGITUDE": "-46.5442376", "STATUS_OPERACIONAL": "CARTEIRA", "STATUS": "CARTEIRA", "field_14": null, "field_15": null, "field_16": null }, "geometry": { "type": "Point", "coordinates": [ -46.5442376, -21.8059882 ] } },
{ "type": "Feature", "properties": { "NROCNPJ_PAD": "03874938000129", "STATUS_MAILING": "EMPRESA ELEGÍVEL ONLINE SEM SUCESSO NO CONTATO TELEFÔNICO/EMPRESA ELEGÍVEL PRESENCIAL NÃO VISITADA", "NOME_FANTASIA": "POCOSCAP", "RAZAO_SOCIAL": "POCOSCAP LTDA", "RESPONSAVEL": "LUIZALBERTORODRIGUES|RAPHAELQUIUQUICARVALHO", "MUNICIPIO": "POCOS DE CALDAS", "ENDEE": "PRESIDENTE WENCESLAU BRAZ, 4901, ESTANCIA POCOS DE CALDAS, 37706-055, POCOS DE CALDAS, MG, BRASIL", "BANCO": "SICOOB AGROCREDI", "LINHA_AVAL_NOME": "GIRO", "LATITUDE": "-21.8061626", "LONGITUDE": "-46.4898886", "STATUS_OPERACIONAL": "CARTEIRA", "STATUS": "CARTEIRA", "field_14": null, "field_15": null, "field_16": null }, "geometry": { "type": "Point", "coordinates": [ -46.4898886, -21.8061626 ] } },
{ "type": "Feature", "properties": { "NROCNPJ_PAD": "32782066000177", "STATUS_MAILING": "EMPRESA ELEGÍVEL ONLINE SEM SUCESSO NO CONTATO TELEFÔNICO/EMPRESA ELEGÍVEL PRESENCIAL NÃO VISITADA", "NOME_FANTASIA": "CRISTIANE CARVALHO", "RAZAO_SOCIAL": "ACRESCENTA . ASSESSORIA DE COMUNICACAO LTDA", "RESPONSAVEL": "CRISTIANEMARIADECARVALHO", "MUNICIPIO": "POCOS DE CALDAS", "ENDEE": "JACARANDA, 00051, VILA CAIO JUNQUEIRA, 37704-183, POCOS DE CALDAS, MG, BRASIL", "BANCO": "SICOOB AGROCREDI", "LINHA_AVAL_NOME": "GIRO", "LATITUDE": "-21.8062044", "LONGITUDE": "-46.5513927", "STATUS_OPERACIONAL": "CARTEIRA", "STATUS": "CARTEIRA", "field_14": null, "field_15": null, "field_16": null }, "geometry": { "type": "Point", "coordinates": [ -46.5513927, -21.8062044 ] } },
{ "type": "Feature", "properties": { "NROCNPJ_PAD": "18153018000199", "STATUS_MAILING": "EMPRESA ELEGÍVEL ONLINE SEM SUCESSO NO CONTATO TELEFÔNICO/EMPRESA ELEGÍVEL PRESENCIAL NÃO VISITADA", "NOME_FANTASIA": "PAULO AFONSO IMOBILIARIA", "RAZAO_SOCIAL": "PAULO AFONSO IMOBILIARIA LTDA", "RESPONSAVEL": "PAULO AFONSO MOREIRA JUNIOR", "MUNICIPIO": "POCOS DE CALDAS", "ENDEE": "JULIO MARICHI, 514, JARDIM DAS HORTENSIAS, 37705-012, POCOS DE CALDAS, MG, BRASIL", "BANCO": "SICREDI UNIESTADOS", "LINHA_AVAL_NOME": "GIRO", "LATITUDE": "-21.8066492", "LONGITUDE": "-46.5453436", "STATUS_OPERACIONAL": "CARTEIRA", "STATUS": "CARTEIRA", "field_14": null, "field_15": null, "field_16": null }, "geometry": { "type": "Point", "coordinates": [ -46.5453436, -21.8066492 ] } },
{ "type": "Feature", "properties": { "NROCNPJ_PAD": "11387904000138", "STATUS_MAILING": "EMPRESA ELEGÍVEL ONLINE SEM SUCESSO NO CONTATO TELEFÔNICO/EMPRESA ELEGÍVEL PRESENCIAL NÃO VISITADA", "NOME_FANTASIA": "RCT - MATERIAIS DE CONSTRUCAO E GRAMAS", "RAZAO_SOCIAL": "PAULO DONIZETTI GONCALVES & CIA.LTDA.", "RESPONSAVEL": "ANGELICACRISTINADEMELOGONCALVES|PAULODONIZETTIGONCALVES", "MUNICIPIO": "POCOS DE CALDAS", "ENDEE": "PRESIDENTE WENCESLAU BRAZ, 5040, ESTANCIA POCOS DE CALDAS, 37706-055, POCOS DE CALDAS, MG, BRASIL", "BANCO": "SICOOB AGROCREDI", "LINHA_AVAL_NOME": "GIRO", "LATITUDE": "-21.8070616", "LONGITUDE": "-46.48752", "STATUS_OPERACIONAL": "CARTEIRA", "STATUS": "CARTEIRA", "field_14": null, "field_15": null, "field_16": null }, "geometry": { "type": "Point", "coordinates": [ -46.48752, -21.8070616 ] } },
{ "type": "Feature", "properties": { "NROCNPJ_PAD": "18238393000131", "STATUS_MAILING": "EMPRESA ELEGÍVEL ONLINE SEM SUCESSO NO CONTATO TELEFÔNICO/EMPRESA ELEGÍVEL PRESENCIAL NÃO VISITADA", "NOME_FANTASIA": "ONE PRESTACAO DE SERVICOS", "RAZAO_SOCIAL": "THIAGO DE OLIVEIRA FELIX 08448385608", "RESPONSAVEL": "THIAGO DE OLIVEIRA FELIX", "MUNICIPIO": "POCOS DE CALDAS", "ENDEE": "SINESIO DO LAGO, 870, CAMPO DAS ANTAS, 37714-660, POCOS DE CALDAS, MG, BRASIL", "BANCO": "BDMG", "LINHA_AVAL_NOME": "GIRO", "LATITUDE": "-21.8070682", "LONGITUDE": "-46.6102581", "STATUS_OPERACIONAL": "CARTEIRA", "STATUS": "CARTEIRA", "field_14": null, "field_15": null, "field_16": null }, "geometry": { "type": "Point", "coordinates": [ -46.6102581, -21.8070682 ] } },
{ "type": "Feature", "properties": { "NROCNPJ_PAD": "41497386000176", "STATUS_MAILING": "EMPRESA ELEGÍVEL ONLINE SEM SUCESSO NO CONTATO TELEFÔNICO/EMPRESA ELEGÍVEL PRESENCIAL NÃO VISITADA", "NOME_FANTASIA": "GENEROSO TRANSPORTE E LOGISTICA", "RAZAO_SOCIAL": "41.497.386 BRUNO LUIS GENEROSO", "RESPONSAVEL": "BRUNOLUISGENEROSO", "MUNICIPIO": "POCOS DE CALDAS", "ENDEE": "BRASILIO DE OLIVEIRA VALIM, 127/0, RESIDENCIAL MORUMBI, 37716-312, POCOS DE CALDAS, MG, BRASIL", "BANCO": "SICOOB AGROCREDI", "LINHA_AVAL_NOME": "GIRO", "LATITUDE": "-21.8071288", "LONGITUDE": "-46.5797016", "STATUS_OPERACIONAL": "CARTEIRA", "STATUS": "CARTEIRA", "field_14": null, "field_15": null, "field_16": null }, "geometry": { "type": "Point", "coordinates": [ -46.5797016, -21.8071288 ] } },
{ "type": "Feature", "properties": { "NROCNPJ_PAD": "56056845000153", "STATUS_MAILING": "EMPRESA ELEGÍVEL ONLINE SEM SUCESSO NO CONTATO TELEFÔNICO/EMPRESA ELEGÍVEL PRESENCIAL NÃO VISITADA", "NOME_FANTASIA": null, "RAZAO_SOCIAL": "DROGAO FARMA LTDA", "RESPONSAVEL": "MARIANE FERREIRA|PATRICIA SOUZA LIMA DE FREITAS", "MUNICIPIO": "POCOS DE CALDAS", "ENDEE": "EUCLIDES MENDES, 95, PARQUE PINHEIROS, 37706-058, POCOS DE CALDAS, MG, BRASIL", "BANCO": "SICREDI UNIESTADOS", "LINHA_AVAL_NOME": "EMPREENDEDORISMO FEM", "LATITUDE": "-21.8073693", "LONGITUDE": "-46.4973588", "STATUS_OPERACIONAL": "CARTEIRA", "STATUS": "CARTEIRA", "field_14": null, "field_15": null, "field_16": null }, "geometry": { "type": "Point", "coordinates": [ -46.4973588, -21.8073693 ] } },
{ "type": "Feature", "properties": { "NROCNPJ_PAD": "42511953000164", "STATUS_MAILING": "EMPRESA ELEGÍVEL ONLINE SEM SUCESSO NO CONTATO TELEFÔNICO/EMPRESA ELEGÍVEL PRESENCIAL NÃO VISITADA", "NOME_FANTASIA": "CAROLINA BORGES STORE", "RAZAO_SOCIAL": "CAROLINA APARECIDA BORGES DA SILVA 01204517606", "RESPONSAVEL": "CAROLINAAPARECIDABORGESDASILVA", "MUNICIPIO": "POCOS DE CALDAS", "ENDEE": "GERVASIO ANTONIO CHIMINAZZO, 107, JARDIM DAS HORTENSIAS, 37705-010, POCOS DE CALDAS, MG, BRASIL", "BANCO": "SICOOB SAROM", "LINHA_AVAL_NOME": "EMPREENDEDORISMO FEM", "LATITUDE": "-21.8103587", "LONGITUDE": "-46.5461301", "STATUS_OPERACIONAL": "CARTEIRA", "STATUS": "CARTEIRA", "field_14": null, "field_15": null, "field_16": null }, "geometry": { "type": "Point", "coordinates": [ -46.5461301, -21.8103587 ] } },
{ "type": "Feature", "properties": { "NROCNPJ_PAD": "40567925000133", "STATUS_MAILING": "EMPRESA ELEGÍVEL ONLINE SEM SUCESSO NO CONTATO TELEFÔNICO/EMPRESA ELEGÍVEL PRESENCIAL NÃO VISITADA", "NOME_FANTASIA": "RAFAEL RIBEIRO VITOR", "RAZAO_SOCIAL": "RAFAEL RIBEIRO VITOR 10494668610", "RESPONSAVEL": "RAFAEL RIBEIRO VITOR", "MUNICIPIO": "POCOS DE CALDAS", "ENDEE": "VICTOR EMMANUEL IMESI, 370, PARQUE PINHEIROS, 37706-063, POCOS DE CALDAS, MG, BRASIL", "BANCO": "SICREDI UNIESTADOS", "LINHA_AVAL_NOME": "GIRO", "LATITUDE": "-21.8106103", "LONGITUDE": "-46.4988846", "STATUS_OPERACIONAL": "CARTEIRA", "STATUS": "CARTEIRA", "field_14": null, "field_15": null, "field_16": null }, "geometry": { "type": "Point", "coordinates": [ -46.4988846, -21.8106103 ] } },
{ "type": "Feature", "properties": { "NROCNPJ_PAD": "24244223000162", "STATUS_MAILING": "EMPRESA ELEGÍVEL ONLINE SEM SUCESSO NO CONTATO TELEFÔNICO/EMPRESA ELEGÍVEL PRESENCIAL NÃO VISITADA", "NOME_FANTASIA": "MAXLIMP", "RAZAO_SOCIAL": "ANA CELIA DA SILVA COSTA 48347280487", "RESPONSAVEL": "ANA CELIA DA SILVA COSTA", "MUNICIPIO": "POCOS DE CALDAS", "ENDEE": "OZUALDO BERNO, 97, JARDIM ITAMARATY III, 37710-060, POCOS DE CALDAS, MG, BRASIL", "BANCO": "SICREDI UNIESTADOS", "LINHA_AVAL_NOME": "EMPREENDEDORISMO FEM", "LATITUDE": "-21.815441", "LONGITUDE": "-46.4954753", "STATUS_OPERACIONAL": "CARTEIRA", "STATUS": "CARTEIRA", "field_14": null, "field_15": null, "field_16": null }, "geometry": { "type": "Point", "coordinates": [ -46.4954753, -21.815441 ] } },
{ "type": "Feature", "properties": { "NROCNPJ_PAD": "34574410000168", "STATUS_MAILING": "EMPRESA ELEGÍVEL ONLINE SEM SUCESSO NO CONTATO TELEFÔNICO/EMPRESA ELEGÍVEL PRESENCIAL NÃO VISITADA", "NOME_FANTASIA": "ZICO 10 - COOPOCOS ESCOLA DE FUTEBOL", "RAZAO_SOCIAL": "JOSE CARLOS QUICIRI ESCOLA DE FUTEBOL", "RESPONSAVEL": "JOSECARLOSQUICIRI", "MUNICIPIO": "POCOS DE CALDAS", "ENDEE": "VEREADOR DGENEY DINIZ DE MELO, 5, JARDIM BANDEIRANTES, 37706-131, POCOS DE CALDAS, MG, BRASIL", "BANCO": "SICOOB AGROCREDI", "LINHA_AVAL_NOME": "GIRO", "LATITUDE": "-21.8160529", "LONGITUDE": "-46.5690227", "STATUS_OPERACIONAL": "CARTEIRA", "STATUS": "CARTEIRA", "field_14": null, "field_15": null, "field_16": null }, "geometry": { "type": "Point", "coordinates": [ -46.5690227, -21.8160529 ] } },
{ "type": "Feature", "properties": { "NROCNPJ_PAD": "37523554000183", "STATUS_MAILING": "EMPRESA ELEGÍVEL ONLINE SEM SUCESSO NO CONTATO TELEFÔNICO/EMPRESA ELEGÍVEL PRESENCIAL NÃO VISITADA", "NOME_FANTASIA": "MICHELLE ROSA LTDA", "RAZAO_SOCIAL": "37.523.554 MICHELLE DE CASSIA ROSA ZANETTI", "RESPONSAVEL": "MICHELLEDECASSIAROSAZANETTI", "MUNICIPIO": "POCOS DE CALDAS", "ENDEE": "PEDRO DE PAROLIS, 220, JARDIM DO CONTORNO, 37706-169, POCOS DE CALDAS, MG, BRASIL", "BANCO": "SICOOB SAROM", "LINHA_AVAL_NOME": "EMPREENDEDORISMO FEM", "LATITUDE": "-21.8235426", "LONGITUDE": "-46.5583966", "STATUS_OPERACIONAL": "CARTEIRA", "STATUS": "CARTEIRA", "field_14": null, "field_15": null, "field_16": null }, "geometry": { "type": "Point", "coordinates": [ -46.5583966, -21.8235426 ] } },
{ "type": "Feature", "properties": { "NROCNPJ_PAD": "05830603000134", "STATUS_MAILING": "EMPRESA ELEGÍVEL ONLINE SEM SUCESSO NO CONTATO TELEFÔNICO/EMPRESA ELEGÍVEL PRESENCIAL NÃO VISITADA", "NOME_FANTASIA": "NBM PRESTADORA DE SERVICOS", "RAZAO_SOCIAL": "NBM PRESTADORA DE SERVICOS DE TRANSPORTES LTDA", "RESPONSAVEL": "-", "MUNICIPIO": "POCOS DE CALDAS", "ENDEE": "ONOFRE JOSE GOMES, 165, JARDIM DO CONTORNO, 37706-173, POCOS DE CALDAS, MG, BRASIL", "BANCO": "-", "LINHA_AVAL_NOME": "GIRO", "LATITUDE": "-21.8242941", "LONGITUDE": "-46.560299", "STATUS_OPERACIONAL": "CARTEIRA", "STATUS": "CARTEIRA", "field_14": null, "field_15": null, "field_16": null }, "geometry": { "type": "Point", "coordinates": [ -46.560299, -21.8242941 ] } },
{ "type": "Feature", "properties": { "NROCNPJ_PAD": "34392255000169", "STATUS_MAILING": "EMPRESA ELEGÍVEL ONLINE SEM SUCESSO NO CONTATO TELEFÔNICO/EMPRESA ELEGÍVEL PRESENCIAL NÃO VISITADA", "NOME_FANTASIA": "KF FIRE SAFETY TREINAMENTOS", "RAZAO_SOCIAL": "KF CONSULTORIA EM SEGURANCA DO TRABALHO,SAUDE OCUPACIONAL E LOGISTICA INTEGRADA LTDA", "RESPONSAVEL": "GUILHERME HENRIQUE BALBINO|KEVIN ARNON DOS SANTOS", "MUNICIPIO": "POCOS DE CALDAS", "ENDEE": "GERALDO MARTINS COSTA, 3300, BIANUCCI, 37710-000, POCOS DE CALDAS, MG, BRASIL", "BANCO": "BDMG", "LINHA_AVAL_NOME": "GIRO", "LATITUDE": "-21.8268107", "LONGITUDE": "-46.4944188", "STATUS_OPERACIONAL": "CARTEIRA", "STATUS": "CARTEIRA", "field_14": null, "field_15": null, "field_16": null }, "geometry": { "type": "Point", "coordinates": [ -46.4944188, -21.8268107 ] } },
{ "type": "Feature", "properties": { "NROCNPJ_PAD": "24007520000194", "STATUS_MAILING": "EMPRESA ELEGÍVEL ONLINE SEM SUCESSO NO CONTATO TELEFÔNICO/EMPRESA ELEGÍVEL PRESENCIAL NÃO VISITADA", "NOME_FANTASIA": "MASTER LIBERTY TRANSPORTES", "RAZAO_SOCIAL": "MASTER LIBERTY TRANSPORTES LTDA", "RESPONSAVEL": "DILAFRANCODEMELO|MARCELOCESARFRANCODEOLIVEIRA", "MUNICIPIO": "POCOS DE CALDAS", "ENDEE": "OLGA MONTEIRO DE CARVALHO, 60, JARDIM ESPERANCA, 37713-170, POCOS DE CALDAS, MG, BRASIL", "BANCO": "SICOOB AGROCREDI", "LINHA_AVAL_NOME": "GIRO", "LATITUDE": "-21.8303843", "LONGITUDE": "-46.5628422", "STATUS_OPERACIONAL": "CARTEIRA", "STATUS": "CARTEIRA", "field_14": null, "field_15": null, "field_16": null }, "geometry": { "type": "Point", "coordinates": [ -46.5628422, -21.8303843 ] } },
{ "type": "Feature", "properties": { "NROCNPJ_PAD": "41750108000189", "STATUS_MAILING": "EMPRESA ELEGÍVEL ONLINE SEM SUCESSO NO CONTATO TELEFÔNICO/EMPRESA ELEGÍVEL PRESENCIAL NÃO VISITADA", "NOME_FANTASIA": "CRR CONSTRUTORA E INCOPORADORA", "RAZAO_SOCIAL": "CRR CONSTRUTORA E INCORPORADORA LTDA", "RESPONSAVEL": "RAYSSON CARLOS BARBARA GARCIA|RODRIGO LINO BARBARA GARCIA", "MUNICIPIO": "POCOS DE CALDAS", "ENDEE": "IZABEL APARECIDA PAYOLETTI, 65, JARDIM ESPERANCA, 37713-136, POCOS DE CALDAS, MG, BRASIL", "BANCO": "SICREDI UNIESTADOS", "LINHA_AVAL_NOME": "GIRO", "LATITUDE": "-21.8320153", "LONGITUDE": "-46.5605076", "STATUS_OPERACIONAL": "CARTEIRA", "STATUS": "CARTEIRA", "field_14": null, "field_15": null, "field_16": null }, "geometry": { "type": "Point", "coordinates": [ -46.5605076, -21.8320153 ] } },
{ "type": "Feature", "properties": { "NROCNPJ_PAD": "54141753000146", "STATUS_MAILING": "EMPRESA ELEGÍVEL ONLINE SEM SUCESSO NO CONTATO TELEFÔNICO/EMPRESA ELEGÍVEL PRESENCIAL NÃO VISITADA", "NOME_FANTASIA": null, "RAZAO_SOCIAL": "54.141.753 THIAGO ENRIQUE MARTINS CABRAL DA SILVA", "RESPONSAVEL": "THIAGOENRIQUEMARTINSCABRALDASILVA", "MUNICIPIO": "POCOS DE CALDAS", "ENDEE": "FRANCISCO GILBERTO BLASI, 50, LOTEAMENTO RESIDENCIAL TIRADENTES, 37713-550, POCOS DE CALDAS, MG, BRASIL", "BANCO": "SICOOB SAROM", "LINHA_AVAL_NOME": "GIRO", "LATITUDE": "-21.8334033", "LONGITUDE": "-46.5736811", "STATUS_OPERACIONAL": "CARTEIRA", "STATUS": "CARTEIRA", "field_14": null, "field_15": null, "field_16": null }, "geometry": { "type": "Point", "coordinates": [ -46.5736811, -21.8334033 ] } },
{ "type": "Feature", "properties": { "NROCNPJ_PAD": "50084777000150", "STATUS_MAILING": "EMPRESA ELEGÍVEL ONLINE SEM SUCESSO NO CONTATO TELEFÔNICO/EMPRESA ELEGÍVEL PRESENCIAL NÃO VISITADA", "NOME_FANTASIA": "MINAS GESSO", "RAZAO_SOCIAL": "50.084.777 ILSON BORGES DE OLIVEIRA JUNIOR", "RESPONSAVEL": "-", "MUNICIPIO": "POCOS DE CALDAS", "ENDEE": "DOUTOR ROWILSON FLORA FILHO, 135, LOTEAMENTO RESIDENCIAL TIRADENTES, 37713-552, POCOS DE CALDAS, MG, BRASIL", "BANCO": "-", "LINHA_AVAL_NOME": "GIRO", "LATITUDE": "-21.8336988", "LONGITUDE": "-46.5747297", "STATUS_OPERACIONAL": "CARTEIRA", "STATUS": "CARTEIRA", "field_14": null, "field_15": null, "field_16": null }, "geometry": { "type": "Point", "coordinates": [ -46.5747297, -21.8336988 ] } },
{ "type": "Feature", "properties": { "NROCNPJ_PAD": "29137388000159", "STATUS_MAILING": "EMPRESA ELEGÍVEL ONLINE SEM SUCESSO NO CONTATO TELEFÔNICO/EMPRESA ELEGÍVEL PRESENCIAL NÃO VISITADA", "NOME_FANTASIA": "ACERVO MOVEL", "RAZAO_SOCIAL": "ACERVO MOVEL LTDA", "RESPONSAVEL": "RAQUELCOBRADORE|VILMAREMERSONGARCIA", "MUNICIPIO": "POCOS DE CALDAS", "ENDEE": "DOUTOR PAULO JORGE NADER, 246, DISTRITO INDUSTRIAL, 37718-252, POCOS DE CALDAS, MG, BRASIL", "BANCO": "SICOOB CREDINTER", "LINHA_AVAL_NOME": "GIRO", "LATITUDE": "-21.8353174", "LONGITUDE": "-46.6490383", "STATUS_OPERACIONAL": "CARTEIRA", "STATUS": "CARTEIRA", "field_14": null, "field_15": null, "field_16": null }, "geometry": { "type": "Point", "coordinates": [ -46.6490383, -21.8353174 ] } },
{ "type": "Feature", "properties": { "NROCNPJ_PAD": "29014343000197", "STATUS_MAILING": "EMPRESA ELEGÍVEL ONLINE SEM SUCESSO NO CONTATO TELEFÔNICO/EMPRESA ELEGÍVEL PRESENCIAL NÃO VISITADA", "NOME_FANTASIA": "T J TOUR", "RAZAO_SOCIAL": "T J TOUR TURISMO E ECOTURISMO LTDA", "RESPONSAVEL": "TIAGOJUNIODASILVA", "MUNICIPIO": "POCOS DE CALDAS", "ENDEE": "PATRICIA CANDIDA DIAS, 135, JARDIM ESPERANCA, 37713-178, POCOS DE CALDAS, MG, BRASIL", "BANCO": "SICOOB AGROCREDI", "LINHA_AVAL_NOME": "GIRO", "LATITUDE": "-21.8362004", "LONGITUDE": "-46.5620585", "STATUS_OPERACIONAL": "CARTEIRA", "STATUS": "CARTEIRA", "field_14": null, "field_15": null, "field_16": null }, "geometry": { "type": "Point", "coordinates": [ -46.5620585, -21.8362004 ] } },
{ "type": "Feature", "properties": { "NROCNPJ_PAD": "34964092000141", "STATUS_MAILING": "EMPRESA ELEGÍVEL ONLINE SEM SUCESSO NO CONTATO TELEFÔNICO/EMPRESA ELEGÍVEL PRESENCIAL NÃO VISITADA", "NOME_FANTASIA": "PAO QUENTINHO JM LTDA", "RAZAO_SOCIAL": "PAO QUENTINHO JM LTDA", "RESPONSAVEL": "JENNIFERHELENADASILVA|MARCELAMONTEIROGUIMARAES", "MUNICIPIO": "POCOS DE CALDAS", "ENDEE": "MARCILIO MARCELO VOLPIN, 44, VILA BRASIL DE NOSSA SENHORA APARECIDA, 37704-419, POCOS DE CALDAS, MG, BRASIL", "BANCO": "SICOOB AGROCREDI", "LINHA_AVAL_NOME": "EMPREENDEDORISMO FEM", "LATITUDE": "-21.8466983", "LONGITUDE": "-46.6804277", "STATUS_OPERACIONAL": "CARTEIRA", "STATUS": "CARTEIRA", "field_14": null, "field_15": null, "field_16": null }, "geometry": { "type": "Point", "coordinates": [ -46.6804277, -21.8466983 ] } },
{ "type": "Feature", "properties": { "NROCNPJ_PAD": "01821317000151", "STATUS_MAILING": "EMPRESA ELEGÍVEL ONLINE SEM SUCESSO NO CONTATO TELEFÔNICO/EMPRESA ELEGÍVEL PRESENCIAL NÃO VISITADA", "NOME_FANTASIA": "PEG PAG JARDIM KENNEDY", "RAZAO_SOCIAL": "EDSON OLIVA DE OLIVEIRA & CIA LTDA", "RESPONSAVEL": "EDSONOLIVADEOLIVEIRA|SIRLEICASSIADASILVAOLIVEIRA", "MUNICIPIO": "POCOS DE CALDAS", "ENDEE": "ALUMINITA, 170, JARDIM KENNEDY, 37706-279, POCOS DE CALDAS, MG, BRASIL", "BANCO": "SICOOB AGROCREDI", "LINHA_AVAL_NOME": "GIRO", "LATITUDE": "-21.8489244", "LONGITUDE": "-46.5774202", "STATUS_OPERACIONAL": "CARTEIRA", "STATUS": "CARTEIRA", "field_14": null, "field_15": null, "field_16": null }, "geometry": { "type": "Point", "coordinates": [ -46.5774202, -21.8489244 ] } },
{ "type": "Feature", "properties": { "NROCNPJ_PAD": "35071658000179", "STATUS_MAILING": "EMPRESA ELEGÍVEL ONLINE SEM SUCESSO NO CONTATO TELEFÔNICO/EMPRESA ELEGÍVEL PRESENCIAL NÃO VISITADA", "NOME_FANTASIA": "JULY UTILIDADES", "RAZAO_SOCIAL": "JULY UTILIDADES LTDA", "RESPONSAVEL": "TATIANAASSISSILVEIRASILVA", "MUNICIPIO": "POCOS DE CALDAS", "ENDEE": "MANGANITA, 135, JARDIM KENNEDY, 37706-270, POCOS DE CALDAS, MG, BRASIL", "BANCO": "SICOOB AGROCREDI", "LINHA_AVAL_NOME": "GIRO", "LATITUDE": "-21.8495521", "LONGITUDE": "-46.5732188", "STATUS_OPERACIONAL": "CARTEIRA", "STATUS": "CARTEIRA", "field_14": null, "field_15": null, "field_16": null }, "geometry": { "type": "Point", "coordinates": [ -46.5732188, -21.8495521 ] } },
{ "type": "Feature", "properties": { "NROCNPJ_PAD": "47790865000162", "STATUS_MAILING": "EMPRESA ELEGÍVEL ONLINE SEM SUCESSO NO CONTATO TELEFÔNICO/EMPRESA ELEGÍVEL PRESENCIAL NÃO VISITADA", "NOME_FANTASIA": null, "RAZAO_SOCIAL": "BRUNO SALES DE FREITAS 09909364654", "RESPONSAVEL": "BRUNO SALES DE FREITAS", "MUNICIPIO": "POCOS DE CALDAS", "ENDEE": "JOSE JULIANO DIAS, 40, CONJUNTO HABITACIONAL PEDRO AFONSO JUNQUEIRA, 37706-202, POCOS DE CALDAS, MG, BRASIL", "BANCO": "SICREDI UNIESTADOS", "LINHA_AVAL_NOME": "GIRO", "LATITUDE": "-21.8495903", "LONGITUDE": "-46.5690036", "STATUS_OPERACIONAL": "CARTEIRA", "STATUS": "CARTEIRA", "field_14": null, "field_15": null, "field_16": null }, "geometry": { "type": "Point", "coordinates": [ -46.5690036, -21.8495903 ] } },
{ "type": "Feature", "properties": { "NROCNPJ_PAD": "47070531000114", "STATUS_MAILING": "EMPRESA ELEGÍVEL ONLINE SEM SUCESSO NO CONTATO TELEFÔNICO/EMPRESA ELEGÍVEL PRESENCIAL NÃO VISITADA", "NOME_FANTASIA": "CONGELO GELO SABORIZADO", "RAZAO_SOCIAL": "VICTORIA CRISTINA RAMOS PIRES", "RESPONSAVEL": "VICTORIACRISTINARAMOSPIRES", "MUNICIPIO": "POCOS DE CALDAS", "ENDEE": "COBRE, 607, JARDIM KENNEDY, 37706-276, POCOS DE CALDAS, MG, BRASIL", "BANCO": "SICOOB AGROCREDI", "LINHA_AVAL_NOME": "GIRO", "LATITUDE": "-21.8500968", "LONGITUDE": "-46.5773633", "STATUS_OPERACIONAL": "CARTEIRA", "STATUS": "CARTEIRA", "field_14": null, "field_15": null, "field_16": null }, "geometry": { "type": "Point", "coordinates": [ -46.5773633, -21.8500968 ] } },
{ "type": "Feature", "properties": { "NROCNPJ_PAD": "52659746000105", "STATUS_MAILING": "EMPRESA ELEGÍVEL ONLINE SEM SUCESSO NO CONTATO TELEFÔNICO/EMPRESA ELEGÍVEL PRESENCIAL NÃO VISITADA", "NOME_FANTASIA": "SLAINY PATRICIA ESTETICA FEMININA", "RAZAO_SOCIAL": "52.659.746 SLAINY PATRICIA RIBNIKER PAULINO", "RESPONSAVEL": "SLAINY PATRICIA RIBNIKER PAULINO", "MUNICIPIO": "POCOS DE CALDAS", "ENDEE": "NIQUEL, 95, JARDIM KENNEDY, 37706-275, POCOS DE CALDAS, MG, BRASIL", "BANCO": "SICREDI UNIESTADOS", "LINHA_AVAL_NOME": "EMPREENDEDORISMO FEM", "LATITUDE": "-21.8505573", "LONGITUDE": "-46.5763904", "STATUS_OPERACIONAL": "CARTEIRA", "STATUS": "CARTEIRA", "field_14": null, "field_15": null, "field_16": null }, "geometry": { "type": "Point", "coordinates": [ -46.5763904, -21.8505573 ] } },
{ "type": "Feature", "properties": { "NROCNPJ_PAD": "19057348000305", "STATUS_MAILING": "EMPRESA ELEGÍVEL ONLINE SEM SUCESSO NO CONTATO TELEFÔNICO/EMPRESA ELEGÍVEL PRESENCIAL NÃO VISITADA", "NOME_FANTASIA": null, "RAZAO_SOCIAL": "LABORATORIO DE ANALISES CLINICAS VIOTTI LTDA", "RESPONSAVEL": "LILIANEBARBOSADEFREITASARAUJO|OTAVIOARAUJORIBEIRO", "MUNICIPIO": "POCOS DE CALDAS", "ENDEE": "CARLOS DE OLIVEIRA APOLINARIO, 390, CONJUNTO HABITACIONAL PEDRO AFONSO JUNQUEIRA, 37706-218, POCOS DE CALDAS, MG, BRASIL", "BANCO": "SICOOB AGROCREDI", "LINHA_AVAL_NOME": "GIRO", "LATITUDE": "-21.8534697", "LONGITUDE": "-46.5628601", "STATUS_OPERACIONAL": "CARTEIRA", "STATUS": "CARTEIRA", "field_14": null, "field_15": null, "field_16": null }, "geometry": { "type": "Point", "coordinates": [ -46.5628601, -21.8534697 ] } },
{ "type": "Feature", "properties": { "NROCNPJ_PAD": "29446956000101", "STATUS_MAILING": "EMPRESA ELEGÍVEL ONLINE SEM SUCESSO NO CONTATO TELEFÔNICO/EMPRESA ELEGÍVEL PRESENCIAL NÃO VISITADA", "NOME_FANTASIA": "SUPERMERCADO CORREA", "RAZAO_SOCIAL": "PAULO ANDRE CORREA SUPERMERCADO", "RESPONSAVEL": "PAULOANDRECORREA", "MUNICIPIO": "POCOS DE CALDAS", "ENDEE": "JONATHAS MEDINA, 60, CONJUNTO HABITACIONAL PEDRO AFONSO JUNQU, 37706-220, POCOS DE CALDAS, MG, BRASIL", "BANCO": "SICOOB SAROM", "LINHA_AVAL_NOME": "GIRO", "LATITUDE": "-21.856403", "LONGITUDE": "-46.5668521", "STATUS_OPERACIONAL": "CARTEIRA", "STATUS": "CARTEIRA", "field_14": null, "field_15": null, "field_16": null }, "geometry": { "type": "Point", "coordinates": [ -46.5668521, -21.856403 ] } },
{ "type": "Feature", "properties": { "NROCNPJ_PAD": "52876674000158", "STATUS_MAILING": "EMPRESA ELEGÍVEL ONLINE NÃO TRABALHADA NO CONTATO TELEFÔNICO/EMPRESA ELEGÍVEL PRESENCIAL NÃO VISITADA", "NOME_FANTASIA": "SHOPCAR AUTO SERVICE OFICINA PREMIUM", "RAZAO_SOCIAL": "SHOPCAR AUTO SERVICE OFICINA PREMIUM LTDA", "RESPONSAVEL": "JOAOMAURICIOPEREIRACARVALHOANDRADE|RAISSANOGUEIRAGONCALVESANDRADE", "MUNICIPIO": "POCOS DE CALDAS", "ENDEE": "RUA JOAO PEREIRA JUNIOR, 30, VILA OLIMPICA, 37704-372, POÇOS DE CALDAS, MG, BRASIL", "BANCO": "SICOOB", "LINHA_AVAL_NOME": "Empreendedorismo Fem", "LATITUDE": "-21.7800415", "LONGITUDE": "-46.6065597", "STATUS_OPERACIONAL": "CARTEIRA", "STATUS": "CARTEIRA", "field_14": null, "field_15": null, "field_16": null }, "geometry": { "type": "Point", "coordinates": [ -46.6065597, -21.7800415 ] } },
{ "type": "Feature", "properties": { "NROCNPJ_PAD": "52918671000130", "STATUS_MAILING": "EMPRESA ELEGÍVEL ONLINE NÃO TRABALHADA NO CONTATO TELEFÔNICO/EMPRESA ELEGÍVEL PRESENCIAL NÃO VISITADA", "NOME_FANTASIA": "REFRIPECAS REFRIGERACAO", "RAZAO_SOCIAL": "REFRIPECAS COMERCIO LTDA", "RESPONSAVEL": "-", "MUNICIPIO": "POCOS DE CALDAS", "ENDEE": "AVENIDA JOSE REMIGIO PREZIA, 707, LOJA, JARDIM DOS ESTADOS, 37701-782, POÇOS DE CALDAS, MG, BRASIL", "BANCO": "BRADESCO", "LINHA_AVAL_NOME": "GIRO", "LATITUDE": "-21.7851781", "LONGITUDE": "-46.5494601", "STATUS_OPERACIONAL": "CARTEIRA", "STATUS": "CARTEIRA", "field_14": null, "field_15": null, "field_16": null }, "geometry": { "type": "Point", "coordinates": [ -46.5494601, -21.7851781 ] } },
{ "type": "Feature", "properties": { "NROCNPJ_PAD": "35449110000110", "STATUS_MAILING": "EMPRESA ELEGÍVEL ONLINE NÃO TRABALHADA NO CONTATO TELEFÔNICO/EMPRESA ELEGÍVEL PRESENCIAL NÃO VISITADA", "NOME_FANTASIA": "CASTRO TRANSPORTES", "RAZAO_SOCIAL": "FELIPPE BASSO DOMINGOS TRANSPORTES", "RESPONSAVEL": "FELIPPE BASSO DOMINGOS", "MUNICIPIO": "POCOS DE CALDAS", "ENDEE": "AVENIDA CHAMPAGNAT, 1834, SAO DOMINGOS, 37701-391, POÇOS DE CALDAS, MG, BRASIL", "BANCO": "BDMG", "LINHA_AVAL_NOME": "Giro", "LATITUDE": "-21.7814172", "LONGITUDE": "-46.5909774", "STATUS_OPERACIONAL": "CARTEIRA", "STATUS": "CARTEIRA", "field_14": null, "field_15": null, "field_16": null }, "geometry": { "type": "Point", "coordinates": [ -46.5909774, -21.7814172 ] } },
{ "type": "Feature", "properties": { "NROCNPJ_PAD": "01601628000105", "STATUS_MAILING": "EMPRESA ELEGÍVEL ONLINE NÃO TRABALHADA NO CONTATO TELEFÔNICO/EMPRESA ELEGÍVEL PRESENCIAL NÃO VISITADA", "NOME_FANTASIA": "UTILIDADES VIRGILI", "RAZAO_SOCIAL": "COMERCIAL VIRGILI LTDA", "RESPONSAVEL": "LUCIANAGRALHASCHIOVIRGILI|ROBERTOVIRGILINETO", "MUNICIPIO": "POCOS DE CALDAS", "ENDEE": "RUA FARIA BELO, 80, GAMA CRUZ, 37701-422, POÇOS DE CALDAS, MG, BRASIL", "BANCO": "SICOOB", "LINHA_AVAL_NOME": "Giro", "LATITUDE": "-21.7821758", "LONGITUDE": "-46.5856468", "STATUS_OPERACIONAL": "CARTEIRA", "STATUS": "CARTEIRA", "field_14": null, "field_15": null, "field_16": null }, "geometry": { "type": "Point", "coordinates": [ -46.5856468, -21.7821758 ] } },
{ "type": "Feature", "properties": { "NROCNPJ_PAD": "32058918000188", "STATUS_MAILING": "EMPRESA ELEGÍVEL ONLINE NÃO TRABALHADA NO CONTATO TELEFÔNICO/EMPRESA ELEGÍVEL PRESENCIAL NÃO VISITADA", "NOME_FANTASIA": "EF MONTAGENS", "RAZAO_SOCIAL": "FELIPE ARAUJO DE CARVALHO LTDA", "RESPONSAVEL": "FELIPEARAUJODECARVALHO", "MUNICIPIO": "POCOS DE CALDAS", "ENDEE": "RUA MUCOVITA, 772, JARDIM KENNEDY, 37706-283, POÇOS DE CALDAS, MG, BRASIL", "BANCO": "SICOOB", "LINHA_AVAL_NOME": "Giro", "LATITUDE": "-21.8380399", "LONGITUDE": "-46.5813462", "STATUS_OPERACIONAL": "CARTEIRA", "STATUS": "CARTEIRA", "field_14": null, "field_15": null, "field_16": null }, "geometry": { "type": "Point", "coordinates": [ -46.5813462, -21.8380399 ] } },
{ "type": "Feature", "properties": { "NROCNPJ_PAD": "24967669000115", "STATUS_MAILING": "EMPRESA ELEGÍVEL ONLINE SEM SUCESSO NO CONTATO TELEFÔNICO/EMPRESA ELEGÍVEL PRESENCIAL E PROPRIETÁRIO AUSENTE", "NOME_FANTASIA": "SALAME MINGUE", "RAZAO_SOCIAL": "ROSANE FERREIRA 60344687600", "RESPONSAVEL": "-", "MUNICIPIO": "POCOS DE CALDAS", "ENDEE": "RIO DE JANEIRO, 75, CENTRO, 37701-011, POCOS DE CALDAS, MG, BRASIL", "BANCO": "-", "LINHA_AVAL_NOME": "GIRO", "LATITUDE": "-21.7872775", "LONGITUDE": "-46.5670465", "STATUS_OPERACIONAL": "RETORNAR_COMERCIAL", "STATUS": "RETORNAR_COMERCIAL", "field_14": null, "field_15": null, "field_16": null }, "geometry": { "type": "Point", "coordinates": [ -46.5670465, -21.7872775 ] } },
{ "type": "Feature", "properties": { "NROCNPJ_PAD": "19057348000143", "STATUS_MAILING": "EMPRESA ELEGÍVEL ONLINE SEM SUCESSO NO CONTATO TELEFÔNICO/EMPRESA ELEGÍVEL PRESENCIAL NÃO VISITADA", "NOME_FANTASIA": null, "RAZAO_SOCIAL": "LABORATORIO DE ANALISES CLINICAS VIOTTI LTDA", "RESPONSAVEL": "LILIANEBARBOSADEFREITASARAUJO|OTAVIOARAUJORIBEIRO", "MUNICIPIO": "POCOS DE CALDAS", "ENDEE": "PARAIBA, 150, CENTRO, 37701-726, POCOS DE CALDAS, MG, BRASIL", "BANCO": "SICOOB AGROCREDI", "LINHA_AVAL_NOME": "GIRO", "LATITUDE": "-21.7828531", "LONGITUDE": "-46.5712543", "STATUS_OPERACIONAL": "RETORNAR_COMERCIAL", "STATUS": "RETORNAR_COMERCIAL", "field_14": null, "field_15": null, "field_16": null }, "geometry": { "type": "Point", "coordinates": [ -46.5712543, -21.7828531 ] } },
{ "type": "Feature", "properties": { "NROCNPJ_PAD": "18471400000140", "STATUS_MAILING": "EMPRESA ELEGÍVEL ONLINE SEM SUCESSO NO CONTATO TELEFÔNICO/EMPRESA ELEGÍVEL PRESENCIAL E PROPRIETÁRIO AUSENTE", "NOME_FANTASIA": "NATURAL SUCOS", "RAZAO_SOCIAL": "NATURAL SUCOS LTDA", "RESPONSAVEL": "RUY NARBAL NOGUEIRA COSTA FILHO", "MUNICIPIO": "POCOS DE CALDAS", "ENDEE": "SAO PAULO, 142, CENTRO, 37701-012, POCOS DE CALDAS, MG, BRASIL", "BANCO": "BDMG", "LINHA_AVAL_NOME": "GIRO", "LATITUDE": "-21.7868327", "LONGITUDE": "-46.5662392", "STATUS_OPERACIONAL": "RETORNAR_COMERCIAL", "STATUS": "RETORNAR_COMERCIAL", "field_14": null, "field_15": null, "field_16": null }, "geometry": { "type": "Point", "coordinates": [ -46.5662392, -21.7868327 ] } },
{ "type": "Feature", "properties": { "NROCNPJ_PAD": "59652790000132", "STATUS_MAILING": "EMPRESA ELEGÍVEL ONLINE SEM SUCESSO NO CONTATO TELEFÔNICO/EMPRESA ELEGÍVEL PRESENCIAL E PROPRIETÁRIO AUSENTE", "NOME_FANTASIA": null, "RAZAO_SOCIAL": "FIKA FRITO DELIVERY LTDA", "RESPONSAVEL": "MARCELOLUISPEREIRA", "MUNICIPIO": "POCOS DE CALDAS", "ENDEE": "RIO GRANDE DO NORTE, 185, CENTRO, 37701-040, POCOS DE CALDAS, MG, BRASIL", "BANCO": "SICOOB AGROCREDI", "LINHA_AVAL_NOME": "GIRO", "LATITUDE": "-21.7921862", "LONGITUDE": "-46.5677925", "STATUS_OPERACIONAL": "RETORNAR_COMERCIAL", "STATUS": "RETORNAR_COMERCIAL", "field_14": null, "field_15": null, "field_16": null }, "geometry": { "type": "Point", "coordinates": [ -46.5677925, -21.7921862 ] } },
{ "type": "Feature", "properties": { "NROCNPJ_PAD": "30022513000164", "STATUS_MAILING": "EMPRESA ELEGÍVEL ONLINE SEM SUCESSO NO CONTATO TELEFÔNICO/EMPRESA ELEGÍVEL PRESENCIAL E PROPRIETÁRIO AUSENTE", "NOME_FANTASIA": "OTILUX", "RAZAO_SOCIAL": "FABIANA DIAS DE FREITAS ALVES 03245874650", "RESPONSAVEL": "FABIANA DIAS DE FREITAS ALVES", "MUNICIPIO": "POCOS DE CALDAS", "ENDEE": "PREFEITO CHAGAS, 338, CENTRO, 37701-010, POCOS DE CALDAS, MG, BRASIL", "BANCO": "SICREDI UNIESTADOS", "LINHA_AVAL_NOME": "EMPREENDEDORISMO FEM", "LATITUDE": "-21.7888604", "LONGITUDE": "-46.5644546", "STATUS_OPERACIONAL": "RETORNAR_COMERCIAL", "STATUS": "RETORNAR_COMERCIAL", "field_14": null, "field_15": null, "field_16": null }, "geometry": { "type": "Point", "coordinates": [ -46.5644546, -21.7888604 ] } },
{ "type": "Feature", "properties": { "NROCNPJ_PAD": "30095838000177", "STATUS_MAILING": "EMPRESA ELEGÍVEL PRESENCIAL E PROPRIETÁRIO AUSENTE", "NOME_FANTASIA": "A NAPOLETANA PIZZARIA", "RAZAO_SOCIAL": "A NAPOLETANA DELIVERY LTDA", "RESPONSAVEL": "WILLIAMSANTOSGONCALVES", "MUNICIPIO": "POCOS DE CALDAS", "ENDEE": "JOAO PINHEIRO, 819, CAMPO DA MOGIANA, 37701-880, POCOS DE CALDAS, MG, BRASIL", "BANCO": "SICOOB SAROM", "LINHA_AVAL_NOME": "GIRO", "LATITUDE": "-21.7858487", "LONGITUDE": "-46.580573", "STATUS_OPERACIONAL": "RETORNAR_COMERCIAL", "STATUS": "RETORNAR_COMERCIAL", "field_14": null, "field_15": null, "field_16": null }, "geometry": { "type": "Point", "coordinates": [ -46.580573, -21.7858487 ] } },
{ "type": "Feature", "properties": { "NROCNPJ_PAD": "57195574000180", "STATUS_MAILING": "EMPRESA ELEGÍVEL ONLINE SEM SUCESSO NO CONTATO TELEFÔNICO/EMPRESA ELEGÍVEL PRESENCIAL E PROPRIETÁRIO AUSENTE", "NOME_FANTASIA": "ESCOLA LITTLE SHEEP", "RAZAO_SOCIAL": "ESCOLA BILINGUE HAPPY SHEEP LTDA", "RESPONSAVEL": "-", "MUNICIPIO": "POCOS DE CALDAS", "ENDEE": "ARAGUAIA, 338, JARDIM DOS ESTADOS, 37701-076, POCOS DE CALDAS, MG, BRASIL", "BANCO": "SICREDI UNIESTADOS", "LINHA_AVAL_NOME": "EMPREENDEDORISMO FEM", "LATITUDE": "-21.7836584", "LONGITUDE": "-46.5593714", "STATUS_OPERACIONAL": "RETORNAR_RESIDENCIAL", "STATUS": "RETORNAR_RESIDENCIAL", "field_14": null, "field_15": null, "field_16": null }, "geometry": { "type": "Point", "coordinates": [ -46.5593714, -21.7836584 ] } },
{ "type": "Feature", "properties": { "NROCNPJ_PAD": "17680614000164", "STATUS_MAILING": "EMPRESA ELEGÍVEL ONLINE SEM SUCESSO NO CONTATO TELEFÔNICO/EMPRESA ELEGÍVEL PRESENCIAL E PROPRIETÁRIO AUSENTE", "NOME_FANTASIA": null, "RAZAO_SOCIAL": "17.680.614 ANDREA SORAIA VIEIRA MARINHO", "RESPONSAVEL": "ANDREASORAIAVIEIRAMARINHO", "MUNICIPIO": "POCOS DE CALDAS", "ENDEE": "MIGUEL FILHO, 30, VILA NOSSA SENHORA DE FATIMA, 37701-066, POCOS DE CALDAS, MG, BRASIL", "BANCO": "SICOOB SAROM", "LINHA_AVAL_NOME": "EMPREENDEDORISMO FEM", "LATITUDE": "-21.7822259", "LONGITUDE": "-46.5708262", "STATUS_OPERACIONAL": "RETORNAR_RESIDENCIAL", "STATUS": "RETORNAR_RESIDENCIAL", "field_14": null, "field_15": null, "field_16": null }, "geometry": { "type": "Point", "coordinates": [ -46.5708262, -21.7822259 ] } }
]
}
