{
"type": "FeatureCollection",
"name": "SANTA RITA DO SAPUCAI",
"crs": { "type": "name", "properties": { "name": "urn:ogc:def:crs:OGC:1.3:CRS84" } },
"xy_coordinate_resolution": 1e-15,
"features": [
{ "type": "Feature", "properties": { "NROCNPJ_PAD": "35739142000150", "NOME_FANTASIA": "CUTELARIA SERRA DA MANUELA", "RAZAO_SOCIAL": "35.739.142 ELISANGELA ROCHINSK DE SOUZA", "RESPONSAVEL": "ELISANGELAROCHINSKDESOUZA", "MUNICIPIO": "SANTA RITA DO SAPUCAI", "ENDEE": "AREA SITIO SOL NASCENTE, S/N, SERRA DA MANUELA, 37540-000, SANTA RITA DO SAPUCAI", "BANCO": "SICOOB", "LINHA_AVAL_NOME": "GIRO", "LATITUDE": "-22.190948", "LONGITUDE": "-45.583266", "STATUS_OPERACIONAL": "CARTEIRA", "STATUS": "CARTEIRA", "field_13": "CARTEIRA", "field_14": null, "field_15": null }, "geometry": { "type": "Point", "coordinates": [ -45.583266, -22.190948 ] } },
{ "type": "Feature", "properties": { "NROCNPJ_PAD": "37858713000109", "NOME_FANTASIA": "NEXUS TELECOM & INFORMATICA", "RAZAO_SOCIAL": "L.F.M.O INFORMATICA & TELECOM LTDA", "RESPONSAVEL": "LUISFELIPEMATEUSDEOLIVEIRA", "MUNICIPIO": "SANTA RITA DO SAPUCAI", "ENDEE": "RUA CONEGO ADOLFO CARNEIRO, 970, SALA 01, DO VALLE, 37536-480, SANTA RITA DO SAPUCAI", "BANCO": "SICOOB", "LINHA_AVAL_NOME": "GIRO", "LATITUDE": "-22.2393718", "LONGITUDE": "-45.7020938", "STATUS_OPERACIONAL": "CARTEIRA", "STATUS": "CARTEIRA", "field_13": "CARTEIRA", "field_14": null, "field_15": null }, "geometry": { "type": "Point", "coordinates": [ -45.7020938, -22.2393718 ] } },
{ "type": "Feature", "properties": { "NROCNPJ_PAD": "14979205000175", "NOME_FANTASIA": "J.E. VEICULOS", "RAZAO_SOCIAL": "ESTACIONAMENTO J.E. LTDA", "RESPONSAVEL": "EDERDEALMEIDAVILELA|JULIOCESARRIBEIRO", "MUNICIPIO": "SANTA RITA DO SAPUCAI", "ENDEE": "AVENIDA FREDERICO DE PAULA CUNHA, 755, MARISTELA, 37540-000, SANTA RITA DO SAPUCAI", "BANCO": "SICOOB", "LINHA_AVAL_NOME": "GIRO", "LATITUDE": "-22.2430609", "LONGITUDE": "-45.7091861", "STATUS_OPERACIONAL": "CARTEIRA", "STATUS": "CARTEIRA", "field_13": "CARTEIRA", "field_14": null, "field_15": null }, "geometry": { "type": "Point", "coordinates": [ -45.7091861, -22.2430609 ] } },
{ "type": "Feature", "properties": { "NROCNPJ_PAD": "26328073000109", "NOME_FANTASIA": "-", "RAZAO_SOCIAL": "ALEXANDRE DIAS COSTA 01212479610", "RESPONSAVEL": "ALEXANDREDIASCOSTA", "MUNICIPIO": "SANTA RITA DO SAPUCAI", "ENDEE": "RUA PADRE BERTOLLO, 989, PAULO BORSATO, 37538-000, SANTA RITA DO SAPUCAI", "BANCO": "SICOOB", "LINHA_AVAL_NOME": "GIRO", "LATITUDE": "-22.2434694", "LONGITUDE": "-45.7130691", "STATUS_OPERACIONAL": "CARTEIRA", "STATUS": "CARTEIRA", "field_13": "CARTEIRA", "field_14": null, "field_15": null }, "geometry": { "type": "Point", "coordinates": [ -45.7130691, -22.2434694 ] } },
{ "type": "Feature", "properties": { "NROCNPJ_PAD": "54747833000140", "NOME_FANTASIA": "GUILHERME VITOR TRANSPORTES", "RAZAO_SOCIAL": "GUILHERME VITOR TAVARES DA COSTA", "RESPONSAVEL": "GUILHERMEVITORTAVARESDACOSTA", "MUNICIPIO": "SANTA RITA DO SAPUCAI", "ENDEE": "RUA EXPEDICIONARIO JOAO ADAMI, 169, FERNANDES, 37538-748, SANTA RITA DO SAPUCAI", "BANCO": "SICOOB", "LINHA_AVAL_NOME": "GIRO", "LATITUDE": "-22.2450794", "LONGITUDE": "-45.7116185", "STATUS_OPERACIONAL": "CARTEIRA", "STATUS": "CARTEIRA", "field_13": "CARTEIRA", "field_14": null, "field_15": null }, "geometry": { "type": "Point", "coordinates": [ -45.7116185, -22.2450794 ] } },
{ "type": "Feature", "properties": { "NROCNPJ_PAD": "59413334000130", "NOME_FANTASIA": "-", "RAZAO_SOCIAL": "59.413.334 THIAGO RIBEIRO", "RESPONSAVEL": "THIAGORIBEIRO", "MUNICIPIO": "SANTA RITA DO SAPUCAI", "ENDEE": "AVENIDA FREDERICO DE PAULA CUNHA, 357, LOJA, MARISTELA, 37536-162, SANTA RITA DO SAPUCAI", "BANCO": "SICOOB", "LINHA_AVAL_NOME": "GIRO", "LATITUDE": "-22.2458575", "LONGITUDE": "-45.7068133", "STATUS_OPERACIONAL": "CARTEIRA", "STATUS": "CARTEIRA", "field_13": "CARTEIRA", "field_14": null, "field_15": null }, "geometry": { "type": "Point", "coordinates": [ -45.7068133, -22.2458575 ] } },
{ "type": "Feature", "properties": { "NROCNPJ_PAD": "40449119000160", "NOME_FANTASIA": "VTD INSULFILM", "RAZAO_SOCIAL": "40.449.119 VANDERLEI JUSTO", "RESPONSAVEL": "VANDERLEIJUSTO", "MUNICIPIO": "SANTA RITA DO SAPUCAI", "ENDEE": "RUA HORACIO CAPISTRANO, 294, CENTRO, 37536-110, SANTA RITA DO SAPUCAI", "BANCO": "SICOOB", "LINHA_AVAL_NOME": "GIRO", "LATITUDE": "-22.246955", "LONGITUDE": "-45.7068699", "STATUS_OPERACIONAL": "CARTEIRA", "STATUS": "CARTEIRA", "field_13": "CARTEIRA", "field_14": null, "field_15": null }, "geometry": { "type": "Point", "coordinates": [ -45.7068699, -22.246955 ] } },
{ "type": "Feature", "properties": { "NROCNPJ_PAD": "07911014000106", "NOME_FANTASIA": "-", "RAZAO_SOCIAL": "NELSON GONCALVES DA COSTA", "RESPONSAVEL": "NELSONGONCALVESDACOSTA", "MUNICIPIO": "SANTA RITA DO SAPUCAI", "ENDEE": "AVENIDA DOUTOR DELFIM MOREIRA, 376, CENTRO, 37540-000, SANTA RITA DO SAPUCAI", "BANCO": "SICOOB", "LINHA_AVAL_NOME": "GIRO", "LATITUDE": "-22.2488509", "LONGITUDE": "-45.7049888", "STATUS_OPERACIONAL": "CARTEIRA", "STATUS": "CARTEIRA", "field_13": "CARTEIRA", "field_14": null, "field_15": null }, "geometry": { "type": "Point", "coordinates": [ -45.7049888, -22.2488509 ] } },
{ "type": "Feature", "properties": { "NROCNPJ_PAD": "31037887000116", "NOME_FANTASIA": "ENTRELINHAS AVIAMENTOS", "RAZAO_SOCIAL": "MARIA BERNADETE ALMEIDA CAVALCANTI 01189520800", "RESPONSAVEL": "MARIABERNADETEALMEIDACAVALCANTI", "MUNICIPIO": "SANTA RITA DO SAPUCAI", "ENDEE": "AVENIDA DR DELFIM MOREIRA, 285, CASA A, CENTRO, 37540-000, SANTA RITA DO SAPUCAI", "BANCO": "SICOOB", "LINHA_AVAL_NOME": "EMPREENDEDORISMO FEM", "LATITUDE": "-22.2491632", "LONGITUDE": "-45.7059769", "STATUS_OPERACIONAL": "CARTEIRA", "STATUS": "CARTEIRA", "field_13": "CARTEIRA", "field_14": null, "field_15": null }, "geometry": { "type": "Point", "coordinates": [ -45.7059769, -22.2491632 ] } },
{ "type": "Feature", "properties": { "NROCNPJ_PAD": "52476704000139", "NOME_FANTASIA": "TOQUE CARINHOSO", "RAZAO_SOCIAL": "TOQUE CARINHOSO LTDA", "RESPONSAVEL": "BEATRIZMOTADOCOUTO", "MUNICIPIO": "SANTA RITA DO SAPUCAI", "ENDEE": "RUA DOUTOR JOSE PINTO VILELA, 35, LETRA B, CENTRO, 37536-094, SANTA RITA DO SAPUCAI", "BANCO": "SICOOB", "LINHA_AVAL_NOME": "GIRO", "LATITUDE": "-22.2493561", "LONGITUDE": "-45.7063969", "STATUS_OPERACIONAL": "CARTEIRA", "STATUS": "CARTEIRA", "field_13": "CARTEIRA", "field_14": null, "field_15": null }, "geometry": { "type": "Point", "coordinates": [ -45.7063969, -22.2493561 ] } },
{ "type": "Feature", "properties": { "NROCNPJ_PAD": "03452952000134", "NOME_FANTASIA": "-", "RAZAO_SOCIAL": "IMPAR ESTAMPARIA LTDA", "RESPONSAVEL": "LETICIADASILVASOUZA|ROGERIOAPARECIDODESOUZA", "MUNICIPIO": "SANTA RITA DO SAPUCAI", "ENDEE": "RUA CAPITAO VICENTE RIBEIRO DO VALLE, 120, CENTRO, 37536-104, SANTA RITA DO SAPUCAI", "BANCO": "SICOOB", "LINHA_AVAL_NOME": "GIRO", "LATITUDE": "-22.2498382", "LONGITUDE": "-45.7082329", "STATUS_OPERACIONAL": "CARTEIRA", "STATUS": "CARTEIRA", "field_13": "CARTEIRA", "field_14": null, "field_15": null }, "geometry": { "type": "Point", "coordinates": [ -45.7082329, -22.2498382 ] } },
{ "type": "Feature", "properties": { "NROCNPJ_PAD": "54596613000162", "NOME_FANTASIA": "GRUPO GAMA INTERMEDIACOES", "RAZAO_SOCIAL": "GAMA INTERMEDIACOES LTDA", "RESPONSAVEL": "-", "MUNICIPIO": "SANTA RITA DO SAPUCAI", "ENDEE": "AVENIDA DOUTOR DELFIM MOREIRA, 189, CENTRO, 37536-086, SANTA RITA DO SAPUCAI", "BANCO": "BRADESCO", "LINHA_AVAL_NOME": "GIRO", "LATITUDE": "-22.2498432", "LONGITUDE": "-45.7066458", "STATUS_OPERACIONAL": "CARTEIRA", "STATUS": "CARTEIRA", "field_13": "CARTEIRA", "field_14": null, "field_15": null }, "geometry": { "type": "Point", "coordinates": [ -45.7066458, -22.2498432 ] } },
{ "type": "Feature", "properties": { "NROCNPJ_PAD": "30308124000108", "NOME_FANTASIA": "SANTA PIZZA", "RAZAO_SOCIAL": "ALUINA CABRAL 03280549680", "RESPONSAVEL": "ALUINACABRAL", "MUNICIPIO": "SANTA RITA DO SAPUCAI", "ENDEE": "AVENIDA DOUTOR DELFIM MOREIRA, 51, ANEXO 102, CENTRO, 37540-000, SANTA RITA DO SAPUCAI", "BANCO": "SICOOB", "LINHA_AVAL_NOME": "GIRO", "LATITUDE": "-22.2504806", "LONGITUDE": "-45.7076504", "STATUS_OPERACIONAL": "CARTEIRA", "STATUS": "CARTEIRA", "field_13": "CARTEIRA", "field_14": null, "field_15": null }, "geometry": { "type": "Point", "coordinates": [ -45.7076504, -22.2504806 ] } },
{ "type": "Feature", "properties": { "NROCNPJ_PAD": "03341659000108", "NOME_FANTASIA": "LA - PARAFUSOS", "RAZAO_SOCIAL": "LUCIANO APARECIDO DA SILVA CPF 75486229615", "RESPONSAVEL": "LUCIANOAPARECIDODASILVA", "MUNICIPIO": "SANTA RITA DO SAPUCAI", "ENDEE": "RUA BARAO DO RIO BRANCO, 40, CENTRO, 37540-000, SANTA RITA DO SAPUCAI", "BANCO": "SICOOB", "LINHA_AVAL_NOME": "GIRO", "LATITUDE": "-22.251769", "LONGITUDE": "-45.7039754", "STATUS_OPERACIONAL": "CARTEIRA", "STATUS": "CARTEIRA", "field_13": "CARTEIRA", "field_14": null, "field_15": null }, "geometry": { "type": "Point", "coordinates": [ -45.7039754, -22.251769 ] } },
{ "type": "Feature", "properties": { "NROCNPJ_PAD": "28465461000159", "NOME_FANTASIA": "JULEE KIDS", "RAZAO_SOCIAL": "28.465.461 ANA JULIA JULIDORI SILVA", "RESPONSAVEL": "ANAJULIAJULIDORISILVA", "MUNICIPIO": "SANTA RITA DO SAPUCAI", "ENDEE": "RUA QUINTINO BOCAIUVA, 156, CENTRO, 37536-028, SANTA RITA DO SAPUCAI", "BANCO": "SICOOB", "LINHA_AVAL_NOME": "GIRO", "LATITUDE": "-22.2522867", "LONGITUDE": "-45.7016129", "STATUS_OPERACIONAL": "CARTEIRA", "STATUS": "CARTEIRA", "field_13": "CARTEIRA", "field_14": null, "field_15": null }, "geometry": { "type": "Point", "coordinates": [ -45.7016129, -22.2522867 ] } },
{ "type": "Feature", "properties": { "NROCNPJ_PAD": "28995183000141", "NOME_FANTASIA": "GRAOS DE MINAS", "RAZAO_SOCIAL": "28.995.183 PAULINE VIEIRA BRANDANI", "RESPONSAVEL": "PAULINEVIEIRABRANDANI", "MUNICIPIO": "SANTA RITA DO SAPUCAI", "ENDEE": "AVENIDA SINHA MOREIRA, 12, CENTRO, 37536-016, SANTA RITA DO SAPUCAI", "BANCO": "SICOOB", "LINHA_AVAL_NOME": "GIRO", "LATITUDE": "-22.2537308", "LONGITUDE": "-45.7053581", "STATUS_OPERACIONAL": "CARTEIRA", "STATUS": "CARTEIRA", "field_13": "CARTEIRA", "field_14": null, "field_15": null }, "geometry": { "type": "Point", "coordinates": [ -45.7053581, -22.2537308 ] } },
{ "type": "Feature", "properties": { "NROCNPJ_PAD": "26371902000128", "NOME_FANTASIA": "BOTECO TIO JOAO", "RAZAO_SOCIAL": "FABIOLA SIECOLA VILELA LTDA", "RESPONSAVEL": "FABIOLASIECOLAVILELA", "MUNICIPIO": "SANTA RITA DO SAPUCAI", "ENDEE": "RUA CUSTODIO ROSA, 46, LOJA 03, CENTRO, 37536-051, SANTA RITA DO SAPUCAI", "BANCO": "SICOOB", "LINHA_AVAL_NOME": "EMPREENDEDORISMO FEM", "LATITUDE": "-22.2538745", "LONGITUDE": "-45.7037603", "STATUS_OPERACIONAL": "CARTEIRA", "STATUS": "CARTEIRA", "field_13": "CARTEIRA", "field_14": null, "field_15": null }, "geometry": { "type": "Point", "coordinates": [ -45.7037603, -22.2538745 ] } },
{ "type": "Feature", "properties": { "NROCNPJ_PAD": "12387570000165", "NOME_FANTASIA": "SERIGRAFICA SANTANA", "RAZAO_SOCIAL": "SERIGRAFICA SANTANA LTDA", "RESPONSAVEL": "JOSECARLOSLEMOS|RITAHELENACHAVESPINTOLEMOS", "MUNICIPIO": "SANTA RITA DO SAPUCAI", "ENDEE": "AVENIDA DESEMBARGADOR DOUTOR JOSE ARTHUR DE CARVALHO PEREIRA, 217, SANTANA II, 37537-202, SANTA RITA DO SAPUCAI", "BANCO": "SICOOB", "LINHA_AVAL_NOME": "GIRO", "LATITUDE": "-22.2539654", "LONGITUDE": "-45.6911306", "STATUS_OPERACIONAL": "CARTEIRA", "STATUS": "CARTEIRA", "field_13": "CARTEIRA", "field_14": null, "field_15": null }, "geometry": { "type": "Point", "coordinates": [ -45.6911306, -22.2539654 ] } },
{ "type": "Feature", "properties": { "NROCNPJ_PAD": "48003281000162", "NOME_FANTASIA": "CR ALMEIDA REPRESENTACOES", "RAZAO_SOCIAL": "CR ALMEIDA REPRESENTACOES COMERCIAIS LTDA", "RESPONSAVEL": "CARLOSROBERTODEALMEIDA", "MUNICIPIO": "SANTA RITA DO SAPUCAI", "ENDEE": "RUA TREZE DE MAIO, 285, APT 302 SALA 01, CENTRO, 37536-024, SANTA RITA DO SAPUCAI", "BANCO": "SICOOB", "LINHA_AVAL_NOME": "GIRO", "LATITUDE": "-22.2541763", "LONGITUDE": "-45.701227", "STATUS_OPERACIONAL": "CARTEIRA", "STATUS": "CARTEIRA", "field_13": "CARTEIRA", "field_14": null, "field_15": null }, "geometry": { "type": "Point", "coordinates": [ -45.701227, -22.2541763 ] } },
{ "type": "Feature", "properties": { "NROCNPJ_PAD": "07813494000172", "NOME_FANTASIA": "-", "RAZAO_SOCIAL": "ACADEMIA DE GINASTICA LIFE LTDA", "RESPONSAVEL": "ARTHURCASSIADEGRUITER", "MUNICIPIO": "SANTA RITA DO SAPUCAI", "ENDEE": "RUA PREFEITO ANTONIO PROCOPIO DA COSTA, 160, FAMILIA ANDRADE, 37540-000, SANTA RITA DO SAPUCAI", "BANCO": "SICOOB", "LINHA_AVAL_NOME": "GIRO", "LATITUDE": "-22.2542923", "LONGITUDE": "-45.7079235", "STATUS_OPERACIONAL": "CARTEIRA", "STATUS": "CARTEIRA", "field_13": "CARTEIRA", "field_14": null, "field_15": null }, "geometry": { "type": "Point", "coordinates": [ -45.7079235, -22.2542923 ] } },
{ "type": "Feature", "properties": { "NROCNPJ_PAD": "11697699000107", "NOME_FANTASIA": "-", "RAZAO_SOCIAL": "WILMA RIBEIRO DE OLIVEIRA", "RESPONSAVEL": "WILMARIBEIRODEOLIVEIRA", "MUNICIPIO": "SANTA RITA DO SAPUCAI", "ENDEE": "AVENIDA ANTONIO PAULINO, 271, CENTRO, 37536-018, SANTA RITA DO SAPUCAI", "BANCO": "SICOOB", "LINHA_AVAL_NOME": "EMPREENDEDORISMO FEM", "LATITUDE": "-22.2548369", "LONGITUDE": "-45.7027452", "STATUS_OPERACIONAL": "CARTEIRA", "STATUS": "CARTEIRA", "field_13": "CARTEIRA", "field_14": null, "field_15": null }, "geometry": { "type": "Point", "coordinates": [ -45.7027452, -22.2548369 ] } },
{ "type": "Feature", "properties": { "NROCNPJ_PAD": "16422161000103", "NOME_FANTASIA": "ORIENTE ADMINISTRADORA", "RAZAO_SOCIAL": "ORIENTE ADMINISTRADORA LTDA", "RESPONSAVEL": "CLAUDIAREGINARIBEIROOLIVEIRA|RICHARDDOSREISCARVALHOPINTO", "MUNICIPIO": "SANTA RITA DO SAPUCAI", "ENDEE": "RUA CORONEL ERASMO CABRAL, 217, CENTRO, 37536-008, SANTA RITA DO SAPUCAI", "BANCO": "SICOOB", "LINHA_AVAL_NOME": "GIRO", "LATITUDE": "-22.25539", "LONGITUDE": "-45.7021971", "STATUS_OPERACIONAL": "CARTEIRA", "STATUS": "CARTEIRA", "field_13": "CARTEIRA", "field_14": null, "field_15": null }, "geometry": { "type": "Point", "coordinates": [ -45.7021971, -22.25539 ] } },
{ "type": "Feature", "properties": { "NROCNPJ_PAD": "23093251000163", "NOME_FANTASIA": "-", "RAZAO_SOCIAL": "MUNDIAL PAES LTDA", "RESPONSAVEL": "JULIADOSSANTOSRESCH|VAGNERDESOUZARESCH", "MUNICIPIO": "SANTA RITA DO SAPUCAI", "ENDEE": "AVENIDA JOAO DE CAMARGO, 341, CENTRO, 37536-001, SANTA RITA DO SAPUCAI", "BANCO": "SICOOB", "LINHA_AVAL_NOME": "GIRO", "LATITUDE": "-22.2557819", "LONGITUDE": "-45.698139", "STATUS_OPERACIONAL": "CARTEIRA", "STATUS": "CARTEIRA", "field_13": "CARTEIRA", "field_14": null, "field_15": null }, "geometry": { "type": "Point", "coordinates": [ -45.698139, -22.2557819 ] } },
{ "type": "Feature", "properties": { "NROCNPJ_PAD": "10659777000116", "NOME_FANTASIA": "-", "RAZAO_SOCIAL": "HELCIO FERNANDES MENDES LTDA", "RESPONSAVEL": "HELCIO FERNANDES MENDES", "MUNICIPIO": "SANTA RITA DO SAPUCAI", "ENDEE": "RUA RODRIGO MARTINS CARNEIRO, 196, VIANA, 37537-140, SANTA RITA DO SAPUCAÍ, MG, BRASIL", "BANCO": "BDMG", "LINHA_AVAL_NOME": "Giro", "LATITUDE": "-22.2509976", "LONGITUDE": "-45.6889993", "STATUS_OPERACIONAL": "CARTEIRA", "STATUS": "CARTEIRA", "field_13": "CARTEIRA", "field_14": null, "field_15": null }, "geometry": { "type": "Point", "coordinates": [ -45.6889993, -22.2509976 ] } },
{ "type": "Feature", "properties": { "NROCNPJ_PAD": "59980271000101", "NOME_FANTASIA": "-", "RAZAO_SOCIAL": "59.980.271 RITA LUCIA CRUZ LIMA ALVES", "RESPONSAVEL": "RITALUCIACRUZLIMAALVES", "MUNICIPIO": "SANTA RITA DO SAPUCAI", "ENDEE": "AVENIDA FREDERICO DE PAULA CUNHA, 45, MARISTELA, 37536-162, SANTA RITA DO SAPUCAÍ, MG, BRASIL", "BANCO": "SICOOB", "LINHA_AVAL_NOME": "Empreendedorismo Fem", "LATITUDE": "-22.2479291", "LONGITUDE": "-45.7049973", "STATUS_OPERACIONAL": "CARTEIRA", "STATUS": "CARTEIRA", "field_13": "CARTEIRA", "field_14": null, "field_15": null }, "geometry": { "type": "Point", "coordinates": [ -45.7049973, -22.2479291 ] } },
{ "type": "Feature", "properties": { "NROCNPJ_PAD": "17197929000155", "NOME_FANTASIA": "INTER LINK RASTREAMENTO", "RAZAO_SOCIAL": "INTER LINK RASTREAMENTO EIRELI", "RESPONSAVEL": "-", "MUNICIPIO": "SANTA RITA DO SAPUCAI", "ENDEE": "RUA 6, 50, IPANEMA, 37540-000, SANTA RITA DO SAPUCAÍ, MG, BRASIL", "BANCO": "BDMG", "LINHA_AVAL_NOME": "Giro", "LATITUDE": "-22.2672171", "LONGITUDE": "-45.7115162", "STATUS_OPERACIONAL": "CARTEIRA", "STATUS": "CARTEIRA", "field_13": "CARTEIRA", "field_14": null, "field_15": null }, "geometry": { "type": "Point", "coordinates": [ -45.7115162, -22.2672171 ] } },
{ "type": "Feature", "properties": { "NROCNPJ_PAD": "59685418000122", "NOME_FANTASIA": "ZAAD FASHION", "RAZAO_SOCIAL": "BRUNA DE CASSIA SILVA ANASTACIO", "RESPONSAVEL": "BRUNADECASSIASILVAANASTACIO|LUCIANOGARCIA", "MUNICIPIO": "SANTA RITA DO SAPUCAI", "ENDEE": "AVENIDA FREDERICO DE PAULA CUNHA, 474, MARISTELA, 37536-162, SANTA RITA DO SAPUCAÍ, MG, BRASIL", "BANCO": "SICOOB", "LINHA_AVAL_NOME": "Empreendedorismo Fem", "LATITUDE": "-22.244811", "LONGITUDE": "-45.7073626", "STATUS_OPERACIONAL": "CARTEIRA", "STATUS": "CARTEIRA", "field_13": "CARTEIRA", "field_14": null, "field_15": null }, "geometry": { "type": "Point", "coordinates": [ -45.7073626, -22.244811 ] } },
{ "type": "Feature", "properties": { "NROCNPJ_PAD": "28147012000162", "NOME_FANTASIA": "WL AUTOMOVEIS", "RAZAO_SOCIAL": "WENDEL AUGUSTO RIBEIRO", "RESPONSAVEL": "WENDELAUGUSTORIBEIRO", "MUNICIPIO": "SANTA RITA DO SAPUCAI", "ENDEE": "AVENIDA MOREIRA, 189, FAMILIA ANDRADE, 37538-030, SANTA RITA DO SAPUCAÍ, MG, BRASIL", "BANCO": "SICOOB", "LINHA_AVAL_NOME": "Giro", "LATITUDE": "-22.2516258", "LONGITUDE": "-45.710484", "STATUS_OPERACIONAL": "CARTEIRA", "STATUS": "CARTEIRA", "field_13": "CARTEIRA", "field_14": null, "field_15": null }, "geometry": { "type": "Point", "coordinates": [ -45.710484, -22.2516258 ] } },
{ "type": "Feature", "properties": { "NROCNPJ_PAD": "57323901000131", "NOME_FANTASIA": "-", "RAZAO_SOCIAL": "57.323.901 GABRYELLE ADAMI LOMBARDI CASSIANO DIAS", "RESPONSAVEL": "GABRYELLEADAMILOMBARDICASSIANODIAS", "MUNICIPIO": "SANTA RITA DO SAPUCAI", "ENDEE": "RUA CORONEL FRANCISCO PALMA, 176, GARAGE, CENTRO, 37536-026, SANTA RITA DO SAPUCAÍ, MG, BRASIL", "BANCO": "SICOOB", "LINHA_AVAL_NOME": "Empreendedorismo Fem", "LATITUDE": "-22.2535021", "LONGITUDE": "-45.701967", "STATUS_OPERACIONAL": "CARTEIRA", "STATUS": "CARTEIRA", "field_13": "CARTEIRA", "field_14": null, "field_15": null }, "geometry": { "type": "Point", "coordinates": [ -45.701967, -22.2535021 ] } },
{ "type": "Feature", "properties": { "NROCNPJ_PAD": "63508665000120", "NOME_FANTASIA": "-", "RAZAO_SOCIAL": "63.508.665 LUCIENE DE FATIMA GREGORIO", "RESPONSAVEL": "LUCIENEDEFATIMAGREGORIO", "MUNICIPIO": "SANTA RITA DO SAPUCAI", "ENDEE": "RUA MARIO DE SOUZA, 119, CONJUNTO HABITACIONAL PEDRO SANCHO VILELA, 37539-116, SANTA RITA DO SAPUCAÍ, MG, BRASIL", "BANCO": "SICOOB", "LINHA_AVAL_NOME": "Empreendedorismo Fem", "LATITUDE": "-22.2481713", "LONGITUDE": "-45.698368", "STATUS_OPERACIONAL": "CARTEIRA", "STATUS": "CARTEIRA", "field_13": "CARTEIRA", "field_14": null, "field_15": null }, "geometry": { "type": "Point", "coordinates": [ -45.698368, -22.2481713 ] } }
]
}
