{
"type": "FeatureCollection",
"name": "MUNICIPIO_SAO THOME DAS LETRAS",
"crs": { "type": "name", "properties": { "name": "urn:ogc:def:crs:OGC:1.3:CRS84" } },
"xy_coordinate_resolution": 1e-15,
"features": [
{ "type": "Feature", "properties": { "NROCNPJ_PAD": "26476113000151", "STATUS_MAILING": "EMPRESA ELEGÍVEL ONLINE SEM SUCESSO NO CONTATO TELEFÔNICO/EMPRESA ELEGÍVEL PRESENCIAL NÃO VISITADA", "NOME_FANTASIA": "CONSTRUTORA SAO THOME", "RAZAO_SOCIAL": "26.476.113 JOSE FRANCISCO FLAUZINO", "RESPONSAVEL": "JOSEFRANCISCOFLAUZINO", "MUNICIPIO": "SAO THOME DAS LETRAS", "ENDEE": "10A RUA JEZUELY APARECIDA SOUZA, 15, SAO THOME DAS LETRAS, 37408-000, SAO TOME DAS LETRAS", "BANCO": "SICOOB", "LINHA_AVAL_NOME": "GIRO", "LATITUDE": "-21.7174751", "LONGITUDE": "-44.9834413", "STATUS_OPERACIONAL": "CARTEIRA", "STATUS": "CARTEIRA", "field_14": null, "field_15": null, "field_16": null }, "geometry": { "type": "Point", "coordinates": [ -44.9834413, -21.7174751 ] } },
{ "type": "Feature", "properties": { "NROCNPJ_PAD": "21536732000170", "STATUS_MAILING": "EMPRESA ELEGÍVEL ONLINE SEM SUCESSO NO CONTATO TELEFÔNICO/EMPRESA ELEGÍVEL PRESENCIAL NÃO VISITADA", "NOME_FANTASIA": "-", "RAZAO_SOCIAL": "JOSE CARLOS DE OLIVEIRA 00029891663", "RESPONSAVEL": "JOSECARLOSDEOLIVEIRA", "MUNICIPIO": "SAO THOME DAS LETRAS", "ENDEE": "RUA QUARTZO, 25, CANINANA, 37408-000, SAO TOME DAS LETRAS", "BANCO": "SICOOB", "LINHA_AVAL_NOME": "GIRO", "LATITUDE": "-21.7184117", "LONGITUDE": "-44.9844097", "STATUS_OPERACIONAL": "CARTEIRA", "STATUS": "CARTEIRA", "field_14": null, "field_15": null, "field_16": null }, "geometry": { "type": "Point", "coordinates": [ -44.9844097, -21.7184117 ] } },
{ "type": "Feature", "properties": { "NROCNPJ_PAD": "18986462000195", "STATUS_MAILING": "EMPRESA ELEGÍVEL ONLINE SEM SUCESSO NO CONTATO TELEFÔNICO/EMPRESA ELEGÍVEL PRESENCIAL NÃO VISITADA", "NOME_FANTASIA": "CHALES E CAMPING DO ROBINHO", "RAZAO_SOCIAL": "18.986.462 TANIELE DE LOURDES RIBEIRO COSTA", "RESPONSAVEL": "TANIELEDELOURDESRIBEIROCOSTA", "MUNICIPIO": "SAO THOME DAS LETRAS", "ENDEE": "ESTRADA SAO TOME DAS LETRAS /BAENPENDI KM 2,5, SEM, ANEXO, CANTA-GALO, 37408-000, SAO TOME DAS LETRAS", "BANCO": "SICOOB", "LINHA_AVAL_NOME": "EMPREENDEDORISMO FEM", "LATITUDE": "-21.7187996", "LONGITUDE": "-44.9815483", "STATUS_OPERACIONAL": "CARTEIRA", "STATUS": "CARTEIRA", "field_14": null, "field_15": null, "field_16": null }, "geometry": { "type": "Point", "coordinates": [ -44.9815483, -21.7187996 ] } },
{ "type": "Feature", "properties": { "NROCNPJ_PAD": "14070859000181", "STATUS_MAILING": "EMPRESA ELEGÍVEL ONLINE SEM SUCESSO NO CONTATO TELEFÔNICO/EMPRESA ELEGÍVEL PRESENCIAL NÃO VISITADA", "NOME_FANTASIA": "ESPACO LIVRE/CURA/CHALE DE PEDRA", "RAZAO_SOCIAL": "14.070.859 ANA MARIA MARCONDES SIGAUD", "RESPONSAVEL": "ANAMARIAMARCONDESSIGAUD", "MUNICIPIO": "SAO THOME DAS LETRAS", "ENDEE": "PRACA ROSARIO, 645, CENTRO, 37408-000, SAO TOME DAS LETRAS", "BANCO": "SICOOB", "LINHA_AVAL_NOME": "EMPREENDEDORISMO FEM", "LATITUDE": "-21.7190394", "LONGITUDE": "-44.9819389", "STATUS_OPERACIONAL": "CARTEIRA", "STATUS": "CARTEIRA", "field_14": null, "field_15": null, "field_16": null }, "geometry": { "type": "Point", "coordinates": [ -44.9819389, -21.7190394 ] } },
{ "type": "Feature", "properties": { "NROCNPJ_PAD": "43772007000134", "STATUS_MAILING": "EMPRESA ELEGÍVEL ONLINE SEM SUCESSO NO CONTATO TELEFÔNICO/EMPRESA ELEGÍVEL PRESENCIAL NÃO VISITADA", "NOME_FANTASIA": "RESTAURANTE PAIS E FILHOS", "RAZAO_SOCIAL": "ALISSON ADRIANO SOUZA GONCALVES 18861034616", "RESPONSAVEL": "ALISSONADRIANOSOUZAGONCALVES", "MUNICIPIO": "SAO THOME DAS LETRAS", "ENDEE": "AVENIDA NOSSA SENHORA DO ROSARIO, 780, ROSARIO, 37408-000, SAO TOME DAS LETRAS", "BANCO": "SICOOB", "LINHA_AVAL_NOME": "GIRO", "LATITUDE": "-21.7192498", "LONGITUDE": "-44.9821528", "STATUS_OPERACIONAL": "CARTEIRA", "STATUS": "CARTEIRA", "field_14": null, "field_15": null, "field_16": null }, "geometry": { "type": "Point", "coordinates": [ -44.9821528, -21.7192498 ] } },
{ "type": "Feature", "properties": { "NROCNPJ_PAD": "45564305000164", "STATUS_MAILING": "EMPRESA ELEGÍVEL ONLINE SEM SUCESSO NO CONTATO TELEFÔNICO/EMPRESA ELEGÍVEL PRESENCIAL NÃO VISITADA", "NOME_FANTASIA": "MINERADORA ERNESTO SILVA", "RAZAO_SOCIAL": "JOAO ERNESTO DA SILVA", "RESPONSAVEL": "JOAOERNESTODASILVA", "MUNICIPIO": "SAO THOME DAS LETRAS", "ENDEE": "AVENIDA EVARISTO CARDOSO DA SILVA, 455, CENTRO, 37408-000, SAO TOME DAS LETRAS", "BANCO": "SICOOB", "LINHA_AVAL_NOME": "GIRO", "LATITUDE": "-21.7195043", "LONGITUDE": "-44.988478", "STATUS_OPERACIONAL": "CARTEIRA", "STATUS": "CARTEIRA", "field_14": null, "field_15": null, "field_16": null }, "geometry": { "type": "Point", "coordinates": [ -44.988478, -21.7195043 ] } },
{ "type": "Feature", "properties": { "NROCNPJ_PAD": "28235086000150", "STATUS_MAILING": "EMPRESA ELEGÍVEL ONLINE SEM SUCESSO NO CONTATO TELEFÔNICO/EMPRESA ELEGÍVEL PRESENCIAL NÃO VISITADA", "NOME_FANTASIA": "POUSADA ACONCHEGO DE SAO THOME", "RAZAO_SOCIAL": "ANA CLAUDIA ALVES NASCIMENTO 09390640652", "RESPONSAVEL": "ANACLAUDIAALVESNASCIMENTO", "MUNICIPIO": "SAO THOME DAS LETRAS", "ENDEE": "RUA NHA CHICA, 110, ROSARIO, 37408-000, SAO TOME DAS LETRAS", "BANCO": "SICOOB", "LINHA_AVAL_NOME": "EMPREENDEDORISMO FEM", "LATITUDE": "-21.719815", "LONGITUDE": "-44.9833028", "STATUS_OPERACIONAL": "CARTEIRA", "STATUS": "CARTEIRA", "field_14": null, "field_15": null, "field_16": null }, "geometry": { "type": "Point", "coordinates": [ -44.9833028, -21.719815 ] } },
{ "type": "Feature", "properties": { "NROCNPJ_PAD": "62462949000160", "STATUS_MAILING": "EMPRESA ELEGÍVEL ONLINE SEM SUCESSO NO CONTATO TELEFÔNICO/EMPRESA ELEGÍVEL PRESENCIAL NÃO VISITADA", "NOME_FANTASIA": "VIBE BOA", "RAZAO_SOCIAL": "VIBE BOA LTDA", "RESPONSAVEL": "ANACLAUDIACORSINIWANDERLEY", "MUNICIPIO": "SAO THOME DAS LETRAS", "ENDEE": "RUA PLINIO PEDRO MARTINS, 251, SAO THOME DAS LETRAS, 37408-000, SAO TOME DAS LETRAS", "BANCO": "SICOOB", "LINHA_AVAL_NOME": "EMPREENDEDORISMO FEM", "LATITUDE": "-21.7205465", "LONGITUDE": "-44.983709", "STATUS_OPERACIONAL": "CARTEIRA", "STATUS": "CARTEIRA", "field_14": null, "field_15": null, "field_16": null }, "geometry": { "type": "Point", "coordinates": [ -44.983709, -21.7205465 ] } },
{ "type": "Feature", "properties": { "NROCNPJ_PAD": "44345140000177", "STATUS_MAILING": "EMPRESA ELEGÍVEL ONLINE SEM SUCESSO NO CONTATO TELEFÔNICO/EMPRESA ELEGÍVEL PRESENCIAL NÃO VISITADA", "NOME_FANTASIA": "ARMAZEM DO TECIDO", "RAZAO_SOCIAL": "44.345.140 EDNA NOVO", "RESPONSAVEL": "EDNANOVO", "MUNICIPIO": "SAO THOME DAS LETRAS", "ENDEE": "RUA JOAQUIM JOSE MENDES PEIXOTO, 215, LOJA 10, CENTRO, 37408-000, SAO TOME DAS LETRAS", "BANCO": "SICOOB", "LINHA_AVAL_NOME": "EMPREENDEDORISMO FEM", "LATITUDE": "-21.7212197", "LONGITUDE": "-44.9851187", "STATUS_OPERACIONAL": "CARTEIRA", "STATUS": "CARTEIRA", "field_14": null, "field_15": null, "field_16": null }, "geometry": { "type": "Point", "coordinates": [ -44.9851187, -21.7212197 ] } },
{ "type": "Feature", "properties": { "NROCNPJ_PAD": "39466252000146", "STATUS_MAILING": "EMPRESA ELEGÍVEL ONLINE SEM SUCESSO NO CONTATO TELEFÔNICO/EMPRESA ELEGÍVEL PRESENCIAL NÃO VISITADA", "NOME_FANTASIA": "POUSADA SERES DA PEDRA", "RAZAO_SOCIAL": "39.466.252 OLIVIA DE CARVALHO CASTRO", "RESPONSAVEL": "OLIVIADECARVALHOCASTRO", "MUNICIPIO": "SAO THOME DAS LETRAS", "ENDEE": "RUA EMILIO TEODORO DA SILVA, 60, CENTRO, 37408-000, SAO TOME DAS LETRAS", "BANCO": "SICOOB", "LINHA_AVAL_NOME": "EMPREENDEDORISMO FEM", "LATITUDE": "-21.7212516", "LONGITUDE": "-44.9838297", "STATUS_OPERACIONAL": "CARTEIRA", "STATUS": "CARTEIRA", "field_14": null, "field_15": null, "field_16": null }, "geometry": { "type": "Point", "coordinates": [ -44.9838297, -21.7212516 ] } },
{ "type": "Feature", "properties": { "NROCNPJ_PAD": "23481333000185", "STATUS_MAILING": "EMPRESA ELEGÍVEL ONLINE SEM SUCESSO NO CONTATO TELEFÔNICO/EMPRESA ELEGÍVEL PRESENCIAL NÃO VISITADA", "NOME_FANTASIA": "-", "RAZAO_SOCIAL": "23.481.333 JULIANO NORONHA LEITE", "RESPONSAVEL": "JULIANONORONHALEITE", "MUNICIPIO": "SAO THOME DAS LETRAS", "ENDEE": "RUA JOAO BATISTA NEVES, 510, CENTRO, 37408-000, SAO TOME DAS LETRAS", "BANCO": "SICOOB", "LINHA_AVAL_NOME": "GIRO", "LATITUDE": "-21.7214714", "LONGITUDE": "-44.9823254", "STATUS_OPERACIONAL": "CARTEIRA", "STATUS": "CARTEIRA", "field_14": null, "field_15": null, "field_16": null }, "geometry": { "type": "Point", "coordinates": [ -44.9823254, -21.7214714 ] } },
{ "type": "Feature", "properties": { "NROCNPJ_PAD": "19959132000173", "STATUS_MAILING": "EMPRESA ELEGÍVEL ONLINE SEM SUCESSO NO CONTATO TELEFÔNICO/EMPRESA ELEGÍVEL PRESENCIAL NÃO VISITADA", "NOME_FANTASIA": "PATROAS NA CHAPA", "RAZAO_SOCIAL": "19.959.132 KEILA ALVES BATISTA VIEIRA", "RESPONSAVEL": "KEILAALVESBATISTAVIEIRA", "MUNICIPIO": "SAO THOME DAS LETRAS", "ENDEE": "RUA CAP PLINIO PEDRO MARTINS, 58, CENTRO, 37408-000, SAO TOME DAS LETRAS", "BANCO": "SICOOB", "LINHA_AVAL_NOME": "EMPREENDEDORISMO FEM", "LATITUDE": "-21.7215289", "LONGITUDE": "-44.984729", "STATUS_OPERACIONAL": "CARTEIRA", "STATUS": "CARTEIRA", "field_14": null, "field_15": null, "field_16": null }, "geometry": { "type": "Point", "coordinates": [ -44.984729, -21.7215289 ] } },
{ "type": "Feature", "properties": { "NROCNPJ_PAD": "44624936000169", "STATUS_MAILING": "EMPRESA ELEGÍVEL ONLINE SEM SUCESSO NO CONTATO TELEFÔNICO/EMPRESA ELEGÍVEL PRESENCIAL NÃO VISITADA", "NOME_FANTASIA": "RJ MATERIAIS DE CONSTRUCAO", "RAZAO_SOCIAL": "RJ MATERIAIS DE CONSTRUCAO E C&A LTDA", "RESPONSAVEL": "JESSICADASILVALEMOS", "MUNICIPIO": "SAO THOME DAS LETRAS", "ENDEE": "SITIO DA PONTINHA , EST SAO THOME A TRES CORACOES KM 7, SN, ZONA RURAL, 37408-000, SAO TOME DAS LETRAS", "BANCO": "SICOOB", "LINHA_AVAL_NOME": "EMPREENDEDORISMO FEM", "LATITUDE": "-21.7233601", "LONGITUDE": "-44.9838104", "STATUS_OPERACIONAL": "CARTEIRA", "STATUS": "CARTEIRA", "field_14": null, "field_15": null, "field_16": null }, "geometry": { "type": "Point", "coordinates": [ -44.9838104, -21.7233601 ] } },
{ "type": "Feature", "properties": { "NROCNPJ_PAD": "53754983000118", "STATUS_MAILING": "EMPRESA ELEGÍVEL ONLINE SEM SUCESSO NO CONTATO TELEFÔNICO/EMPRESA ELEGÍVEL PRESENCIAL NÃO VISITADA", "NOME_FANTASIA": "-", "RAZAO_SOCIAL": "53.754.983 JANE BORTOLOSSI", "RESPONSAVEL": "JANEBORTOLOSSI", "MUNICIPIO": "SAO THOME DAS LETRAS", "ENDEE": "RUA JEFFERSON GONZAGA, 121, CASA A, CENTRO, 37408-000, SAO TOME DAS LETRAS", "BANCO": "SICOOB", "LINHA_AVAL_NOME": "EMPREENDEDORISMO FEM", "LATITUDE": "-21.7239215", "LONGITUDE": "-44.9846163", "STATUS_OPERACIONAL": "CARTEIRA", "STATUS": "CARTEIRA", "field_14": null, "field_15": null, "field_16": null }, "geometry": { "type": "Point", "coordinates": [ -44.9846163, -21.7239215 ] } }
]
}
