{
"type": "FeatureCollection",
"name": "TRES CORACOES",
"crs": { "type": "name", "properties": { "name": "urn:ogc:def:crs:OGC:1.3:CRS84" } },
"xy_coordinate_resolution": 1e-15,
"features": [
{ "type": "Feature", "properties": { "NROCNPJ_PAD": "08730253000122", "NOME_FANTASIA": "GRAO FUTURA", "RAZAO_SOCIAL": "GRAO FUTURA ARMAZENS GERAIS LTDA", "RESPONSAVEL": "JAISASEMBOLONIBITENCOURTRIBEIRO|PAULOSERGIOPEREIRARIBEIRO", "MUNICIPIO": "TRES CORACOES", "ENDEE": "FERNAO DIAS, S/N, DISTRITO INDUSTRIAL, 37418-760, TRES CORACOES, MG, BRASIL", "BANCO": "SICOOB CREDIVAR", "LINHA_AVAL_NOME": "GIRO", "LATITUDE": "-21.6683951", "LONGITUDE": "-45.3246645", "STATUS_OPERACIONAL": "CARTEIRA", "STATUS": "CARTEIRA", "field_13": "CARTEIRA", "field_14": null, "field_15": null }, "geometry": { "type": "Point", "coordinates": [ -45.3246645, -21.6683951 ] } },
{ "type": "Feature", "properties": { "NROCNPJ_PAD": "37104978000103", "NOME_FANTASIA": "IGL TRANSPORTES", "RAZAO_SOCIAL": "IGL TRANSPORTES LTDA", "RESPONSAVEL": "LUCIANOBATISTALEITE|VALKIRIABATISTALEITE", "MUNICIPIO": "TRES CORACOES", "ENDEE": "DAS INDUSTRIAS, S/N, DISTRITO INDUSTRIAL, 37418-762, TRES CORACOES, MG, BRASIL", "BANCO": "SICOOB CREDIVAR", "LINHA_AVAL_NOME": "EMPREENDEDORISMO FEM", "LATITUDE": "-21.6686067", "LONGITUDE": "-45.3253859", "STATUS_OPERACIONAL": "CARTEIRA", "STATUS": "CARTEIRA", "field_13": "CARTEIRA", "field_14": null, "field_15": null }, "geometry": { "type": "Point", "coordinates": [ -45.3253859, -21.6686067 ] } },
{ "type": "Feature", "properties": { "NROCNPJ_PAD": "37806146000139", "NOME_FANTASIA": "A C LOCACOES E EQUIPAMENTOS", "RAZAO_SOCIAL": "A C LOCACOES E EQUIPAMENTOS LTDA", "RESPONSAVEL": "ANDRE PEREIRA OLIVEIRA", "MUNICIPIO": "TRES CORACOES", "ENDEE": "REI PELE, 2415, VILA RICA, 37418-010, TRES CORACOES, MG, BRASIL", "BANCO": "BDMG", "LINHA_AVAL_NOME": "GIRO", "LATITUDE": "-21.6709995", "LONGITUDE": "-45.2724721", "STATUS_OPERACIONAL": "CARTEIRA", "STATUS": "CARTEIRA", "field_13": "CARTEIRA", "field_14": null, "field_15": null }, "geometry": { "type": "Point", "coordinates": [ -45.2724721, -21.6709995 ] } },
{ "type": "Feature", "properties": { "NROCNPJ_PAD": "16985908000131", "NOME_FANTASIA": "CASA DE REPOUSO PAULO DE TARSO", "RAZAO_SOCIAL": "RAFAEL ROSA", "RESPONSAVEL": "RAFAELROSA", "MUNICIPIO": "TRES CORACOES", "ENDEE": "CATAGUASES, 3158, JARDIM UMUARAMA, 37411-042, TRES CORACOES, MG, BRASIL", "BANCO": "SICOOB CREDIVAR", "LINHA_AVAL_NOME": "GIRO", "LATITUDE": "-21.6711269", "LONGITUDE": "-45.2723697", "STATUS_OPERACIONAL": "CARTEIRA", "STATUS": "CARTEIRA", "field_13": "CARTEIRA", "field_14": null, "field_15": null }, "geometry": { "type": "Point", "coordinates": [ -45.2723697, -21.6711269 ] } },
{ "type": "Feature", "properties": { "NROCNPJ_PAD": "05238671000109", "NOME_FANTASIA": "INTER FLEX", "RAZAO_SOCIAL": "INTER FLEX - INTERMEDIACAO DE SERVICOS E NEGOCIOS LTDA", "RESPONSAVEL": "BRUNO CESAR DE CARVALHO", "MUNICIPIO": "TRES CORACOES", "ENDEE": "VEREADOR OTACILIO PEREIRA, 323, JARDIM ELDORADO II, 37410-754, TRES CORACOES, MG, BRASIL", "BANCO": "BDMG", "LINHA_AVAL_NOME": "GIRO", "LATITUDE": "-21.6793821", "LONGITUDE": "-45.262825", "STATUS_OPERACIONAL": "CARTEIRA", "STATUS": "CARTEIRA", "field_13": "CARTEIRA", "field_14": null, "field_15": null }, "geometry": { "type": "Point", "coordinates": [ -45.262825, -21.6793821 ] } },
{ "type": "Feature", "properties": { "NROCNPJ_PAD": "09039582000194", "NOME_FANTASIA": "HS DISTRIBUIDORA DE GAS", "RAZAO_SOCIAL": "HELIO DE SOUZA JUNIOR - CPF 037.031.976-17", "RESPONSAVEL": "HELIO DE SOUZA JUNIOR", "MUNICIPIO": "TRES CORACOES", "ENDEE": "ALZIRA FELICIANA SIQUEIRA, 111, NOVO HORIZONTE, 37410-001, TRES CORACOES, MG, BRASIL", "BANCO": "BDMG", "LINHA_AVAL_NOME": "GIRO", "LATITUDE": "-21.6802031", "LONGITUDE": "-45.2675052", "STATUS_OPERACIONAL": "CARTEIRA", "STATUS": "CARTEIRA", "field_13": "CARTEIRA", "field_14": null, "field_15": null }, "geometry": { "type": "Point", "coordinates": [ -45.2675052, -21.6802031 ] } },
{ "type": "Feature", "properties": { "NROCNPJ_PAD": "42931758000193", "NOME_FANTASIA": "MENEZES MATERIAIS DE CONSTRUCAO E UTILIDADES", "RAZAO_SOCIAL": "CASA MENEZES MATERIAL PARA CONTRUCAO LTDA", "RESPONSAVEL": "PAULOMARCOSBARBOSAMENEZES", "MUNICIPIO": "TRES CORACOES", "ENDEE": "ANTONIO RAPOSO TAVARES, 881, PARQUE BANDEIRANTES, 37417-522, TRES CORACOES, MG, BRASIL", "BANCO": "SICOOB CREDIVAR", "LINHA_AVAL_NOME": "GIRO", "LATITUDE": "-21.6803385", "LONGITUDE": "-45.2709663", "STATUS_OPERACIONAL": "CARTEIRA", "STATUS": "CARTEIRA", "field_13": "CARTEIRA", "field_14": null, "field_15": null }, "geometry": { "type": "Point", "coordinates": [ -45.2709663, -21.6803385 ] } },
{ "type": "Feature", "properties": { "NROCNPJ_PAD": "59319106000103", "NOME_FANTASIA": "MIMI TOYS DIVERSOES", "RAZAO_SOCIAL": "MIMI TOYS DIVERSOES LTDA", "RESPONSAVEL": "MICHELEBOMFIMANDRADEAUGUSTO", "MUNICIPIO": "TRES CORACOES", "ENDEE": "REI PELE, 1060, JARDIM DAS HORTENCIAS, 37410-770, TRES CORACOES, MG, BRASIL", "BANCO": "SICOOB CREDIVAR", "LINHA_AVAL_NOME": "GIRO", "LATITUDE": "-21.6803606", "LONGITUDE": "-45.2661619", "STATUS_OPERACIONAL": "CARTEIRA", "STATUS": "CARTEIRA", "field_13": "CARTEIRA", "field_14": null, "field_15": null }, "geometry": { "type": "Point", "coordinates": [ -45.2661619, -21.6803606 ] } },
{ "type": "Feature", "properties": { "NROCNPJ_PAD": "41211735000141", "NOME_FANTASIA": "PROFITNESS", "RAZAO_SOCIAL": "PROFITNESS LTDA", "RESPONSAVEL": "JENIFFERMARINHOMORAES", "MUNICIPIO": "TRES CORACOES", "ENDEE": "DESEMBARGADOR JOSE ALBERTO WEISS DE ANDRADE, 361, JARDIM ELDORADO II, 37410-734, TRES CORACOES, MG, BRASIL", "BANCO": "SICOOB CREDIVAR", "LINHA_AVAL_NOME": "EMPREENDEDORISMO FEM", "LATITUDE": "-21.6808989", "LONGITUDE": "-45.2624951", "STATUS_OPERACIONAL": "CARTEIRA", "STATUS": "CARTEIRA", "field_13": "CARTEIRA", "field_14": null, "field_15": null }, "geometry": { "type": "Point", "coordinates": [ -45.2624951, -21.6808989 ] } },
{ "type": "Feature", "properties": { "NROCNPJ_PAD": "28892630000137", "NOME_FANTASIA": "DISTRIBUIDORA MIGUELITO JACOMAR", "RAZAO_SOCIAL": "DISTRIBUIDORA MIGUELITO LTDA", "RESPONSAVEL": "LUIZGUSTAVODEOLIVEIRAMARQUES|NELMAREZENDEDEOLIVEIRAMARQUES", "MUNICIPIO": "TRES CORACOES", "ENDEE": "JOSE OLAVO BEZERRA, 491, JARDIM DAS HORTENCIAS, 37410-001, TRES CORACOES, MG, BRASIL", "BANCO": "SICOOB CREDIVAR", "LINHA_AVAL_NOME": "GIRO", "LATITUDE": "-21.682745", "LONGITUDE": "-45.26418", "STATUS_OPERACIONAL": "CARTEIRA", "STATUS": "CARTEIRA", "field_13": "CARTEIRA", "field_14": null, "field_15": null }, "geometry": { "type": "Point", "coordinates": [ -45.26418, -21.682745 ] } },
{ "type": "Feature", "properties": { "NROCNPJ_PAD": "35611025000106", "NOME_FANTASIA": "TRIBO INDIANA", "RAZAO_SOCIAL": "ADRIAN WILLERSON TEIXEIRA 14939595650", "RESPONSAVEL": "ADRIANWILLERSONTEIXEIRA", "MUNICIPIO": "TRES CORACOES", "ENDEE": "CAPITAO ASSIS, 09, ODILON REZENDE ANDRADE, 37412-456, TRES CORACOES, MG, BRASIL", "BANCO": "SICOOB CREDIVAR", "LINHA_AVAL_NOME": "GIRO", "LATITUDE": "-21.6829811", "LONGITUDE": "-45.2481061", "STATUS_OPERACIONAL": "CARTEIRA", "STATUS": "CARTEIRA", "field_13": "CARTEIRA", "field_14": null, "field_15": null }, "geometry": { "type": "Point", "coordinates": [ -45.2481061, -21.6829811 ] } },
{ "type": "Feature", "properties": { "NROCNPJ_PAD": "50580839000114", "NOME_FANTASIA": null, "RAZAO_SOCIAL": "THIAGO GUIMARAES O. SILVA", "RESPONSAVEL": "THIAGOGUIMARAESOLIVEIRASILVA", "MUNICIPIO": "TRES CORACOES", "ENDEE": "JOAO PARANAIBA VILELA, 172, ALTO PERO, 37417-266, TRES CORACOES, MG, BRASIL", "BANCO": "SICOOB CREDIVAR", "LINHA_AVAL_NOME": "GIRO", "LATITUDE": "-21.6861409", "LONGITUDE": "-45.2638842", "STATUS_OPERACIONAL": "CARTEIRA", "STATUS": "CARTEIRA", "field_13": "CARTEIRA", "field_14": null, "field_15": null }, "geometry": { "type": "Point", "coordinates": [ -45.2638842, -21.6861409 ] } },
{ "type": "Feature", "properties": { "NROCNPJ_PAD": "40220898000128", "NOME_FANTASIA": "REABILITARE FONOAUDIOLOGIA E TERAPIA OCUPACIONAL", "RAZAO_SOCIAL": "REABILITARE CLINICA ESPECIALIZADA LTDA", "RESPONSAVEL": "MARIANEDAFONSECAREISPEREIRAPORCARO|PAULAFERNANDESGARCIASZENESZI", "MUNICIPIO": "TRES CORACOES", "ENDEE": "PLINIO BUENO DE PAIVA, 248, ALTO PERO, 37417-250, TRES CORACOES, MG, BRASIL", "BANCO": "SICOOB CREDIVAR", "LINHA_AVAL_NOME": "EMPREENDEDORISMO FEM", "LATITUDE": "-21.687367", "LONGITUDE": "-45.2642059", "STATUS_OPERACIONAL": "CARTEIRA", "STATUS": "CARTEIRA", "field_13": "CARTEIRA", "field_14": null, "field_15": null }, "geometry": { "type": "Point", "coordinates": [ -45.2642059, -21.687367 ] } },
{ "type": "Feature", "properties": { "NROCNPJ_PAD": "38320104000156", "NOME_FANTASIA": null, "RAZAO_SOCIAL": "FRANCISCO RODOLFO ARANTES FERREIRA 06867705600", "RESPONSAVEL": "FRANCISCORODOLFOARANTESFERREIRA", "MUNICIPIO": "TRES CORACOES", "ENDEE": "DAS PAINEIRAS, 160, JARDIM DAS ALTEROSAS, 37413-278, TRES CORACOES, MG, BRASIL", "BANCO": "SICOOB CREDIVAR", "LINHA_AVAL_NOME": "GIRO", "LATITUDE": "-21.6887355", "LONGITUDE": "-45.261466", "STATUS_OPERACIONAL": "CARTEIRA", "STATUS": "CARTEIRA", "field_13": "CARTEIRA", "field_14": null, "field_15": null }, "geometry": { "type": "Point", "coordinates": [ -45.261466, -21.6887355 ] } },
{ "type": "Feature", "properties": { "NROCNPJ_PAD": "24613377000184", "NOME_FANTASIA": "JN CONTABILIDADE", "RAZAO_SOCIAL": "JAQUELINE CRISTINA NEDER NUNES 07245838666", "RESPONSAVEL": "JAQUELINECRISTINANEDERNUNES", "MUNICIPIO": "TRES CORACOES", "ENDEE": "SAO JOAO, 349, VILA JESSE, 37410-360, TRES CORACOES, MG, BRASIL", "BANCO": "SICOOB CREDIVAR", "LINHA_AVAL_NOME": "GIRO", "LATITUDE": "-21.6911278", "LONGITUDE": "-45.2523144", "STATUS_OPERACIONAL": "CARTEIRA", "STATUS": "CARTEIRA", "field_13": "CARTEIRA", "field_14": null, "field_15": null }, "geometry": { "type": "Point", "coordinates": [ -45.2523144, -21.6911278 ] } },
{ "type": "Feature", "properties": { "NROCNPJ_PAD": "21164198000119", "NOME_FANTASIA": "MAX SOUND TUNING", "RAZAO_SOCIAL": "CAIO GADBEN FERREIRA CAETANO - MAX SOUND", "RESPONSAVEL": "CAIOGADBENFERREIRACAETANO", "MUNICIPIO": "TRES CORACOES", "ENDEE": "DEPUTADO RENATO AZEREDO, 367, ALTO PERO, 37410-001, TRES CORACOES, MG, BRASIL", "BANCO": "SICOOB CREDIVAR", "LINHA_AVAL_NOME": "GIRO", "LATITUDE": "-21.6922763", "LONGITUDE": "-45.2590727", "STATUS_OPERACIONAL": "CARTEIRA", "STATUS": "CARTEIRA", "field_13": "CARTEIRA", "field_14": null, "field_15": null }, "geometry": { "type": "Point", "coordinates": [ -45.2590727, -21.6922763 ] } },
{ "type": "Feature", "properties": { "NROCNPJ_PAD": "15182911000154", "NOME_FANTASIA": "MARTELINHO DE OURO", "RAZAO_SOCIAL": "GUILHERME BARBOSA SILVA", "RESPONSAVEL": "GUILHERMEBARBOSASILVA", "MUNICIPIO": "TRES CORACOES", "ENDEE": "DEPUTADO RENATO AZEREDO, 1641, PARQUE BANDEIRANTES, 37410-001, TRES CORACOES, MG, BRASIL", "BANCO": "SICOOB CREDIVAR", "LINHA_AVAL_NOME": "GIRO", "LATITUDE": "-21.6922763", "LONGITUDE": "-45.2590727", "STATUS_OPERACIONAL": "CARTEIRA", "STATUS": "CARTEIRA", "field_13": "CARTEIRA", "field_14": null, "field_15": null }, "geometry": { "type": "Point", "coordinates": [ -45.2590727, -21.6922763 ] } },
{ "type": "Feature", "properties": { "NROCNPJ_PAD": "33054383000130", "NOME_FANTASIA": "TONY PERFUMARIA", "RAZAO_SOCIAL": "MESQUITA PERFUMARIA LTDA", "RESPONSAVEL": "ROBERTAMACHADOVASCONCELOSMESQUITA|SILVIOROMEROMESQUITAJUNIOR", "MUNICIPIO": "TRES CORACOES", "ENDEE": "LUCIANO PEREIRA PENHA, 36, CENTRO, 37410-133, TRES CORACOES, MG, BRASIL", "BANCO": "SICOOB CREDIVAR", "LINHA_AVAL_NOME": "GIRO", "LATITUDE": "-21.6925503", "LONGITUDE": "-45.2516915", "STATUS_OPERACIONAL": "CARTEIRA", "STATUS": "CARTEIRA", "field_13": "CARTEIRA", "field_14": null, "field_15": null }, "geometry": { "type": "Point", "coordinates": [ -45.2516915, -21.6925503 ] } },
{ "type": "Feature", "properties": { "NROCNPJ_PAD": "50489709000170", "NOME_FANTASIA": "RIBEIRO TRANSPORTE", "RAZAO_SOCIAL": "50.489.709 BRENO ROSA RIBEIRO", "RESPONSAVEL": "BRENOROSARIBEIRO", "MUNICIPIO": "TRES CORACOES", "ENDEE": "ANTONIO MUSA, 312, VILA JESSE, 37410-354, TRES CORACOES, MG, BRASIL", "BANCO": "SICOOB CREDIVASS", "LINHA_AVAL_NOME": "GIRO", "LATITUDE": "-21.6928098", "LONGITUDE": "-45.2516152", "STATUS_OPERACIONAL": "CARTEIRA", "STATUS": "CARTEIRA", "field_13": "CARTEIRA", "field_14": null, "field_15": null }, "geometry": { "type": "Point", "coordinates": [ -45.2516152, -21.6928098 ] } },
{ "type": "Feature", "properties": { "NROCNPJ_PAD": "44741457000122", "NOME_FANTASIA": "BAR E LANCHONETE DO PIU PIU", "RAZAO_SOCIAL": "44.741.457 WESLEY HENRIQUE DA SILVA", "RESPONSAVEL": "WESLEYHENRIQUEDASILVA", "MUNICIPIO": "TRES CORACOES", "ENDEE": "MARIA ZITA SCALIONI, 136, NOSSA SENHORA APARECIDA, 37417-406, TRES CORACOES, MG, BRASIL", "BANCO": "SICOOB CREDIVAR", "LINHA_AVAL_NOME": "GIRO", "LATITUDE": "-21.692955", "LONGITUDE": "-45.2567844", "STATUS_OPERACIONAL": "CARTEIRA", "STATUS": "CARTEIRA", "field_13": "CARTEIRA", "field_14": null, "field_15": null }, "geometry": { "type": "Point", "coordinates": [ -45.2567844, -21.692955 ] } },
{ "type": "Feature", "properties": { "NROCNPJ_PAD": "54512191000108", "NOME_FANTASIA": "C C A A", "RAZAO_SOCIAL": "WILLBEE FLUENCY LTDA", "RESPONSAVEL": "LIDIANACATTAPRETAVILELAPARANAIBA", "MUNICIPIO": "TRES CORACOES", "ENDEE": "NOEME REZENDE ANDRADE, 00010, CHACARA DAS ROSAS, 37417-154, TRES CORACOES, MG, BRASIL", "BANCO": "SICOOB CREDIFOR", "LINHA_AVAL_NOME": "EMPREENDEDORISMO FEM", "LATITUDE": "-21.6929666", "LONGITUDE": "-45.2605267", "STATUS_OPERACIONAL": "CARTEIRA", "STATUS": "CARTEIRA", "field_13": "CARTEIRA", "field_14": null, "field_15": null }, "geometry": { "type": "Point", "coordinates": [ -45.2605267, -21.6929666 ] } },
{ "type": "Feature", "properties": { "NROCNPJ_PAD": "27486063000156", "NOME_FANTASIA": "PAPELARIA PAPELAO", "RAZAO_SOCIAL": "SALES E AGOSTINHO LTDA", "RESPONSAVEL": "VALERIACRISTINASALESFERREIRAAGOSTINHO", "MUNICIPIO": "TRES CORACOES", "ENDEE": "DEPUTADO CARLOS LUZ, 228, CENTRO, 37410-001, TRES CORACOES, MG, BRASIL", "BANCO": "SICOOB CREDIVAR", "LINHA_AVAL_NOME": "EMPREENDEDORISMO FEM", "LATITUDE": "-21.6933714", "LONGITUDE": "-45.2587019", "STATUS_OPERACIONAL": "CARTEIRA", "STATUS": "CARTEIRA", "field_13": "CARTEIRA", "field_14": null, "field_15": null }, "geometry": { "type": "Point", "coordinates": [ -45.2587019, -21.6933714 ] } },
{ "type": "Feature", "properties": { "NROCNPJ_PAD": "12939523000187", "NOME_FANTASIA": "ARMAZEM DA RACAO", "RAZAO_SOCIAL": "LUCIANO SANCHES OLIVEIRA", "RESPONSAVEL": "LUCIANOSANCHESOLIVEIRA", "MUNICIPIO": "TRES CORACOES", "ENDEE": "JOSE CAPISTRANO DE SOUZA, 97, BOA VENTURA, 37412-090, TRES CORACOES, MG, BRASIL", "BANCO": "SICOOB CREDIVAR", "LINHA_AVAL_NOME": "GIRO", "LATITUDE": "-21.6933859", "LONGITUDE": "-45.2490713", "STATUS_OPERACIONAL": "CARTEIRA", "STATUS": "CARTEIRA", "field_13": "CARTEIRA", "field_14": null, "field_15": null }, "geometry": { "type": "Point", "coordinates": [ -45.2490713, -21.6933859 ] } },
{ "type": "Feature", "properties": { "NROCNPJ_PAD": "50063936000130", "NOME_FANTASIA": "PADARIA E CONFEITARIA REALEZA", "RAZAO_SOCIAL": "PADARIA E CONFEITARIA REALEZA LTDA", "RESPONSAVEL": "LUCASPEREIRADEMELO", "MUNICIPIO": "TRES CORACOES", "ENDEE": "SAO JOAO, 96, VILA JESSE, 37410-360, TRES CORACOES, MG, BRASIL", "BANCO": "SICOOB CREDIVAR", "LINHA_AVAL_NOME": "GIRO", "LATITUDE": "-21.6935202", "LONGITUDE": "-45.252604", "STATUS_OPERACIONAL": "CARTEIRA", "STATUS": "CARTEIRA", "field_13": "CARTEIRA", "field_14": null, "field_15": null }, "geometry": { "type": "Point", "coordinates": [ -45.252604, -21.6935202 ] } },
{ "type": "Feature", "properties": { "NROCNPJ_PAD": "32704925000100", "NOME_FANTASIA": null, "RAZAO_SOCIAL": "DIAMANTE PRODUTOS DE LIMPEZA E PISCINA LTDA", "RESPONSAVEL": "-", "MUNICIPIO": "TRES CORACOES", "ENDEE": "DOUTOR JOSE ALVES PEREIRA, 184, CENTRO, 37410-045, TRES CORACOES, MG, BRASIL", "BANCO": "-", "LINHA_AVAL_NOME": "-", "LATITUDE": "-21.6943691", "LONGITUDE": "-45.2531515", "STATUS_OPERACIONAL": "CARTEIRA", "STATUS": "CARTEIRA", "field_13": "CARTEIRA", "field_14": null, "field_15": null }, "geometry": { "type": "Point", "coordinates": [ -45.2531515, -21.6943691 ] } },
{ "type": "Feature", "properties": { "NROCNPJ_PAD": "37256751000183", "NOME_FANTASIA": "FIT BRASIL", "RAZAO_SOCIAL": "FIT BRASIL LTDA", "RESPONSAVEL": "THALITAGUIMARAESOLIVEIRASILVA", "MUNICIPIO": "TRES CORACOES", "ENDEE": "CASTELO BRANCO, 366, CHACARA DAS ROSAS, 37417-150, TRES CORACOES, MG, BRASIL", "BANCO": "SICOOB CREDIVAR", "LINHA_AVAL_NOME": "EMPREENDEDORISMO FEM", "LATITUDE": "-21.694578", "LONGITUDE": "-45.2621467", "STATUS_OPERACIONAL": "CARTEIRA", "STATUS": "CARTEIRA", "field_13": "CARTEIRA", "field_14": null, "field_15": null }, "geometry": { "type": "Point", "coordinates": [ -45.2621467, -21.694578 ] } },
{ "type": "Feature", "properties": { "NROCNPJ_PAD": "05420192000109", "NOME_FANTASIA": "DOCES E SALGADOS VO IRENE", "RAZAO_SOCIAL": "VO IRENE DOCES E SALGADOS LTDA", "RESPONSAVEL": "ELCENIRA CORREA LEAO", "MUNICIPIO": "TRES CORACOES", "ENDEE": "PADRE JOSE BUENO, 95, CENTRO, 37410-105, TRES CORACOES, MG, BRASIL", "BANCO": "ESTÍMULO FUNDO DE INVESTIMENTO", "LINHA_AVAL_NOME": "INVESTIMENTO + GIRO", "LATITUDE": "-21.6949712", "LONGITUDE": "-45.2535787", "STATUS_OPERACIONAL": "CARTEIRA", "STATUS": "CARTEIRA", "field_13": "CARTEIRA", "field_14": null, "field_15": null }, "geometry": { "type": "Point", "coordinates": [ -45.2535787, -21.6949712 ] } },
{ "type": "Feature", "properties": { "NROCNPJ_PAD": "42240916000169", "NOME_FANTASIA": "ESPACO CRISTINA VALERIO", "RAZAO_SOCIAL": "ESPACO FLORESCER CRISTINA VALERIO LTDA", "RESPONSAVEL": "CRISTINAAPARECIDAVALERIO", "MUNICIPIO": "TRES CORACOES", "ENDEE": "SAMUEL BRASIL, 39, VILA AMORELLI, 37410-406, TRES CORACOES, MG, BRASIL", "BANCO": "SICOOB CREDIVAR", "LINHA_AVAL_NOME": "EMPREENDEDORISMO FEM", "LATITUDE": "-21.6950992", "LONGITUDE": "-45.2549307", "STATUS_OPERACIONAL": "CARTEIRA", "STATUS": "CARTEIRA", "field_13": "CARTEIRA", "field_14": null, "field_15": null }, "geometry": { "type": "Point", "coordinates": [ -45.2549307, -21.6950992 ] } },
{ "type": "Feature", "properties": { "NROCNPJ_PAD": "16537939000120", "NOME_FANTASIA": null, "RAZAO_SOCIAL": "16.537.939 LEONARDO MAGALHAES TEIXEIRA", "RESPONSAVEL": "LEONARDOMAGALHAESTEIXEIRA", "MUNICIPIO": "TRES CORACOES", "ENDEE": "ORLANDO REZENDE ANDRADE, 1056, JARDIM PLANALTO, 37410-001, TRES CORACOES, MG, BRASIL", "BANCO": "SICOOB CREDIVAR", "LINHA_AVAL_NOME": "GIRO", "LATITUDE": "-21.695496", "LONGITUDE": "-45.2449586", "STATUS_OPERACIONAL": "CARTEIRA", "STATUS": "CARTEIRA", "field_13": "CARTEIRA", "field_14": null, "field_15": null }, "geometry": { "type": "Point", "coordinates": [ -45.2449586, -21.695496 ] } },
{ "type": "Feature", "properties": { "NROCNPJ_PAD": "43002288000146", "NOME_FANTASIA": null, "RAZAO_SOCIAL": "MG IMOVEIS TRES CORACOES LTDA", "RESPONSAVEL": "MARIA GROSSI LEMES", "MUNICIPIO": "TRES CORACOES", "ENDEE": "EDSON ARANTES DO NASCIMENTO, 410, CENTRO, 37410-019, TRES CORACOES, MG, BRASIL", "BANCO": "ESTÍMULO FUNDO DE INVESTIMENTO", "LINHA_AVAL_NOME": "INVESTIMENTO + GIRO", "LATITUDE": "-21.6957224", "LONGITUDE": "-45.2585058", "STATUS_OPERACIONAL": "CARTEIRA", "STATUS": "CARTEIRA", "field_13": "CARTEIRA", "field_14": null, "field_15": null }, "geometry": { "type": "Point", "coordinates": [ -45.2585058, -21.6957224 ] } },
{ "type": "Feature", "properties": { "NROCNPJ_PAD": "30737323000123", "NOME_FANTASIA": "CIRURGICA NC ORTOCENTER", "RAZAO_SOCIAL": "ERICA M DO NASCIMENTO", "RESPONSAVEL": "ERICAMARIADONASCIMENTO", "MUNICIPIO": "TRES CORACOES", "ENDEE": "DESEMBARGADOR ALBERTO LUZ, 214, CENTRO, 37410-001, TRES CORACOES, MG, BRASIL", "BANCO": "SICOOB CREDIVAR", "LINHA_AVAL_NOME": "EMPREENDEDORISMO FEM", "LATITUDE": "-21.6962897", "LONGITUDE": "-45.2560856", "STATUS_OPERACIONAL": "CARTEIRA", "STATUS": "CARTEIRA", "field_13": "CARTEIRA", "field_14": null, "field_15": null }, "geometry": { "type": "Point", "coordinates": [ -45.2560856, -21.6962897 ] } },
{ "type": "Feature", "properties": { "NROCNPJ_PAD": "22961568000101", "NOME_FANTASIA": "INQUERITO BOUTIQUE", "RAZAO_SOCIAL": "LILIAN KATRINCK PEREIRA 07156862677", "RESPONSAVEL": "LILIANKATRINCKPEREIRA", "MUNICIPIO": "TRES CORACOES", "ENDEE": "PRESIDENTE DUTRA, 73, CENTRO, 37410-001, TRES CORACOES, MG, BRASIL", "BANCO": "SICOOB CREDIVAR", "LINHA_AVAL_NOME": "EMPREENDEDORISMO FEM", "LATITUDE": "-21.6966826", "LONGITUDE": "-45.2566", "STATUS_OPERACIONAL": "CARTEIRA", "STATUS": "CARTEIRA", "field_13": "CARTEIRA", "field_14": null, "field_15": null }, "geometry": { "type": "Point", "coordinates": [ -45.2566, -21.6966826 ] } },
{ "type": "Feature", "properties": { "NROCNPJ_PAD": "06047985000197", "NOME_FANTASIA": null, "RAZAO_SOCIAL": "MAURO TRATORES E MAQUINAS AGRICOLAS LTDA", "RESPONSAVEL": "MAURO MIRANDA BOTREL|NICOLE FERREIRA BOTREL", "MUNICIPIO": "TRES CORACOES", "ENDEE": "GENERAL MANGARINOS, 15, JARDIM TROPICAL, 37418-140, TRES CORACOES, MG, BRASIL", "BANCO": "BDMG", "LINHA_AVAL_NOME": "GIRO", "LATITUDE": "-21.6973293", "LONGITUDE": "-45.2562592", "STATUS_OPERACIONAL": "CARTEIRA", "STATUS": "CARTEIRA", "field_13": "CARTEIRA", "field_14": null, "field_15": null }, "geometry": { "type": "Point", "coordinates": [ -45.2562592, -21.6973293 ] } },
{ "type": "Feature", "properties": { "NROCNPJ_PAD": "40179275000159", "NOME_FANTASIA": "MARCIO AVELAR BARONE", "RAZAO_SOCIAL": "MARCIO AVELAR BARONE", "RESPONSAVEL": "MARCIOAVELARBARONE", "MUNICIPIO": "TRES CORACOES", "ENDEE": "PRESIDENTE GETULIO VARGAS, 314, CENTRO, 37410-137, TRES CORACOES, MG, BRASIL", "BANCO": "SICOOB CREDIVAR", "LINHA_AVAL_NOME": "GIRO", "LATITUDE": "-21.698895", "LONGITUDE": "-45.2556079", "STATUS_OPERACIONAL": "CARTEIRA", "STATUS": "CARTEIRA", "field_13": "CARTEIRA", "field_14": null, "field_15": null }, "geometry": { "type": "Point", "coordinates": [ -45.2556079, -21.698895 ] } },
{ "type": "Feature", "properties": { "NROCNPJ_PAD": "02976697000166", "NOME_FANTASIA": "PALACIO MODAS", "RAZAO_SOCIAL": "CRISTINA MARIA DUARTE MASSAHUD", "RESPONSAVEL": "CRISTINA MARIA DUARTE MASSAHUD", "MUNICIPIO": "TRES CORACOES", "ENDEE": "GETULIO VARGAS, 100, CENTRO, 37410-001, TRES CORACOES, MG, BRASIL", "BANCO": "BDMG", "LINHA_AVAL_NOME": "GIRO", "LATITUDE": "-21.6991327", "LONGITUDE": "-45.2576511", "STATUS_OPERACIONAL": "CARTEIRA", "STATUS": "CARTEIRA", "field_13": "CARTEIRA", "field_14": null, "field_15": null }, "geometry": { "type": "Point", "coordinates": [ -45.2576511, -21.6991327 ] } },
{ "type": "Feature", "properties": { "NROCNPJ_PAD": "60951211000131", "NOME_FANTASIA": "KASABAR", "RAZAO_SOCIAL": "JUSCELAINE APARECIDA LAGE CRUZ MERCEARIA", "RESPONSAVEL": "JUSCELAINEAPARECIDALAGECRUZ", "MUNICIPIO": "TRES CORACOES", "ENDEE": "SAGRADA FAMILIA, 542, JARDIM SANTA TEREZA, 37410-236, TRES CORACOES, MG, BRASIL", "BANCO": "SICOOB CREDIVAR", "LINHA_AVAL_NOME": "GIRO", "LATITUDE": "-21.7038384", "LONGITUDE": "-45.2507291", "STATUS_OPERACIONAL": "CARTEIRA", "STATUS": "CARTEIRA", "field_13": "CARTEIRA", "field_14": null, "field_15": null }, "geometry": { "type": "Point", "coordinates": [ -45.2507291, -21.7038384 ] } },
{ "type": "Feature", "properties": { "NROCNPJ_PAD": "57882055000190", "NOME_FANTASIA": null, "RAZAO_SOCIAL": "57.882.055 MARIA PAULA MOTA FONSECA REIS", "RESPONSAVEL": "MARIAPAULAMOTAFONSECAREIS", "MUNICIPIO": "TRES CORACOES", "ENDEE": "ADELINO DE OLIVEIRA VERDIGUEIRO, 1385, RESIDENCIAL DHARMA, 37415-050, TRES CORACOES, MG, BRASIL", "BANCO": "SICOOB CREDIVAR", "LINHA_AVAL_NOME": "GIRO", "LATITUDE": "-21.7101102", "LONGITUDE": "-45.2581379", "STATUS_OPERACIONAL": "CARTEIRA", "STATUS": "CARTEIRA", "field_13": "CARTEIRA", "field_14": null, "field_15": null }, "geometry": { "type": "Point", "coordinates": [ -45.2581379, -21.7101102 ] } },
{ "type": "Feature", "properties": { "NROCNPJ_PAD": "24889510000120", "NOME_FANTASIA": "SCAP CENTRO AUTOMOTIVO", "RAZAO_SOCIAL": "SILVANO CENTRO AUTOMOTIVO LTDA", "RESPONSAVEL": "ANDREFILIPEGAZOTI|CLAUDIADASILVAGIRARDIGAZOTI|OSMAR SAMPAIO GIRARDI FILHO", "MUNICIPIO": "TRES CORACOES", "ENDEE": "ADELINO DE OLIVEIRA VERDIGUEIRO, 1355, RESIDENCIAL DHARMA, 37415-050, TRES CORACOES, MG, BRASIL", "BANCO": "SICOOB CREDIVAR", "LINHA_AVAL_NOME": "EMPREENDEDORISMO FEM", "LATITUDE": "-21.7102329", "LONGITUDE": "-45.257832", "STATUS_OPERACIONAL": "CARTEIRA", "STATUS": "CARTEIRA", "field_13": "CARTEIRA", "field_14": null, "field_15": null }, "geometry": { "type": "Point", "coordinates": [ -45.257832, -21.7102329 ] } },
{ "type": "Feature", "properties": { "NROCNPJ_PAD": "39741781000100", "NOME_FANTASIA": "TR RIBAS", "RAZAO_SOCIAL": "TR RIBAS LTDA", "RESPONSAVEL": "ERNANITEIXEIRARIBAS", "MUNICIPIO": "TRES CORACOES", "ENDEE": "NICOLAU ABDALLA, 400, MORADA DO LAGO, 37414-704, TRES CORACOES, MG, BRASIL", "BANCO": "SICOOB CREDIVAR", "LINHA_AVAL_NOME": "GIRO", "LATITUDE": "-21.7104478", "LONGITUDE": "-45.2473661", "STATUS_OPERACIONAL": "CARTEIRA", "STATUS": "CARTEIRA", "field_13": "CARTEIRA", "field_14": null, "field_15": null }, "geometry": { "type": "Point", "coordinates": [ -45.2473661, -21.7104478 ] } },
{ "type": "Feature", "properties": { "NROCNPJ_PAD": "51410233000101", "NOME_FANTASIA": "JDLC SINALIZACAO", "RAZAO_SOCIAL": "51.410.233 JEDER FIRMINO DIAS", "RESPONSAVEL": "JEDER FIRMINO DIAS", "MUNICIPIO": "TRES CORACOES", "ENDEE": "QUATRO, 42, NOVA ALIANCA, 37414-208, TRES CORACOES, MG, BRASIL", "BANCO": "BDMG", "LINHA_AVAL_NOME": "GIRO", "LATITUDE": "-21.7108915", "LONGITUDE": "-45.2737466", "STATUS_OPERACIONAL": "CARTEIRA", "STATUS": "CARTEIRA", "field_13": "CARTEIRA", "field_14": null, "field_15": null }, "geometry": { "type": "Point", "coordinates": [ -45.2737466, -21.7108915 ] } },
{ "type": "Feature", "properties": { "NROCNPJ_PAD": "11570360000145", "NOME_FANTASIA": "TENDENCIA & MODA", "RAZAO_SOCIAL": "PAULA CRISTINA COSTA 04974864661", "RESPONSAVEL": "PAULACRISTINACOSTA", "MUNICIPIO": "TRES CORACOES", "ENDEE": "DA SERENIDADE, 55, SANTO AFONSO, 37416-064, TRES CORACOES, MG, BRASIL", "BANCO": "SICOOB CREDIVAR", "LINHA_AVAL_NOME": "EMPREENDEDORISMO FEM", "LATITUDE": "-21.7127842", "LONGITUDE": "-45.2654384", "STATUS_OPERACIONAL": "CARTEIRA", "STATUS": "CARTEIRA", "field_13": "CARTEIRA", "field_14": null, "field_15": null }, "geometry": { "type": "Point", "coordinates": [ -45.2654384, -21.7127842 ] } },
{ "type": "Feature", "properties": { "NROCNPJ_PAD": "14238821000175", "NOME_FANTASIA": null, "RAZAO_SOCIAL": "PADARIA PARAISO LTDA", "RESPONSAVEL": "ADRIELI VALERIA PAIVA WELTER|CARLOS EDUARDO WELTER|JOSE VALERIO DE PAIVA", "MUNICIPIO": "TRES CORACOES", "ENDEE": "CABO BENEDITO ALVES, 2895, COTIA, 37410-001, TRES CORACOES, MG, BRASIL", "BANCO": "BDMG", "LINHA_AVAL_NOME": "GIRO", "LATITUDE": "-21.7216739", "LONGITUDE": "-45.2622423", "STATUS_OPERACIONAL": "CARTEIRA", "STATUS": "CARTEIRA", "field_13": "CARTEIRA", "field_14": null, "field_15": null }, "geometry": { "type": "Point", "coordinates": [ -45.2622423, -21.7216739 ] } },
{ "type": "Feature", "properties": { "NROCNPJ_PAD": "53270742000101", "NOME_FANTASIA": null, "RAZAO_SOCIAL": "53.270.742 JULIO CESAR BORGES ROSA", "RESPONSAVEL": "JULIOCESARBORGESROSA", "MUNICIPIO": "TRES CORACOES", "ENDEE": "DA SERENIDADE, 277, PARQUE DAS COLINAS, 37416-128, TRES CORACOES, MG, BRASIL", "BANCO": "SICOOB CREDIVAR", "LINHA_AVAL_NOME": "GIRO", "LATITUDE": "-21.7263328", "LONGITUDE": "-45.266303", "STATUS_OPERACIONAL": "CARTEIRA", "STATUS": "CARTEIRA", "field_13": "CARTEIRA", "field_14": null, "field_15": null }, "geometry": { "type": "Point", "coordinates": [ -45.266303, -21.7263328 ] } }
]
}
