{
"type": "FeatureCollection",
"name": "uba",
"crs": { "type": "name", "properties": { "name": "urn:ogc:def:crs:OGC:1.3:CRS84" } },
"features": [
{ "type": "Feature", "properties": { "NROCNPJ_PAD": "36451304000112", "NOME_FANTASIA": "ARROBA CARNES", "RAZAO_SOCIAL": "ARROBA CARNES LTDA", "RESPONSAVEL": "JESSICA LIMA SIMAO", "MUNICIPIO": "UBA", "ENDEE": "AVENIDA MARTA NASCIMENTO JABOUR, 157, LOJA B, ANTONIO MARANHAO, 36506-151, UBÁ, MG, BRASIL", "BANCO": "BDMG", "LINHA_AVAL_NOME": "Crédito emergencial", "LATITUDE": "-21.1018734", "LONGITUDE": "-42.9661216", "STATUS_OPERACIONAL": "CARTEIRA", "STATUS": "CARTEIRA" }, "geometry": { "type": "Point", "coordinates": [ -42.9661216, -21.1018734 ] } },
{ "type": "Feature", "properties": { "NROCNPJ_PAD": "02411952000123", "NOME_FANTASIA": "-", "RAZAO_SOCIAL": "IMPERIO JOMARCI INDUSTRIA E COMERCIO LTDA", "RESPONSAVEL": "ALESSANDRAMARINARODRIGUESLAUREANO|ROMARIOGONCALVESMEDEIROS", "MUNICIPIO": "UBA", "ENDEE": "AVENIDA JESUS BRANDAO, 121, SAN RAPHAEL I, 36507-180, UBÁ, MG, BRASIL", "BANCO": "SICOOB", "LINHA_AVAL_NOME": "Crédito emergencial", "LATITUDE": "-21.1116797", "LONGITUDE": "-42.9567", "STATUS_OPERACIONAL": "CARTEIRA", "STATUS": "CARTEIRA" }, "geometry": { "type": "Point", "coordinates": [ -42.9567, -21.1116797 ] } },
{ "type": "Feature", "properties": { "NROCNPJ_PAD": "49114840000174", "NOME_FANTASIA": "LUIZCAR AUTOMOVEIS", "RAZAO_SOCIAL": "LUIZCAR AUTOMOVEIS LTDA", "RESPONSAVEL": "LUIZBATISTADASILVAJUNIOR", "MUNICIPIO": "UBA", "ENDEE": "RUA VIRGINIA BRANDAO, 197, SANTA LUZIA, 36506-006, UBÁ, MG, BRASIL", "BANCO": "SICOOB", "LINHA_AVAL_NOME": "Giro", "LATITUDE": "-21.1142055", "LONGITUDE": "-42.9565245", "STATUS_OPERACIONAL": "CARTEIRA", "STATUS": "CARTEIRA" }, "geometry": { "type": "Point", "coordinates": [ -42.9565245, -21.1142055 ] } },
{ "type": "Feature", "properties": { "NROCNPJ_PAD": "64299456000187", "NOME_FANTASIA": "-", "RAZAO_SOCIAL": "MARKEN FASSI TAPECARIA LTDA", "RESPONSAVEL": "ANA CLARA ALVARES OLIVEIRA GIRARDI", "MUNICIPIO": "UBA", "ENDEE": "PRACA DA INDEPENDENCIA, 473, B, CENTRO, 36500-001, UBÁ, MG, BRASIL", "BANCO": "BDMG", "LINHA_AVAL_NOME": "Crédito emergencial", "LATITUDE": "-21.1204033", "LONGITUDE": "-42.9394576", "STATUS_OPERACIONAL": "CARTEIRA", "STATUS": "CARTEIRA" }, "geometry": { "type": "Point", "coordinates": [ -42.9394576, -21.1204033 ] } },
{ "type": "Feature", "properties": { "NROCNPJ_PAD": "20240612000169", "NOME_FANTASIA": "-", "RAZAO_SOCIAL": "MARCELA BIAGGI TEIXEIRA DE OLIVEIRA 11662925689", "RESPONSAVEL": "MARCELABIAGGITEIXEIRADEOLIVEIRA", "MUNICIPIO": "UBA", "ENDEE": "RUA DO ROSARIO, 20, LOJA 01, CENTRO, 36500-030, UBÁ, MG, BRASIL", "BANCO": "SICOOB", "LINHA_AVAL_NOME": "Crédito emergencial", "LATITUDE": "-21.1206979", "LONGITUDE": "-42.9387407", "STATUS_OPERACIONAL": "CARTEIRA", "STATUS": "CARTEIRA" }, "geometry": { "type": "Point", "coordinates": [ -42.9387407, -21.1206979 ] } },
{ "type": "Feature", "properties": { "NROCNPJ_PAD": "34423048000124", "NOME_FANTASIA": "VIBRATO", "RAZAO_SOCIAL": "MATHEUS LOUSADA SILVA", "RESPONSAVEL": "MATHEUSLOUSADASILVA", "MUNICIPIO": "UBA", "ENDEE": "RUA JERONIMO SALGADO, 63, LETRA A, CENTRO, 36500-013, UBÁ, MG, BRASIL", "BANCO": "SICOOB", "LINHA_AVAL_NOME": "Crédito emergencial", "LATITUDE": "-21.1208762", "LONGITUDE": "-42.9376194", "STATUS_OPERACIONAL": "CARTEIRA", "STATUS": "CARTEIRA" }, "geometry": { "type": "Point", "coordinates": [ -42.9376194, -21.1208762 ] } },
{ "type": "Feature", "properties": { "NROCNPJ_PAD": "33402011000157", "NOME_FANTASIA": "HAIR - MAKE UP ALERRANDRO MARTINS", "RAZAO_SOCIAL": "33.402.011 ALERRANDRO MARTINS SOARES", "RESPONSAVEL": "ALERRANDROMARTINSSOARES", "MUNICIPIO": "UBA", "ENDEE": "RUA JOAO HILARIO NETO, 95, TERREO, OSEAS MARANHAO, 36506-132, UBÁ, MG, BRASIL", "BANCO": "SICOOB", "LINHA_AVAL_NOME": "Giro", "LATITUDE": "-21.1036932", "LONGITUDE": "-42.9663171", "STATUS_OPERACIONAL": "CARTEIRA", "STATUS": "CARTEIRA" }, "geometry": { "type": "Point", "coordinates": [ -42.9663171, -21.1036932 ] } },
{ "type": "Feature", "properties": { "NROCNPJ_PAD": "36393929000175", "NOME_FANTASIA": "-", "RAZAO_SOCIAL": "JSOLAR INSTALACOES ELETRICAS LTDA", "RESPONSAVEL": "JEFERSON JUNIO PADOVANI", "MUNICIPIO": "UBA", "ENDEE": "RUA DICO TEIXEIRA, 801, LOJA 01, DICO TEIXEIRA, 36506-070, UBÁ, MG, BRASIL", "BANCO": "BDMG", "LINHA_AVAL_NOME": "Giro", "LATITUDE": "-21.1048844", "LONGITUDE": "-42.9610559", "STATUS_OPERACIONAL": "CARTEIRA", "STATUS": "CARTEIRA" }, "geometry": { "type": "Point", "coordinates": [ -42.9610559, -21.1048844 ] } },
{ "type": "Feature", "properties": { "NROCNPJ_PAD": "35572513000151", "NOME_FANTASIA": "ALVIM AMARAL ELETRICA E REFRIGERACAO", "RAZAO_SOCIAL": "35.572.513 ALVARO AMARAL DIAS DE ARRUDA", "RESPONSAVEL": "ALVAROAMARALDIASDEARRUDA", "MUNICIPIO": "UBA", "ENDEE": "AVENIDA QUINTINO POGGIALI, 90, LOJA B, WALDEMAR DE CASTRO, 36505-146, UBÁ, MG, BRASIL", "BANCO": "SICOOB", "LINHA_AVAL_NOME": "Crédito emergencial", "LATITUDE": "-21.1067219", "LONGITUDE": "-42.9531523", "STATUS_OPERACIONAL": "CARTEIRA", "STATUS": "CARTEIRA" }, "geometry": { "type": "Point", "coordinates": [ -42.9531523, -21.1067219 ] } },
{ "type": "Feature", "properties": { "NROCNPJ_PAD": "46887285000125", "NOME_FANTASIA": "LARA SOUZA STUDIO BEAUTY", "RAZAO_SOCIAL": "LARA DE SOUZA MEIRELES 14799645650", "RESPONSAVEL": "LARADESOUZAMEIRELES", "MUNICIPIO": "UBA", "ENDEE": "AVENIDA JESUS BRANDAO, 170, LOJA LOJA, SAN RAPHAEL II, 36507-190, UBÁ, MG, BRASIL", "BANCO": "SICOOB", "LINHA_AVAL_NOME": "Crédito emergencial", "LATITUDE": "-21.1118242", "LONGITUDE": "-42.9573919", "STATUS_OPERACIONAL": "CARTEIRA", "STATUS": "CARTEIRA" }, "geometry": { "type": "Point", "coordinates": [ -42.9573919, -21.1118242 ] } },
{ "type": "Feature", "properties": { "NROCNPJ_PAD": "16703066000188", "NOME_FANTASIA": "-", "RAZAO_SOCIAL": "GLAUCIO CONTIN LISBOA 04273476614", "RESPONSAVEL": "GLAUCIO CONTIN LISBOA", "MUNICIPIO": "UBA", "ENDEE": "RUA DOUTOR AGOSTINHO MARTINS DE OLIVEIRA, 61, TERREO., GALDINO ALVIM, 36500-164, UBÁ, MG, BRASIL", "BANCO": "BDMG", "LINHA_AVAL_NOME": "Crédito emergencial", "LATITUDE": "-21.1154356", "LONGITUDE": "-42.9457808", "STATUS_OPERACIONAL": "CARTEIRA", "STATUS": "CARTEIRA" }, "geometry": { "type": "Point", "coordinates": [ -42.9457808, -21.1154356 ] } },
{ "type": "Feature", "properties": { "NROCNPJ_PAD": "54637807000169", "NOME_FANTASIA": "ABREU NUNES MEDICINA", "RAZAO_SOCIAL": "ABREU NUNES MEDICINA LTDA", "RESPONSAVEL": "RAFAELADEABREUPINTO|VICTORHUGONUNESBARROS", "MUNICIPIO": "UBA", "ENDEE": "RUA FARMACEUTICO MARIO DE AZEVEDO, 340, JARDIM GLORIA, 36500-142, UBÁ, MG, BRASIL", "BANCO": "SICOOB", "LINHA_AVAL_NOME": "Crédito emergencial", "LATITUDE": "-21.1158476", "LONGITUDE": "-42.9457661", "STATUS_OPERACIONAL": "CARTEIRA", "STATUS": "CARTEIRA" }, "geometry": { "type": "Point", "coordinates": [ -42.9457661, -21.1158476 ] } },
{ "type": "Feature", "properties": { "NROCNPJ_PAD": "14503487000130", "NOME_FANTASIA": "GRUPO LEGALIZAR CONSULTORIA", "RAZAO_SOCIAL": "LEGALIZAR CONSULTORIA AMBIENTAL, PROJETOS DE ENGENHARIA, ESG E SUSTENTABILIDADE LTDA", "RESPONSAVEL": "CAROLINEDEPAULABALBINO|IRONILDADEPAULA", "MUNICIPIO": "UBA", "ENDEE": "AVENIDA ARY BARROSO, 262, JARDIM GLORIA, 36500-144, UBÁ, MG, BRASIL", "BANCO": "SICOOB", "LINHA_AVAL_NOME": "Giro", "LATITUDE": "-21.116221", "LONGITUDE": "-42.943725", "STATUS_OPERACIONAL": "CARTEIRA", "STATUS": "CARTEIRA" }, "geometry": { "type": "Point", "coordinates": [ -42.943725, -21.116221 ] } },
{ "type": "Feature", "properties": { "NROCNPJ_PAD": "16626199000106", "NOME_FANTASIA": "KI DELICIA", "RAZAO_SOCIAL": "ALAIR DE OLIVEIRA 52771008653", "RESPONSAVEL": "ALAIRDEOLIVEIRA|MARILDAAPARECIDAPEREZINI", "MUNICIPIO": "UBA", "ENDEE": "RUA CORONEL OTAVIANO DA ROCHA, 40, LOJA GARAGEM, SAO DOMINGOS, 36504-042, UBÁ, MG, BRASIL", "BANCO": "SICOOB", "LINHA_AVAL_NOME": "Crédito emergencial", "LATITUDE": "-21.1163366", "LONGITUDE": "-42.9371954", "STATUS_OPERACIONAL": "CARTEIRA", "STATUS": "CARTEIRA" }, "geometry": { "type": "Point", "coordinates": [ -42.9371954, -21.1163366 ] } },
{ "type": "Feature", "properties": { "NROCNPJ_PAD": "27318895000163", "NOME_FANTASIA": "PREMIUM UBA CORRETORA DE SEGUROS E TRANSPORTES", "RAZAO_SOCIAL": "PREMIUM UBA CORRETORA DE SEGUROS E TRANSPORTES LTDA", "RESPONSAVEL": "RENAN CANDIAN TREVIZANO", "MUNICIPIO": "UBA", "ENDEE": "RUA CORONEL OTAVIANO DA ROCHA, 225, LOJA 2, SAO DOMINGOS, 36504-042, UBÁ, MG, BRASIL", "BANCO": "BDMG", "LINHA_AVAL_NOME": "Crédito emergencial", "LATITUDE": "-21.1164704", "LONGITUDE": "-42.9373376", "STATUS_OPERACIONAL": "CARTEIRA", "STATUS": "CARTEIRA" }, "geometry": { "type": "Point", "coordinates": [ -42.9373376, -21.1164704 ] } },
{ "type": "Feature", "properties": { "NROCNPJ_PAD": "38575502000113", "NOME_FANTASIA": "COLLORIL TINTAS", "RAZAO_SOCIAL": "COLLORIL TINTAS LTDA", "RESPONSAVEL": "SUYENNY PELUSO GOMES|THIAGO AURELIO DE OLIVEIRA", "MUNICIPIO": "UBA", "ENDEE": "AVENIDA COMENDADOR JACINTO SOARES DE SOUZA LIMA, 820, LOJA 01, CENTRO, 36500-090, UBÁ, MG, BRASIL", "BANCO": "BDMG", "LINHA_AVAL_NOME": "Crédito emergencial", "LATITUDE": "-21.1168238", "LONGITUDE": "-42.9440168", "STATUS_OPERACIONAL": "CARTEIRA", "STATUS": "CARTEIRA" }, "geometry": { "type": "Point", "coordinates": [ -42.9440168, -21.1168238 ] } },
{ "type": "Feature", "properties": { "NROCNPJ_PAD": "41914342000102", "NOME_FANTASIA": "MAGNACOR", "RAZAO_SOCIAL": "QUINTANILHA & CIA LTDA", "RESPONSAVEL": "CAMILA DE OLIVEIRA QUINTANILHA L?O|GERALDO ROCHA QUINTANILHA JUNIOR", "MUNICIPIO": "UBA", "ENDEE": "AVENIDA COMENDADOR JACINTO SOARES DE SOUZA LIMA, 1170, LOJA A, CENTRO, 36500-091, UBÁ, MG, BRASIL", "BANCO": "BDMG", "LINHA_AVAL_NOME": "Crédito emergencial", "LATITUDE": "-21.117278", "LONGITUDE": "-42.948512", "STATUS_OPERACIONAL": "CARTEIRA", "STATUS": "CARTEIRA" }, "geometry": { "type": "Point", "coordinates": [ -42.948512, -21.117278 ] } },
{ "type": "Feature", "properties": { "NROCNPJ_PAD": "07576222000104", "NOME_FANTASIA": "-", "RAZAO_SOCIAL": "R L C COMUNICACOES LTDA", "RESPONSAVEL": "FABIANO TEIXEIRA FUSARO|LUCAS VIEIRA ANDRADE", "MUNICIPIO": "UBA", "ENDEE": "AVENIDA COMENDADOR JACINTO SOARES DE SOUZA LIMA, 1171, ANDAR 1-B, CENTRO, 36500-090, UBÁ, MG, BRASIL", "BANCO": "SICREDI 2", "LINHA_AVAL_NOME": "Crédito emergencial", "LATITUDE": "-21.1173273", "LONGITUDE": "-42.9480355", "STATUS_OPERACIONAL": "CARTEIRA", "STATUS": "CARTEIRA" }, "geometry": { "type": "Point", "coordinates": [ -42.9480355, -21.1173273 ] } },
{ "type": "Feature", "properties": { "NROCNPJ_PAD": "09101697000161", "NOME_FANTASIA": "-", "RAZAO_SOCIAL": "VAGNER LEANDRO FERNANDES", "RESPONSAVEL": "VAGNER LEANDRO FERNANDES", "MUNICIPIO": "UBA", "ENDEE": "AVENIDA GOVERNADOR VALADARES, 799, CENTRO, 36500-001, UBÁ, MG, BRASIL", "BANCO": "BDMG", "LINHA_AVAL_NOME": "Crédito emergencial", "LATITUDE": "-21.1179886", "LONGITUDE": "-42.9484817", "STATUS_OPERACIONAL": "CARTEIRA", "STATUS": "CARTEIRA" }, "geometry": { "type": "Point", "coordinates": [ -42.9484817, -21.1179886 ] } },
{ "type": "Feature", "properties": { "NROCNPJ_PAD": "15655800000118", "NOME_FANTASIA": "MONIQUE MODAS", "RAZAO_SOCIAL": "MONIQUE FERNANDES LOPES 05003157606", "RESPONSAVEL": "MONIQUE FERNANDES LOPES", "MUNICIPIO": "UBA", "ENDEE": "RUA ISAURA DA ROCHA REZENDE, 26, CENTRO, 36500-094, UBÁ, MG, BRASIL", "BANCO": "BDMG", "LINHA_AVAL_NOME": "Crédito emergencial", "LATITUDE": "-21.1198393", "LONGITUDE": "-42.9393663", "STATUS_OPERACIONAL": "CARTEIRA", "STATUS": "CARTEIRA" }, "geometry": { "type": "Point", "coordinates": [ -42.9393663, -21.1198393 ] } },
{ "type": "Feature", "properties": { "NROCNPJ_PAD": "24690750000109", "NOME_FANTASIA": "BNI MINAS ZONA DA MATA E VERTENTES", "RAZAO_SOCIAL": "JSR NEGOCIOS LTDA", "RESPONSAVEL": "JULIANA SOARES RAMOS|RAFAEL FABRI MACENA DE JESUS", "MUNICIPIO": "UBA", "ENDEE": "AVENIDA RAUL SOARES, 47, LOJA 04, CENTRO, 36500-067, UBÁ, MG, BRASIL", "BANCO": "BDMG", "LINHA_AVAL_NOME": "Crédito emergencial", "LATITUDE": "-21.1198687", "LONGITUDE": "-42.9435158", "STATUS_OPERACIONAL": "CARTEIRA", "STATUS": "CARTEIRA" }, "geometry": { "type": "Point", "coordinates": [ -42.9435158, -21.1198687 ] } },
{ "type": "Feature", "properties": { "NROCNPJ_PAD": "24049025000148", "NOME_FANTASIA": "PULSACAO", "RAZAO_SOCIAL": "MINAS PARA COMERCIO LTDA", "RESPONSAVEL": "LEANDRO AMARAL MARCOS|NATHALIA GONCALVES SANCHES MARCOS", "MUNICIPIO": "UBA", "ENDEE": "AVENIDA CRISTIANO ROCAS, 260, LOJA 07, CENTRO, 36500-017, UBÁ, MG, BRASIL", "BANCO": "SICREDI 2", "LINHA_AVAL_NOME": "Crédito emergencial", "LATITUDE": "-21.1203582", "LONGITUDE": "-42.937912", "STATUS_OPERACIONAL": "CARTEIRA", "STATUS": "CARTEIRA" }, "geometry": { "type": "Point", "coordinates": [ -42.937912, -21.1203582 ] } },
{ "type": "Feature", "properties": { "NROCNPJ_PAD": "08686026000147", "NOME_FANTASIA": "SABOR & CIA. RESTAURANTES", "RAZAO_SOCIAL": "COLEN & CIA. LTDA", "RESPONSAVEL": "MARCIOLUCIANOVIEIRACOLEN", "MUNICIPIO": "UBA", "ENDEE": "AVENIDA CRISTIANO ROCAS, 260, LOJA 0102030405 E 06, CENTRO, 36500-001, UBÁ, MG, BRASIL", "BANCO": "SICOOB", "LINHA_AVAL_NOME": "Crédito emergencial", "LATITUDE": "-21.1203582", "LONGITUDE": "-42.937912", "STATUS_OPERACIONAL": "CARTEIRA", "STATUS": "CARTEIRA" }, "geometry": { "type": "Point", "coordinates": [ -42.937912, -21.1203582 ] } },
{ "type": "Feature", "properties": { "NROCNPJ_PAD": "18284952000140", "NOME_FANTASIA": "SAMANTHA ESSER SEMI JOIAS", "RAZAO_SOCIAL": "SAMANTHA ESSER JOIAS E SEMIJOIAS LTDA", "RESPONSAVEL": "SAMANTHA AZEVEDO BARBOSA DA SILVA ESSER", "MUNICIPIO": "UBA", "ENDEE": "RUA MATILDE DA ROCHA BALBI, 542, LOJA, CENTRO, 36500-096, UBÁ, MG, BRASIL", "BANCO": "BDMG", "LINHA_AVAL_NOME": "Crédito emergencial", "LATITUDE": "-21.1207021", "LONGITUDE": "-42.9398957", "STATUS_OPERACIONAL": "CARTEIRA", "STATUS": "CARTEIRA" }, "geometry": { "type": "Point", "coordinates": [ -42.9398957, -21.1207021 ] } },
{ "type": "Feature", "properties": { "NROCNPJ_PAD": "28333630000105", "NOME_FANTASIA": "-", "RAZAO_SOCIAL": "G.G.N. RIBEIRO EMPREENDIMENTOS IMOBILIARIOS LTDA", "RESPONSAVEL": "FABIANEBAIAORIBEIROREIS|GLAUCIAGRAVINANOBREGARIBEIRO", "MUNICIPIO": "UBA", "ENDEE": "RUA DO ROSARIO, 35, CENTRO, 36500-030, UBÁ, MG, BRASIL", "BANCO": "SICOOB", "LINHA_AVAL_NOME": "Crédito emergencial", "LATITUDE": "-21.1208185", "LONGITUDE": "-42.9386817", "STATUS_OPERACIONAL": "CARTEIRA", "STATUS": "CARTEIRA" }, "geometry": { "type": "Point", "coordinates": [ -42.9386817, -21.1208185 ] } },
{ "type": "Feature", "properties": { "NROCNPJ_PAD": "09206363000152", "NOME_FANTASIA": "-", "RAZAO_SOCIAL": "PADARIA COPACABANA DE UBA LTDA.", "RESPONSAVEL": "MAURODESOUZAOLIVEIRA|SONIAAPARECIDAZOCULO", "MUNICIPIO": "UBA", "ENDEE": "RUA ANTENOR MACHADO, 410, CENTRO, 36500-001, UBÁ, MG, BRASIL", "BANCO": "SICOOB", "LINHA_AVAL_NOME": "Giro", "LATITUDE": "-21.1208659", "LONGITUDE": "-42.9337327", "STATUS_OPERACIONAL": "CARTEIRA", "STATUS": "CARTEIRA" }, "geometry": { "type": "Point", "coordinates": [ -42.9337327, -21.1208659 ] } },
{ "type": "Feature", "properties": { "NROCNPJ_PAD": "06880474000151", "NOME_FANTASIA": "ZIP JET CARTUCHOS", "RAZAO_SOCIAL": "ALVES E ARRUDA COMERCIO E SERVICOS DE INFORMATICA LTDA", "RESPONSAVEL": "JOAO BATISTA DE ARRUDA|ROSEMEIRE ALVES DE ARRUDA", "MUNICIPIO": "UBA", "ENDEE": "RUA MATHILDE ROCHA BALBI, 586, LOJA 2, CENTRO, 36500-001, UBÁ, MG, BRASIL", "BANCO": "BDMG", "LINHA_AVAL_NOME": "Crédito emergencial", "LATITUDE": "-21.1209452", "LONGITUDE": "-42.9403436", "STATUS_OPERACIONAL": "CARTEIRA", "STATUS": "CARTEIRA" }, "geometry": { "type": "Point", "coordinates": [ -42.9403436, -21.1209452 ] } },
{ "type": "Feature", "properties": { "NROCNPJ_PAD": "48691229000146", "NOME_FANTASIA": "-", "RAZAO_SOCIAL": "JP SUPLEMENTOS LTDA", "RESPONSAVEL": "JOAO PAULO DE MELO CARMANINI", "MUNICIPIO": "UBA", "ENDEE": "RUA MARTINHO FREIRE DE ANDRADE, 25, LOJA 17, CENTRO, 36500-062, UBÁ, MG, BRASIL", "BANCO": "BDMG", "LINHA_AVAL_NOME": "Crédito emergencial", "LATITUDE": "-21.1211413", "LONGITUDE": "-42.9423684", "STATUS_OPERACIONAL": "CARTEIRA", "STATUS": "CARTEIRA" }, "geometry": { "type": "Point", "coordinates": [ -42.9423684, -21.1211413 ] } },
{ "type": "Feature", "properties": { "NROCNPJ_PAD": "32931953000160", "NOME_FANTASIA": "COMERCIAL TEIXEIRA", "RAZAO_SOCIAL": "32.931.953 LUAN TEIXEIRA DE CASTRO", "RESPONSAVEL": "LUANTEIXEIRADECASTRO", "MUNICIPIO": "UBA", "ENDEE": "RUA CORONEL JULIO SOARES, 210, LOJA 1, CENTRO, 36500-051, UBÁ, MG, BRASIL", "BANCO": "SICOOB", "LINHA_AVAL_NOME": "Crédito emergencial", "LATITUDE": "-21.1225942", "LONGITUDE": "-42.9424393", "STATUS_OPERACIONAL": "CARTEIRA", "STATUS": "CARTEIRA" }, "geometry": { "type": "Point", "coordinates": [ -42.9424393, -21.1225942 ] } },
{ "type": "Feature", "properties": { "NROCNPJ_PAD": "29136745000164", "NOME_FANTASIA": "ALEGRA TUR TRANSPORTE VIAGENS E TURISMO", "RAZAO_SOCIAL": "ALEGRATUR TRANSPORTES VIAGENS E TURISMO LTDA", "RESPONSAVEL": "GET?LIO PIRES AMORIM", "MUNICIPIO": "UBA", "ENDEE": "RUA PEDRO BOTARO, 125, CASA, SAN RAPHAEL II, 36507-202, UBÁ, MG, BRASIL", "BANCO": "BDMG", "LINHA_AVAL_NOME": "Crédito emergencial", "LATITUDE": "-21.1134689", "LONGITUDE": "-42.959143", "STATUS_OPERACIONAL": "CARTEIRA", "STATUS": "CARTEIRA" }, "geometry": { "type": "Point", "coordinates": [ -42.959143, -21.1134689 ] } },
{ "type": "Feature", "properties": { "NROCNPJ_PAD": "26584161000163", "NOME_FANTASIA": "REFRIGERACAO A L SOUZA", "RAZAO_SOCIAL": "A L SOUZA REFRIGERACAO LTDA", "RESPONSAVEL": "MARCIOTEODOROSILVADEPAULA", "MUNICIPIO": "UBA", "ENDEE": "AVENIDA JESUS BRANDAO, 625, SAN RAPHAEL II, 36507-190, UBÁ, MG, BRASIL", "BANCO": "SICOOB", "LINHA_AVAL_NOME": "Giro", "LATITUDE": "-21.1135236", "LONGITUDE": "-42.9611748", "STATUS_OPERACIONAL": "CARTEIRA", "STATUS": "CARTEIRA" }, "geometry": { "type": "Point", "coordinates": [ -42.9611748, -21.1135236 ] } },
{ "type": "Feature", "properties": { "NROCNPJ_PAD": "60531251000124", "NOME_FANTASIA": "-", "RAZAO_SOCIAL": "SR PERSONAL LTDA", "RESPONSAVEL": "SIMONERIBEIROQUEIROZAFONSO", "MUNICIPIO": "UBA", "ENDEE": "RUA JOSE DIAS PAES, 310, ACADEMIA, BELA VISTA, 36507-006, UBÁ, MG, BRASIL", "BANCO": "SICOOB", "LINHA_AVAL_NOME": "Crédito emergencial", "LATITUDE": "-21.1206504", "LONGITUDE": "-42.9468565", "STATUS_OPERACIONAL": "CARTEIRA", "STATUS": "CARTEIRA" }, "geometry": { "type": "Point", "coordinates": [ -42.9468565, -21.1206504 ] } },
{ "type": "Feature", "properties": { "NROCNPJ_PAD": "51513581000104", "NOME_FANTASIA": "ADRIEL COELHO EMPREENDIMENTOS", "RAZAO_SOCIAL": "51.513.581 ADRIEL MARIO COELHO", "RESPONSAVEL": "ADRIEL MARIO COELHO", "MUNICIPIO": "UBA", "ENDEE": "RUA DOUTOR ANGELO BARLETA, 35, CENTRO, 36500-057, UBÁ, MG, BRASIL", "BANCO": "SICREDI 2", "LINHA_AVAL_NOME": "Crédito emergencial", "LATITUDE": "-21.1217558", "LONGITUDE": "-42.9448044", "STATUS_OPERACIONAL": "CARTEIRA", "STATUS": "CARTEIRA" }, "geometry": { "type": "Point", "coordinates": [ -42.9448044, -21.1217558 ] } },
{ "type": "Feature", "properties": { "NROCNPJ_PAD": "14237355000103", "NOME_FANTASIA": "STILE CAR SOM E ACESSORIOS", "RAZAO_SOCIAL": "STILE UBA SOM E ACESSORIOS LTDA", "RESPONSAVEL": "ELISABETE MONI PARMA|LEANDRO CAMILO CAMPOS", "MUNICIPIO": "UBA", "ENDEE": "AVENIDA AUGUSTSMIDT RIANI (DR. RIANI), 2620, DICO TEIXEIRA, 36506-073, UBÁ, MG, BRASIL", "BANCO": "BDMG", "LINHA_AVAL_NOME": "Crédito emergencial", "LATITUDE": "-21.1069619", "LONGITUDE": "-42.9574094", "STATUS_OPERACIONAL": "CARTEIRA", "STATUS": "CARTEIRA" }, "geometry": { "type": "Point", "coordinates": [ -42.9574094, -21.1069619 ] } },
{ "type": "Feature", "properties": { "NROCNPJ_PAD": "23918280000117", "NOME_FANTASIA": "-", "RAZAO_SOCIAL": "BETINHO MADEIRAS LTDA", "RESPONSAVEL": "GABRIELEMELOPACHECO", "MUNICIPIO": "UBA", "ENDEE": "AVENIDA AUGUSTSMIDT RIANI (DR. RIANI), 2685, DICO TEIXEIRA, 36506-073, UBÁ, MG, BRASIL", "BANCO": "SICOOB", "LINHA_AVAL_NOME": "Giro", "LATITUDE": "-21.1069619", "LONGITUDE": "-42.9574094", "STATUS_OPERACIONAL": "CARTEIRA", "STATUS": "CARTEIRA" }, "geometry": { "type": "Point", "coordinates": [ -42.9574094, -21.1069619 ] } },
{ "type": "Feature", "properties": { "NROCNPJ_PAD": "12779137000175", "NOME_FANTASIA": "-", "RAZAO_SOCIAL": "BC3 TECNOLOGIA EM SOFTWARE LTDA", "RESPONSAVEL": "JEISONDESOUZA|JORGEEDUARDOBARBOSA", "MUNICIPIO": "UBA", "ENDEE": "RUA SUMAUMA, 56, VILA MARIAH, 36504-148, UBÁ, MG, BRASIL", "BANCO": "SICOOB", "LINHA_AVAL_NOME": "Crédito emergencial", "LATITUDE": "-21.110889", "LONGITUDE": "-42.9288253", "STATUS_OPERACIONAL": "CARTEIRA", "STATUS": "CARTEIRA" }, "geometry": { "type": "Point", "coordinates": [ -42.9288253, -21.110889 ] } },
{ "type": "Feature", "properties": { "NROCNPJ_PAD": "02725220000108", "NOME_FANTASIA": "TNA DECOR", "RAZAO_SOCIAL": "GUTH LTDA", "RESPONSAVEL": "WANIA BRAGA CAMPOS ALMEIDA", "MUNICIPIO": "UBA", "ENDEE": "RUA SILIO MIQUELITO, 32, FUNDOS, ELDORADO, 36504-102, UBÁ, MG, BRASIL", "BANCO": "BDMG", "LINHA_AVAL_NOME": "Giro", "LATITUDE": "-21.1108905", "LONGITUDE": "-42.9345988", "STATUS_OPERACIONAL": "CARTEIRA", "STATUS": "CARTEIRA" }, "geometry": { "type": "Point", "coordinates": [ -42.9345988, -21.1108905 ] } },
{ "type": "Feature", "properties": { "NROCNPJ_PAD": "33178235000127", "NOME_FANTASIA": "ARRAIAL SERRANO ALIMENTOS", "RAZAO_SOCIAL": "ARRAIAL SERRANO INDUSTRIA E COMERCIO DE ALIMENTOS LTDA", "RESPONSAVEL": "ALEXANDREMAGNODESOUZALIMA", "MUNICIPIO": "UBA", "ENDEE": "RUA JURANDIR PERON, 213, AGROCERES, 36504-230, UBÁ, MG, BRASIL", "BANCO": "SICOOB", "LINHA_AVAL_NOME": "Giro", "LATITUDE": "-21.1112663", "LONGITUDE": "-42.9208383", "STATUS_OPERACIONAL": "CARTEIRA", "STATUS": "CARTEIRA" }, "geometry": { "type": "Point", "coordinates": [ -42.9208383, -21.1112663 ] } },
{ "type": "Feature", "properties": { "NROCNPJ_PAD": "37349053000122", "NOME_FANTASIA": "FIBRASA", "RAZAO_SOCIAL": "FIBRASA COMERCIO LTDA", "RESPONSAVEL": "SERGIO LUIS DA COSTA TEIXEIRA", "MUNICIPIO": "UBA", "ENDEE": "RUA ADAO QUINTAO, 260, E, AGROCERES, 36504-232, UBÁ, MG, BRASIL", "BANCO": "BDMG", "LINHA_AVAL_NOME": "Crédito emergencial", "LATITUDE": "-21.1124387", "LONGITUDE": "-42.9243777", "STATUS_OPERACIONAL": "CARTEIRA", "STATUS": "CARTEIRA" }, "geometry": { "type": "Point", "coordinates": [ -42.9243777, -21.1124387 ] } },
{ "type": "Feature", "properties": { "NROCNPJ_PAD": "54332235000100", "NOME_FANTASIA": "-", "RAZAO_SOCIAL": "M. M. SOLDAS E COMERCIO DE EQUIPAMENTOS LTDA", "RESPONSAVEL": "MARCOSVINICIOSMEIRELESRAYMUNDO|MATHEUSAUGUSTODEASSIS", "MUNICIPIO": "UBA", "ENDEE": "RUA PAULO MARQUES, 47, BELVEDERE, 36505-170, UBÁ, MG, BRASIL", "BANCO": "SICOOB", "LINHA_AVAL_NOME": "Giro", "LATITUDE": "-21.1128591", "LONGITUDE": "-42.9387769", "STATUS_OPERACIONAL": "CARTEIRA", "STATUS": "CARTEIRA" }, "geometry": { "type": "Point", "coordinates": [ -42.9387769, -21.1128591 ] } },
{ "type": "Feature", "properties": { "NROCNPJ_PAD": "41967835000100", "NOME_FANTASIA": "DALLUDECOR", "RAZAO_SOCIAL": "DALLUDECOR LTDA", "RESPONSAVEL": "DAYANEMENDONCADEFREITAS", "MUNICIPIO": "UBA", "ENDEE": "RUA ELIZA AMARAL PERON, 37, AGROCERES, 36504-234, UBÁ, MG, BRASIL", "BANCO": "SICOOB", "LINHA_AVAL_NOME": "Crédito emergencial", "LATITUDE": "-21.113112", "LONGITUDE": "-42.927192", "STATUS_OPERACIONAL": "CARTEIRA", "STATUS": "CARTEIRA" }, "geometry": { "type": "Point", "coordinates": [ -42.927192, -21.113112 ] } },
{ "type": "Feature", "properties": { "NROCNPJ_PAD": "51118806000110", "NOME_FANTASIA": "@PROVACAO", "RAZAO_SOCIAL": "CENTRO DE FORMACAO E CONDUTORES APROVACAO", "RESPONSAVEL": "CLAUDIA MOURA DAVID GOMES LOURENCO DA SILVA", "MUNICIPIO": "UBA", "ENDEE": "RUA EMIDIO VIANA, 117, SAO DOMINGOS, 36504-020, UBÁ, MG, BRASIL", "BANCO": "BDMG", "LINHA_AVAL_NOME": "Crédito emergencial", "LATITUDE": "-21.1141297", "LONGITUDE": "-42.9412444", "STATUS_OPERACIONAL": "CARTEIRA", "STATUS": "CARTEIRA" }, "geometry": { "type": "Point", "coordinates": [ -42.9412444, -21.1141297 ] } },
{ "type": "Feature", "properties": { "NROCNPJ_PAD": "57031070000124", "NOME_FANTASIA": "-", "RAZAO_SOCIAL": "57.031.070 HIGOR MARTINS DA COSTA", "RESPONSAVEL": "HIGORMARTINSDACOSTA", "MUNICIPIO": "UBA", "ENDEE": "RUA GERALDO CAMPOS, 111, PAVMTO 1, SAO DOMINGOS, 36504-018, UBÁ, MG, BRASIL", "BANCO": "SICOOB", "LINHA_AVAL_NOME": "Giro", "LATITUDE": "-21.1143039", "LONGITUDE": "-42.9413982", "STATUS_OPERACIONAL": "CARTEIRA", "STATUS": "CARTEIRA" }, "geometry": { "type": "Point", "coordinates": [ -42.9413982, -21.1143039 ] } },
{ "type": "Feature", "properties": { "NROCNPJ_PAD": "49398791000149", "NOME_FANTASIA": "MOVEIS CASA BELA", "RAZAO_SOCIAL": "MOVEIS CASA BELA LTDA", "RESPONSAVEL": "DAVIGUILHERMEDEOLIVEIRA", "MUNICIPIO": "UBA", "ENDEE": "RUA VIOLETA, 68, TERREO, PAULINO FERNANDES, 36503-066, UBÁ, MG, BRASIL", "BANCO": "SICOOB", "LINHA_AVAL_NOME": "Giro", "LATITUDE": "-21.1159049", "LONGITUDE": "-42.9179", "STATUS_OPERACIONAL": "CARTEIRA", "STATUS": "CARTEIRA" }, "geometry": { "type": "Point", "coordinates": [ -42.9179, -21.1159049 ] } },
{ "type": "Feature", "properties": { "NROCNPJ_PAD": "32469137000186", "NOME_FANTASIA": "SPERANDIO SERVICOS", "RAZAO_SOCIAL": "SPERANDIO COMERCIO E SERVICOS LTDA", "RESPONSAVEL": "MIGUELANGELONEGRAOSPERANDIO", "MUNICIPIO": "UBA", "ENDEE": "RUA LUIZ SPERANDIO, 235, MANGUEIRA RURAL, 36503-270, UBÁ, MG, BRASIL", "BANCO": "SICOOB", "LINHA_AVAL_NOME": "Giro", "LATITUDE": "-21.116567", "LONGITUDE": "-42.899826", "STATUS_OPERACIONAL": "CARTEIRA", "STATUS": "CARTEIRA" }, "geometry": { "type": "Point", "coordinates": [ -42.899826, -21.116567 ] } },
{ "type": "Feature", "properties": { "NROCNPJ_PAD": "24524486000125", "NOME_FANTASIA": "POWER PILATES", "RAZAO_SOCIAL": "RODRIGO BARLETTA ROOKE HORTA LTDA", "RESPONSAVEL": "RODRIGOBARLETTAROOKEHORTA", "MUNICIPIO": "UBA", "ENDEE": "AVENIDA COMENDADOR JACINTO SOARES DE SOUZA LIMA, 650, LOJA, CENTRO, 36500-090, UBÁ, MG, BRASIL", "BANCO": "SICOOB", "LINHA_AVAL_NOME": "Crédito emergencial", "LATITUDE": "-21.1172401", "LONGITUDE": "-42.9433291", "STATUS_OPERACIONAL": "CARTEIRA", "STATUS": "CARTEIRA" }, "geometry": { "type": "Point", "coordinates": [ -42.9433291, -21.1172401 ] } },
{ "type": "Feature", "properties": { "NROCNPJ_PAD": "14083092000125", "NOME_FANTASIA": "DORA BELA MOVEIS", "RAZAO_SOCIAL": "DORA BELA MOVEIS LTDA", "RESPONSAVEL": "THIAGO RIBEIRO PEIXOTO", "MUNICIPIO": "UBA", "ENDEE": "RUA ANGELO SPERANDIO, 2001, GALPAOB, MANGUEIRA RURAL, 36503-250, UBÁ, MG, BRASIL", "BANCO": "BDMG", "LINHA_AVAL_NOME": "Crédito emergencial", "LATITUDE": "-21.1175725", "LONGITUDE": "-42.8983904", "STATUS_OPERACIONAL": "CARTEIRA", "STATUS": "CARTEIRA" }, "geometry": { "type": "Point", "coordinates": [ -42.8983904, -21.1175725 ] } },
{ "type": "Feature", "properties": { "NROCNPJ_PAD": "38433606000193", "NOME_FANTASIA": "LA CASA DE ESTOFADOS", "RAZAO_SOCIAL": "LA CASA DE ESTOFADOS LTDA", "RESPONSAVEL": "CLAUDIO JOVIANO DOS SANTOS", "MUNICIPIO": "UBA", "ENDEE": "RUA INES GUIDUCCI, 210, PONTE PRETA, 36503-136, UBÁ, MG, BRASIL", "BANCO": "BDMG", "LINHA_AVAL_NOME": "Crédito emergencial", "LATITUDE": "-21.1178063", "LONGITUDE": "-42.9064112", "STATUS_OPERACIONAL": "CARTEIRA", "STATUS": "CARTEIRA" }, "geometry": { "type": "Point", "coordinates": [ -42.9064112, -21.1178063 ] } },
{ "type": "Feature", "properties": { "NROCNPJ_PAD": "11748178000131", "NOME_FANTASIA": "-", "RAZAO_SOCIAL": "J KASA REPRESENTACOES LTDA", "RESPONSAVEL": "-", "MUNICIPIO": "UBA", "ENDEE": "RUA BELO HORIZONTE, 50, APT 502, CENTRO, 36500-020, UBÁ, MG, BRASIL", "BANCO": "BRADESCO", "LINHA_AVAL_NOME": "-", "LATITUDE": "-21.1178593", "LONGITUDE": "-42.9363278", "STATUS_OPERACIONAL": "FORA DO ESCOPO", "STATUS": "FORA DO ESCOPO" }, "geometry": { "type": "Point", "coordinates": [ -42.9363278, -21.1178593 ] } },
{ "type": "Feature", "properties": { "NROCNPJ_PAD": "12923431000109", "NOME_FANTASIA": "-", "RAZAO_SOCIAL": "DENISE RINALDI COLLI", "RESPONSAVEL": "DENISERINALDICOLLI", "MUNICIPIO": "UBA", "ENDEE": "RUA BELO HORIZONTE, 65, SALA 08, CENTRO, 36500-020, UBÁ, MG, BRASIL", "BANCO": "SICOOB", "LINHA_AVAL_NOME": "Crédito emergencial", "LATITUDE": "-21.1179024", "LONGITUDE": "-42.9365037", "STATUS_OPERACIONAL": "CARTEIRA", "STATUS": "CARTEIRA" }, "geometry": { "type": "Point", "coordinates": [ -42.9365037, -21.1179024 ] } },
{ "type": "Feature", "properties": { "NROCNPJ_PAD": "26403374000141", "NOME_FANTASIA": "LOOK DECOR", "RAZAO_SOCIAL": "LOOK DECOR LTDA", "RESPONSAVEL": "CLEBER ALOISIO DE LIMA", "MUNICIPIO": "UBA", "ENDEE": "RUA JOAO GROPPO, 462, JARDIM INES GROPPO, 36503-002, UBÁ, MG, BRASIL", "BANCO": "ESTÍMULO", "LINHA_AVAL_NOME": "Investimento + giro", "LATITUDE": "-21.1180417", "LONGITUDE": "-42.9239944", "STATUS_OPERACIONAL": "CARTEIRA", "STATUS": "CARTEIRA" }, "geometry": { "type": "Point", "coordinates": [ -42.9239944, -21.1180417 ] } },
{ "type": "Feature", "properties": { "NROCNPJ_PAD": "55068135000180", "NOME_FANTASIA": "JOLUCAN", "RAZAO_SOCIAL": "JOLUCAN SERVICOS INDUSTRIAIS LTDA", "RESPONSAVEL": "JOSE LUIS DE CARVALHO SILVA", "MUNICIPIO": "UBA", "ENDEE": "RUA AZALEIA, 126, CASA, PAULINO FERNANDES, 36503-068, UBÁ, MG, BRASIL", "BANCO": "BDMG", "LINHA_AVAL_NOME": "Crédito emergencial", "LATITUDE": "-21.1181603", "LONGITUDE": "-42.9172844", "STATUS_OPERACIONAL": "CARTEIRA", "STATUS": "CARTEIRA" }, "geometry": { "type": "Point", "coordinates": [ -42.9172844, -21.1181603 ] } },
{ "type": "Feature", "properties": { "NROCNPJ_PAD": "55579384000130", "NOME_FANTASIA": "-", "RAZAO_SOCIAL": "EBANO DECOR LTDA", "RESPONSAVEL": "-", "MUNICIPIO": "UBA", "ENDEE": "RUA ANGELO SPERANDIO, 1479, MANGUEIRA RURAL, 36503-250, UBÁ, MG, BRASIL", "BANCO": "BRADESCO", "LINHA_AVAL_NOME": "GIRO", "LATITUDE": "-21.1182216", "LONGITUDE": "-42.8991131", "STATUS_OPERACIONAL": "CARTEIRA", "STATUS": "CARTEIRA" }, "geometry": { "type": "Point", "coordinates": [ -42.8991131, -21.1182216 ] } },
{ "type": "Feature", "properties": { "NROCNPJ_PAD": "31904376000154", "NOME_FANTASIA": "-", "RAZAO_SOCIAL": "RODRIGO DA SILVA VIEIRA 98769910600", "RESPONSAVEL": "RODRIGODASILVAVIEIRA", "MUNICIPIO": "UBA", "ENDEE": "RUA CAPITAO TEIXEIRA PINTO, 313, LOJA LOJA, CENTRO, 36502-012, UBÁ, MG, BRASIL", "BANCO": "SICOOB", "LINHA_AVAL_NOME": "Giro", "LATITUDE": "-21.1186001", "LONGITUDE": "-42.9291818", "STATUS_OPERACIONAL": "CARTEIRA", "STATUS": "CARTEIRA" }, "geometry": { "type": "Point", "coordinates": [ -42.9291818, -21.1186001 ] } },
{ "type": "Feature", "properties": { "NROCNPJ_PAD": "07841218000118", "NOME_FANTASIA": "MERCEARIA SILVEIRA", "RAZAO_SOCIAL": "MERCEARIA LOPES E SILVEIRA LTDA", "RESPONSAVEL": "-", "MUNICIPIO": "UBA", "ENDEE": "RUA JOAO GROPPO, 252, JARDIM INES GROPPO, 36503-002, UBÁ, MG, BRASIL", "BANCO": "BRADESCO", "LINHA_AVAL_NOME": "Giro", "LATITUDE": "-21.1186221", "LONGITUDE": "-42.9265446", "STATUS_OPERACIONAL": "CARTEIRA", "STATUS": "CARTEIRA" }, "geometry": { "type": "Point", "coordinates": [ -42.9265446, -21.1186221 ] } },
{ "type": "Feature", "properties": { "NROCNPJ_PAD": "59069934000122", "NOME_FANTASIA": "-", "RAZAO_SOCIAL": "OUTFIT COMERCIO DE ROUPAS LTDA", "RESPONSAVEL": "GUILHERME BURRATTO DE PAIVA", "MUNICIPIO": "UBA", "ENDEE": "RUA SAO JOSE, 153, LOJA B, CENTRO, 36500-026, UBÁ, MG, BRASIL", "BANCO": "BDMG", "LINHA_AVAL_NOME": "Crédito emergencial", "LATITUDE": "-21.1187449", "LONGITUDE": "-42.9369171", "STATUS_OPERACIONAL": "CARTEIRA", "STATUS": "CARTEIRA" }, "geometry": { "type": "Point", "coordinates": [ -42.9369171, -21.1187449 ] } },
{ "type": "Feature", "properties": { "NROCNPJ_PAD": "26651577000157", "NOME_FANTASIA": "NUTRIMAIS", "RAZAO_SOCIAL": "NUTRIMAIS RESTAURANTE E LANCHONETE LTDA", "RESPONSAVEL": "ELIANEAPARECIDANEVESDEABREU|LEANDROTALESNEVESDEABREU", "MUNICIPIO": "UBA", "ENDEE": "RUA CAPITAO TEIXEIRA PINTO, 323, CENTRO, 36502-012, UBÁ, MG, BRASIL", "BANCO": "SICOOB", "LINHA_AVAL_NOME": "Crédito emergencial", "LATITUDE": "-21.1187577", "LONGITUDE": "-42.9286398", "STATUS_OPERACIONAL": "CARTEIRA", "STATUS": "CARTEIRA" }, "geometry": { "type": "Point", "coordinates": [ -42.9286398, -21.1187577 ] } },
{ "type": "Feature", "properties": { "NROCNPJ_PAD": "36111066000104", "NOME_FANTASIA": "GH REPRESENTACOES", "RAZAO_SOCIAL": "GH LIMA REPRESENTACOES LTDA", "RESPONSAVEL": "VINICIUS DE SOUZA LIMA", "MUNICIPIO": "UBA", "ENDEE": "RUA JOAO GROPPO, 300, 2 PAVIMENTO, JARDIM INES GROPPO, 36503-002, UBÁ, MG, BRASIL", "BANCO": "BDMG", "LINHA_AVAL_NOME": "Crédito emergencial", "LATITUDE": "-21.1187906", "LONGITUDE": "-42.9260152", "STATUS_OPERACIONAL": "CARTEIRA", "STATUS": "CARTEIRA" }, "geometry": { "type": "Point", "coordinates": [ -42.9260152, -21.1187906 ] } },
{ "type": "Feature", "properties": { "NROCNPJ_PAD": "31011487000131", "NOME_FANTASIA": "BOVALENTE INTERMEDICAOES E NEGOCIOS", "RAZAO_SOCIAL": "BOVALENTE INTERMEDIACOES FINANCIAMENTOS NEGOCIOS E VEICULOS LTDA", "RESPONSAVEL": "RICARDO ANDRADE BOVALENTE", "MUNICIPIO": "UBA", "ENDEE": "RUA JOAO GROPPO, 625, JARDIM INES GROPPO, 36503-002, UBÁ, MG, BRASIL", "BANCO": "BDMG", "LINHA_AVAL_NOME": "Crédito emergencial", "LATITUDE": "-21.1188417", "LONGITUDE": "-42.9249114", "STATUS_OPERACIONAL": "CARTEIRA", "STATUS": "CARTEIRA" }, "geometry": { "type": "Point", "coordinates": [ -42.9249114, -21.1188417 ] } },
{ "type": "Feature", "properties": { "NROCNPJ_PAD": "61235429000152", "NOME_FANTASIA": "LOJAS FASHION", "RAZAO_SOCIAL": "UBA FASHION UTILIDADES LTDA", "RESPONSAVEL": "SAMUEL MARTINS LOPES JUNIOR", "MUNICIPIO": "UBA", "ENDEE": "CALCADAO DEPUTADO IBRAHIM JACOB, 243, CENTRO, 36500-023, UBÁ, MG, BRASIL", "BANCO": "SICOOB", "LINHA_AVAL_NOME": "Crédito emergencial", "LATITUDE": "-21.1189013", "LONGITUDE": "-42.9373243", "STATUS_OPERACIONAL": "CARTEIRA", "STATUS": "CARTEIRA" }, "geometry": { "type": "Point", "coordinates": [ -42.9373243, -21.1189013 ] } },
{ "type": "Feature", "properties": { "NROCNPJ_PAD": "28838792000197", "NOME_FANTASIA": "FUSION CAR", "RAZAO_SOCIAL": "LUIS FILIPE PEREIRA MARCO 08860903696", "RESPONSAVEL": "LUISFILIPEPEREIRAMARCO", "MUNICIPIO": "UBA", "ENDEE": "RUA MAJOR MENDES SOBRINHO, 94, SAO DOMINGOS, 36500-001, UBÁ, MG, BRASIL", "BANCO": "SICOOB", "LINHA_AVAL_NOME": "Giro", "LATITUDE": "-21.1189338", "LONGITUDE": "-42.9333344", "STATUS_OPERACIONAL": "CARTEIRA", "STATUS": "CARTEIRA" }, "geometry": { "type": "Point", "coordinates": [ -42.9333344, -21.1189338 ] } },
{ "type": "Feature", "properties": { "NROCNPJ_PAD": "03237612000190", "NOME_FANTASIA": "-", "RAZAO_SOCIAL": "ARMARINHO BEIRA RIO LTDA", "RESPONSAVEL": "MANOEL MIGUEL DE OLIVEIRA VALENTE JUNIOR|MARIA DAS GRACAS MARES GUIA VALENTE", "MUNICIPIO": "UBA", "ENDEE": "AVENIDA CRISTIANO ROCAS, 44, LOJA, CENTRO, 36500-017, UBÁ, MG, BRASIL", "BANCO": "BDMG", "LINHA_AVAL_NOME": "Crédito emergencial", "LATITUDE": "-21.1194517", "LONGITUDE": "-42.9360798", "STATUS_OPERACIONAL": "CARTEIRA", "STATUS": "CARTEIRA" }, "geometry": { "type": "Point", "coordinates": [ -42.9360798, -21.1194517 ] } },
{ "type": "Feature", "properties": { "NROCNPJ_PAD": "58900035000167", "NOME_FANTASIA": "LIDER COLCHOES E CIA", "RAZAO_SOCIAL": "LIDER COLCHOES E CIA LTDA", "RESPONSAVEL": "ENDERSON LUIZ DA SILVA NEVES", "MUNICIPIO": "UBA", "ENDEE": "AVENIDA CRISTIANO ROCAS, 35, CENTRO, 36500-017, UBÁ, MG, BRASIL", "BANCO": "BDMG", "LINHA_AVAL_NOME": "Crédito emergencial", "LATITUDE": "-21.1195151", "LONGITUDE": "-42.935901", "STATUS_OPERACIONAL": "CARTEIRA", "STATUS": "CARTEIRA" }, "geometry": { "type": "Point", "coordinates": [ -42.935901, -21.1195151 ] } },
{ "type": "Feature", "properties": { "NROCNPJ_PAD": "23731084000139", "NOME_FANTASIA": "MUNDO DO SORVETE", "RAZAO_SOCIAL": "THABATA LARISSA SAMPAIO", "RESPONSAVEL": "THABATALARISSASAMPAIO", "MUNICIPIO": "UBA", "ENDEE": "RUA SAO JOSE, 311, LOJA SORVETERIA, CENTRO, 36500-026, UBÁ, MG, BRASIL", "BANCO": "SICOOB", "LINHA_AVAL_NOME": "Giro", "LATITUDE": "-21.1195212", "LONGITUDE": "-42.9380209", "STATUS_OPERACIONAL": "CARTEIRA", "STATUS": "CARTEIRA" }, "geometry": { "type": "Point", "coordinates": [ -42.9380209, -21.1195212 ] } },
{ "type": "Feature", "properties": { "NROCNPJ_PAD": "03885404000106", "NOME_FANTASIA": "WILD BEAST", "RAZAO_SOCIAL": "REPRESA COMERCIO DE ROUPAS - UBA LTDA", "RESPONSAVEL": "PEDRO SCHETINI RODRIGUES", "MUNICIPIO": "UBA", "ENDEE": "RUA SAO JOSE, 234, CENTRO, 36500-026, UBÁ, MG, BRASIL", "BANCO": "BDMG", "LINHA_AVAL_NOME": "Crédito emergencial", "LATITUDE": "-21.119573", "LONGITUDE": "-42.9379507", "STATUS_OPERACIONAL": "CARTEIRA", "STATUS": "CARTEIRA" }, "geometry": { "type": "Point", "coordinates": [ -42.9379507, -21.119573 ] } },
{ "type": "Feature", "properties": { "NROCNPJ_PAD": "45411830000140", "NOME_FANTASIA": "-", "RAZAO_SOCIAL": "45.411.830 ROBERT SOUZA MARQUES", "RESPONSAVEL": "ROBERTSOUZAMARQUES", "MUNICIPIO": "UBA", "ENDEE": "RUA DOS VIAJANTES, 18, CENTRO, 36500-015, UBÁ, MG, BRASIL", "BANCO": "SICOOB", "LINHA_AVAL_NOME": "Crédito emergencial", "LATITUDE": "-21.1195904", "LONGITUDE": "-42.93559", "STATUS_OPERACIONAL": "CARTEIRA", "STATUS": "CARTEIRA" }, "geometry": { "type": "Point", "coordinates": [ -42.93559, -21.1195904 ] } },
{ "type": "Feature", "properties": { "NROCNPJ_PAD": "18576655000178", "NOME_FANTASIA": "-", "RAZAO_SOCIAL": "RECANTO DAS AVES LTDA", "RESPONSAVEL": "WESLEY MARQUES FERREIRA", "MUNICIPIO": "UBA", "ENDEE": "RUA JOSE AUGUSTO MARCOS, 755, LOJA, PONTE PRETA, 36503-132, UBÁ, MG, BRASIL", "BANCO": "BDMG", "LINHA_AVAL_NOME": "Crédito emergencial", "LATITUDE": "-21.1195921", "LONGITUDE": "-42.9082544", "STATUS_OPERACIONAL": "CARTEIRA", "STATUS": "CARTEIRA" }, "geometry": { "type": "Point", "coordinates": [ -42.9082544, -21.1195921 ] } },
{ "type": "Feature", "properties": { "NROCNPJ_PAD": "02497005000105", "NOME_FANTASIA": "-", "RAZAO_SOCIAL": "IMPRIMEX INDUSTRIA GRAFICA LTDA", "RESPONSAVEL": "FERNANDADEOLIVEIRAMALETTACANCELLA|VINICIUSPEREIRACANCELLA", "MUNICIPIO": "UBA", "ENDEE": "RUA AVELINO OTONI, 121, FRENTE, INDUSTRIAL, 36502-020, UBÁ, MG, BRASIL", "BANCO": "SICOOB", "LINHA_AVAL_NOME": "Crédito emergencial", "LATITUDE": "-21.1199023", "LONGITUDE": "-42.9280934", "STATUS_OPERACIONAL": "CARTEIRA", "STATUS": "CARTEIRA" }, "geometry": { "type": "Point", "coordinates": [ -42.9280934, -21.1199023 ] } },
{ "type": "Feature", "properties": { "NROCNPJ_PAD": "86570926000138", "NOME_FANTASIA": "EMBRAMACO", "RAZAO_SOCIAL": "EMBRAMACO EMP BRAS DE MATERIAL DE CONSTRUCAO LTDA", "RESPONSAVEL": "JOSEFELIPPEFERESRESKALLA", "MUNICIPIO": "UBA", "ENDEE": "AVENIDA CRISTIANO ROCAS, 194, FUNDOSA, CENTRO, 36500-017, UBÁ, MG, BRASIL", "BANCO": "SICOOB", "LINHA_AVAL_NOME": "Giro", "LATITUDE": "-21.119981", "LONGITUDE": "-42.9368138", "STATUS_OPERACIONAL": "CARTEIRA", "STATUS": "CARTEIRA" }, "geometry": { "type": "Point", "coordinates": [ -42.9368138, -21.119981 ] } },
{ "type": "Feature", "properties": { "NROCNPJ_PAD": "06237027000189", "NOME_FANTASIA": "PHARMODERM", "RAZAO_SOCIAL": "COSTA MARTINS MANIPULACAO DE FORMULAS LTDA", "RESPONSAVEL": "CAIO SIQUEIRA HONORATO|CARMEN LUCIA TEIXEIRA DE SIQUEIRA HONORATO|MELISSACOSTAMARTINSGROPPO|NATALIACOSTAMARTINSDEPAULA", "MUNICIPIO": "UBA", "ENDEE": "RUA SAO JOSE, 375, SALA 204, CENTRO, 36500-026, UBÁ, MG, BRASIL", "BANCO": "SICOOB", "LINHA_AVAL_NOME": "Crédito emergencial", "LATITUDE": "-21.1200284", "LONGITUDE": "-42.9385998", "STATUS_OPERACIONAL": "CARTEIRA", "STATUS": "CARTEIRA" }, "geometry": { "type": "Point", "coordinates": [ -42.9385998, -21.1200284 ] } },
{ "type": "Feature", "properties": { "NROCNPJ_PAD": "30722798000146", "NOME_FANTASIA": "DOCE DESEJO", "RAZAO_SOCIAL": "MIRIAM APARECIDA LEMOS 10193912600", "RESPONSAVEL": "MIRIAMAPARECIDALEMOS", "MUNICIPIO": "UBA", "ENDEE": "RUA SAO JOSE, 375, SALA 202, CENTRO, 36500-026, UBÁ, MG, BRASIL", "BANCO": "SICOOB", "LINHA_AVAL_NOME": "Crédito emergencial", "LATITUDE": "-21.1200284", "LONGITUDE": "-42.9385998", "STATUS_OPERACIONAL": "CARTEIRA", "STATUS": "CARTEIRA" }, "geometry": { "type": "Point", "coordinates": [ -42.9385998, -21.1200284 ] } },
{ "type": "Feature", "properties": { "NROCNPJ_PAD": "25331125000125", "NOME_FANTASIA": "CIAMA", "RAZAO_SOCIAL": "COSTA ANDRADE COMERCIO E INDUSTRIA LTDA", "RESPONSAVEL": "RENATOCODOANDRADE|RITADECASSIAGARCIAGOUVEAANDRADE", "MUNICIPIO": "UBA", "ENDEE": "RUA CONSELHEIRO AUGUSTO CESAR, 27, COPACABANA, 36500-180, UBÁ, MG, BRASIL", "BANCO": "SICOOB", "LINHA_AVAL_NOME": "Giro", "LATITUDE": "-21.1203203", "LONGITUDE": "-42.9334906", "STATUS_OPERACIONAL": "CARTEIRA", "STATUS": "CARTEIRA" }, "geometry": { "type": "Point", "coordinates": [ -42.9334906, -21.1203203 ] } },
{ "type": "Feature", "properties": { "NROCNPJ_PAD": "32295310000177", "NOME_FANTASIA": "-", "RAZAO_SOCIAL": "VIDRACARIA LOTTE PITTA LTDA", "RESPONSAVEL": "RONILDOLOTTIPITA|ROSEMBERGLOTTEPITTA", "MUNICIPIO": "UBA", "ENDEE": "RUA FRANCISCO LAUD, 270, SUBSOLO, OLARIA, 36503-176, UBÁ, MG, BRASIL", "BANCO": "SICOOB", "LINHA_AVAL_NOME": "Giro", "LATITUDE": "-21.1205016", "LONGITUDE": "-42.9104838", "STATUS_OPERACIONAL": "CARTEIRA", "STATUS": "CARTEIRA" }, "geometry": { "type": "Point", "coordinates": [ -42.9104838, -21.1205016 ] } },
{ "type": "Feature", "properties": { "NROCNPJ_PAD": "20878872000164", "NOME_FANTASIA": "SOARES ELETRODOMESTMICOS", "RAZAO_SOCIAL": "EPAMINONDAS SOARES JUNIOR & CIA LTDA", "RESPONSAVEL": "EPAMINONDAS SOARES JUNIOR|MARTA CANDIAN MONTEZE SOARES", "MUNICIPIO": "UBA", "ENDEE": "RUA CORONEL CARLOS BRANDAO, 126, LOJA, CENTRO, 36500-098, UBÁ, MG, BRASIL", "BANCO": "BDMG", "LINHA_AVAL_NOME": "Giro", "LATITUDE": "-21.120514", "LONGITUDE": "-42.941129", "STATUS_OPERACIONAL": "CARTEIRA", "STATUS": "CARTEIRA" }, "geometry": { "type": "Point", "coordinates": [ -42.941129, -21.120514 ] } },
{ "type": "Feature", "properties": { "NROCNPJ_PAD": "56340074000121", "NOME_FANTASIA": "-", "RAZAO_SOCIAL": "56.340.074 RAFAELA DA COSTA PEDROSA VIEIRA", "RESPONSAVEL": "RAFAELADACOSTAPEDROSAVIEIRA", "MUNICIPIO": "UBA", "ENDEE": "RUA CORONEL CARLOS BRANDAO, 125, CENTRO, 36500-098, UBÁ, MG, BRASIL", "BANCO": "SICOOB", "LINHA_AVAL_NOME": "Crédito emergencial", "LATITUDE": "-21.1206407", "LONGITUDE": "-42.940951", "STATUS_OPERACIONAL": "CARTEIRA", "STATUS": "CARTEIRA" }, "geometry": { "type": "Point", "coordinates": [ -42.940951, -21.1206407 ] } },
{ "type": "Feature", "properties": { "NROCNPJ_PAD": "33866121000170", "NOME_FANTASIA": "-", "RAZAO_SOCIAL": "RMG JOIAS LTDA", "RESPONSAVEL": "RAFAEL MARANHAO GONCALVES", "MUNICIPIO": "UBA", "ENDEE": "RUA CORONEL CARLOS BRANDAO, 99, LOJA 1, CENTRO, 36500-098, UBÁ, MG, BRASIL", "BANCO": "BDMG", "LINHA_AVAL_NOME": "Crédito emergencial", "LATITUDE": "-21.1206933", "LONGITUDE": "-42.9407667", "STATUS_OPERACIONAL": "CARTEIRA", "STATUS": "CARTEIRA" }, "geometry": { "type": "Point", "coordinates": [ -42.9407667, -21.1206933 ] } },
{ "type": "Feature", "properties": { "NROCNPJ_PAD": "29361684000139", "NOME_FANTASIA": "R10 LANCHES", "RAZAO_SOCIAL": "QUERLIANE QUEIROZ INACIO SILVA 01477456678", "RESPONSAVEL": "QUERLIANEQUEIROZINACIOSILVA", "MUNICIPIO": "UBA", "ENDEE": "RUA JOSINO CANDIAN, 170, PONTE PRETA, 36503-118, UBÁ, MG, BRASIL", "BANCO": "SICOOB", "LINHA_AVAL_NOME": "Crédito emergencial", "LATITUDE": "-21.1207265", "LONGITUDE": "-42.9136705", "STATUS_OPERACIONAL": "CARTEIRA", "STATUS": "CARTEIRA" }, "geometry": { "type": "Point", "coordinates": [ -42.9136705, -21.1207265 ] } },
{ "type": "Feature", "properties": { "NROCNPJ_PAD": "40550548000120", "NOME_FANTASIA": "ELETRO FERREIRA", "RAZAO_SOCIAL": "40.550.548 MARCIO ANTONIO DA SILVA FERREIRA", "RESPONSAVEL": "MARCIO ANTONIO DA SILVA FERREIRA", "MUNICIPIO": "UBA", "ENDEE": "RUA ANTENOR MACHADO, 258, LOJA B, CENTRO, 36500-012, UBÁ, MG, BRASIL", "BANCO": "SICREDI 2", "LINHA_AVAL_NOME": "Crédito emergencial", "LATITUDE": "-21.1207576", "LONGITUDE": "-42.9352687", "STATUS_OPERACIONAL": "CARTEIRA", "STATUS": "CARTEIRA" }, "geometry": { "type": "Point", "coordinates": [ -42.9352687, -21.1207576 ] } },
{ "type": "Feature", "properties": { "NROCNPJ_PAD": "44221914000158", "NOME_FANTASIA": "-", "RAZAO_SOCIAL": "CJ DECOR MOVELARIA LTDA", "RESPONSAVEL": "CLEBER CANDIAN DA SILVA", "MUNICIPIO": "UBA", "ENDEE": "RUA JOSE AUGUSTO MARCOS, 839, GALPAOC, PONTE PRETA, 36503-132, UBÁ, MG, BRASIL", "BANCO": "BDMG", "LINHA_AVAL_NOME": "Crédito emergencial", "LATITUDE": "-21.1208587", "LONGITUDE": "-42.9039824", "STATUS_OPERACIONAL": "CARTEIRA", "STATUS": "CARTEIRA" }, "geometry": { "type": "Point", "coordinates": [ -42.9039824, -21.1208587 ] } },
{ "type": "Feature", "properties": { "NROCNPJ_PAD": "57151723000109", "NOME_FANTASIA": "MR MULTIMARCAS", "RAZAO_SOCIAL": "ROMA MULTIMARCAS VEICULOS LTDA", "RESPONSAVEL": "-", "MUNICIPIO": "UBA", "ENDEE": "ESTRADA SITIO PARAISO, 350, ZONA RURAL, 36500-971, UBÁ, MG, BRASIL", "BANCO": "BRADESCO", "LINHA_AVAL_NOME": "Empreendedorismo Fem", "LATITUDE": "-21.1208656", "LONGITUDE": "-42.9413096", "STATUS_OPERACIONAL": "CARTEIRA", "STATUS": "CARTEIRA" }, "geometry": { "type": "Point", "coordinates": [ -42.9413096, -21.1208656 ] } },
{ "type": "Feature", "properties": { "NROCNPJ_PAD": "11180591000142", "NOME_FANTASIA": "TRANSCONDE", "RAZAO_SOCIAL": "TRANSCONDE TRANSPORTES LTDA", "RESPONSAVEL": "SERGIOAUGUSTOPIZZIOLOCONDE", "MUNICIPIO": "UBA", "ENDEE": "SITIO BOA VISTA, 01, CP 244, ZONA RURAL, 36500-970, UBÁ, MG, BRASIL", "BANCO": "SICOOB", "LINHA_AVAL_NOME": "Crédito emergencial", "LATITUDE": "-21.1208656", "LONGITUDE": "-42.9413096", "STATUS_OPERACIONAL": "CARTEIRA", "STATUS": "CARTEIRA" }, "geometry": { "type": "Point", "coordinates": [ -42.9413096, -21.1208656 ] } },
{ "type": "Feature", "properties": { "NROCNPJ_PAD": "25065985000164", "NOME_FANTASIA": "PINTURA RENOVO", "RAZAO_SOCIAL": "25.065.985 LEANDRO LOPES FERREIRA", "RESPONSAVEL": "LEANDROLOPESFERREIRA", "MUNICIPIO": "UBA", "ENDEE": "RUA JERONIMO SALGADO, 82, CENTRO, 36500-013, UBÁ, MG, BRASIL", "BANCO": "SICOOB", "LINHA_AVAL_NOME": "Crédito emergencial", "LATITUDE": "-21.1208882", "LONGITUDE": "-42.9372806", "STATUS_OPERACIONAL": "CARTEIRA", "STATUS": "CARTEIRA" }, "geometry": { "type": "Point", "coordinates": [ -42.9372806, -21.1208882 ] } },
{ "type": "Feature", "properties": { "NROCNPJ_PAD": "18996132000180", "NOME_FANTASIA": "REALTEX", "RAZAO_SOCIAL": "PEREGRINO COMERCIO DE ROUPAS E ACESSORIOS LTDA.", "RESPONSAVEL": "DANIELLE DA CUNHA PEREGRINO", "MUNICIPIO": "UBA", "ENDEE": "RUA CARLOS PEIXOTO FILHO, 80, LOJA E, CENTRO, 36500-097, UBÁ, MG, BRASIL", "BANCO": "BDMG", "LINHA_AVAL_NOME": "Crédito emergencial", "LATITUDE": "-21.1209314", "LONGITUDE": "-42.9411223", "STATUS_OPERACIONAL": "CARTEIRA", "STATUS": "CARTEIRA" }, "geometry": { "type": "Point", "coordinates": [ -42.9411223, -21.1209314 ] } },
{ "type": "Feature", "properties": { "NROCNPJ_PAD": "34761953000194", "NOME_FANTASIA": "XODO MOVEIS", "RAZAO_SOCIAL": "CELSO JUNIO TEIXEIRA 12504226632", "RESPONSAVEL": "CELSOJUNIOTEIXEIRA", "MUNICIPIO": "UBA", "ENDEE": "RUA WENCESLAU CAMPOS, 120, MANGUEIRA RURAL, 36503-262, UBÁ, MG, BRASIL", "BANCO": "SICOOB", "LINHA_AVAL_NOME": "Giro", "LATITUDE": "-21.1210951", "LONGITUDE": "-42.898244", "STATUS_OPERACIONAL": "CARTEIRA", "STATUS": "CARTEIRA" }, "geometry": { "type": "Point", "coordinates": [ -42.898244, -21.1210951 ] } },
{ "type": "Feature", "properties": { "NROCNPJ_PAD": "01425410000147", "NOME_FANTASIA": "-", "RAZAO_SOCIAL": "ENGELTE LTDA", "RESPONSAVEL": "JOSEGERALDOHENRIQUEDEOLIVEIRA|SIRLEIGROPPOPARMADEOLIVEIRA", "MUNICIPIO": "UBA", "ENDEE": "RUA MARTINHO FREIRE DE ANDRADE, 25, SALA 1103, CENTRO, 36500-062, UBÁ, MG, BRASIL", "BANCO": "SICOOB", "LINHA_AVAL_NOME": "Crédito emergencial", "LATITUDE": "-21.1211413", "LONGITUDE": "-42.9423684", "STATUS_OPERACIONAL": "CARTEIRA", "STATUS": "CARTEIRA" }, "geometry": { "type": "Point", "coordinates": [ -42.9423684, -21.1211413 ] } },
{ "type": "Feature", "properties": { "NROCNPJ_PAD": "03193660000124", "NOME_FANTASIA": "CONTEL CONTABILIDADE", "RAZAO_SOCIAL": "CONTEL CONTABILIDADE LTDA", "RESPONSAVEL": "MARIAGORETVIEIRA", "MUNICIPIO": "UBA", "ENDEE": "RUA LUDUVINO JOSE PIZZIOLO, 15, COPACABANA, 36500-001, UBÁ, MG, BRASIL", "BANCO": "SICOOB", "LINHA_AVAL_NOME": "Giro", "LATITUDE": "-21.1212107", "LONGITUDE": "-42.9317186", "STATUS_OPERACIONAL": "CARTEIRA", "STATUS": "CARTEIRA" }, "geometry": { "type": "Point", "coordinates": [ -42.9317186, -21.1212107 ] } },
{ "type": "Feature", "properties": { "NROCNPJ_PAD": "31024187000197", "NOME_FANTASIA": "GV MOBILE", "RAZAO_SOCIAL": "GV MOBILE LTDA", "RESPONSAVEL": "GABRIEL VARELA", "MUNICIPIO": "UBA", "ENDEE": "AVENIDA PAULINO FERNANDES, 895, PAULINO FERNANDES III, 36503-080, UBÁ, MG, BRASIL", "BANCO": "BDMG", "LINHA_AVAL_NOME": "Crédito emergencial", "LATITUDE": "-21.1213021", "LONGITUDE": "-42.9174785", "STATUS_OPERACIONAL": "CARTEIRA", "STATUS": "CARTEIRA" }, "geometry": { "type": "Point", "coordinates": [ -42.9174785, -21.1213021 ] } },
{ "type": "Feature", "properties": { "NROCNPJ_PAD": "34062599000100", "NOME_FANTASIA": "DEDETIZADORA PAIS & FILHOS", "RAZAO_SOCIAL": "SINGULANI DETETIZACAO LTDA.", "RESPONSAVEL": "LUIS DE ASSIS SINGULANI", "MUNICIPIO": "UBA", "ENDEE": "RUA JOSE DA COSTA MARQUES, 202, PONTE PRETA, 36503-116, UBÁ, MG, BRASIL", "BANCO": "BDMG", "LINHA_AVAL_NOME": "Crédito emergencial", "LATITUDE": "-21.1213281", "LONGITUDE": "-42.9138846", "STATUS_OPERACIONAL": "CARTEIRA", "STATUS": "CARTEIRA" }, "geometry": { "type": "Point", "coordinates": [ -42.9138846, -21.1213281 ] } },
{ "type": "Feature", "properties": { "NROCNPJ_PAD": "48493364000187", "NOME_FANTASIA": "M R DECOR", "RAZAO_SOCIAL": "M R DECOR INDUSTRIA E COMERCIO LTDA", "RESPONSAVEL": "HIAGODESOUZAPEREIRA", "MUNICIPIO": "UBA", "ENDEE": "RUA JOSE BETIO, 108, GALPAO, MANGUEIRA RURAL, 36503-260, UBÁ, MG, BRASIL", "BANCO": "SICOOB", "LINHA_AVAL_NOME": "Crédito emergencial", "LATITUDE": "-21.121608", "LONGITUDE": "-42.898183", "STATUS_OPERACIONAL": "CARTEIRA", "STATUS": "CARTEIRA" }, "geometry": { "type": "Point", "coordinates": [ -42.898183, -21.121608 ] } },
{ "type": "Feature", "properties": { "NROCNPJ_PAD": "43889776000117", "NOME_FANTASIA": "LIVIA ARAUJO", "RAZAO_SOCIAL": "LIVIA ARAUJO DE PAULA", "RESPONSAVEL": "LIVIAARAUJODEPAULA", "MUNICIPIO": "UBA", "ENDEE": "AVENIDA OLEGARIO MACIEL, 558, LOJA 3, INDUSTRIAL, 36502-000, UBÁ, MG, BRASIL", "BANCO": "SICOOB", "LINHA_AVAL_NOME": "Crédito emergencial", "LATITUDE": "-21.1216238", "LONGITUDE": "-42.9267436", "STATUS_OPERACIONAL": "CARTEIRA", "STATUS": "CARTEIRA" }, "geometry": { "type": "Point", "coordinates": [ -42.9267436, -21.1216238 ] } },
{ "type": "Feature", "properties": { "NROCNPJ_PAD": "32496787000110", "NOME_FANTASIA": "DUE DECOR", "RAZAO_SOCIAL": "JEFFERSON DA SILVA DELAZARI", "RESPONSAVEL": "JEFFERSONDASILVADELAZARI", "MUNICIPIO": "UBA", "ENDEE": "RUA JOAO SPERANDIO, 1150, GALPAOC, MANGUEIRA RURAL, 36503-256, UBÁ, MG, BRASIL", "BANCO": "SICOOB", "LINHA_AVAL_NOME": "Crédito emergencial", "LATITUDE": "-21.1217308", "LONGITUDE": "-42.9005904", "STATUS_OPERACIONAL": "CARTEIRA", "STATUS": "CARTEIRA" }, "geometry": { "type": "Point", "coordinates": [ -42.9005904, -21.1217308 ] } },
{ "type": "Feature", "properties": { "NROCNPJ_PAD": "41192967000108", "NOME_FANTASIA": "-", "RAZAO_SOCIAL": "LETICIA FERNANDES ALVES LTDA", "RESPONSAVEL": "LETICIAFERNANDESALVES", "MUNICIPIO": "UBA", "ENDEE": "RUA TREZE DE MAIO, 95, SALA 608, CENTRO, 36500-061, UBÁ, MG, BRASIL", "BANCO": "SICOOB", "LINHA_AVAL_NOME": "Crédito emergencial", "LATITUDE": "-21.1218616", "LONGITUDE": "-42.9417899", "STATUS_OPERACIONAL": "CARTEIRA", "STATUS": "CARTEIRA" }, "geometry": { "type": "Point", "coordinates": [ -42.9417899, -21.1218616 ] } },
{ "type": "Feature", "properties": { "NROCNPJ_PAD": "61392891000163", "NOME_FANTASIA": "OUVIR CUIDADOS AUDITIVOS", "RAZAO_SOCIAL": "OUVIR CUIDADOS AUDITIVOS LTDA", "RESPONSAVEL": "LUCIENE ALMEIDA CHAGAS", "MUNICIPIO": "UBA", "ENDEE": "RUA TREZE DE MAIO, 95, LOJA 107, CENTRO, 36500-061, UBÁ, MG, BRASIL", "BANCO": "BDMG", "LINHA_AVAL_NOME": "Crédito emergencial", "LATITUDE": "-21.1218616", "LONGITUDE": "-42.9417899", "STATUS_OPERACIONAL": "CARTEIRA", "STATUS": "CARTEIRA" }, "geometry": { "type": "Point", "coordinates": [ -42.9417899, -21.1218616 ] } },
{ "type": "Feature", "properties": { "NROCNPJ_PAD": "29364550000171", "NOME_FANTASIA": "BAR E MERCEARIA VITOR", "RAZAO_SOCIAL": "CLEMILSON DE ALMEIDA RIBEIRO 05216413650", "RESPONSAVEL": "CLEMILSONDEALMEIDARIBEIRO", "MUNICIPIO": "UBA", "ENDEE": "AVENIDA OLEGARIO MACIEL, 1843, INDUSTRIAL, 36500-001, UBÁ, MG, BRASIL", "BANCO": "SICOOB", "LINHA_AVAL_NOME": "Giro", "LATITUDE": "-21.1218782", "LONGITUDE": "-42.9168402", "STATUS_OPERACIONAL": "CARTEIRA", "STATUS": "CARTEIRA" }, "geometry": { "type": "Point", "coordinates": [ -42.9168402, -21.1218782 ] } },
{ "type": "Feature", "properties": { "NROCNPJ_PAD": "38045447000150", "NOME_FANTASIA": "PLINIO CONTABILIDADE", "RAZAO_SOCIAL": "H.B. ASSESSORIA CONTABIL LTDA", "RESPONSAVEL": "HERCULES DE OLIVEIRA TESTA", "MUNICIPIO": "UBA", "ENDEE": "RUA NOSSA SENHORA APARECIDA, 47, INDUSTRIAL, 36502-028, UBÁ, MG, BRASIL", "BANCO": "BDMG", "LINHA_AVAL_NOME": "Crédito emergencial", "LATITUDE": "-21.1220562", "LONGITUDE": "-42.9253036", "STATUS_OPERACIONAL": "CARTEIRA", "STATUS": "CARTEIRA" }, "geometry": { "type": "Point", "coordinates": [ -42.9253036, -21.1220562 ] } },
{ "type": "Feature", "properties": { "NROCNPJ_PAD": "57125603000137", "NOME_FANTASIA": "-", "RAZAO_SOCIAL": "CAROLINA ELIAS SOCIEDADE INDIVIDUAL DE ADVOCACIA", "RESPONSAVEL": "CAROLINA FERNANDES RINO CARDOSO ELIAS", "MUNICIPIO": "UBA", "ENDEE": "RUA DOUTOR ANGELO BARLETA, 185, CENTRO, 36500-057, UBÁ, MG, BRASIL", "BANCO": "SICREDI 2", "LINHA_AVAL_NOME": "Crédito emergencial", "LATITUDE": "-21.122442", "LONGITUDE": "-42.9455061", "STATUS_OPERACIONAL": "FORA DO ESCOPO", "STATUS": "FORA DO ESCOPO" }, "geometry": { "type": "Point", "coordinates": [ -42.9455061, -21.122442 ] } },
{ "type": "Feature", "properties": { "NROCNPJ_PAD": "58114258000107", "NOME_FANTASIA": "LABORMINAS", "RAZAO_SOCIAL": "LABOR MINAS LTDA", "RESPONSAVEL": "ROMULOBALBINOLIMADACOSTA", "MUNICIPIO": "UBA", "ENDEE": "AVENIDA OLEGARIO MACIEL, 1709, LOJA A, INDUSTRIAL, 36502-000, UBÁ, MG, BRASIL", "BANCO": "SICOOB", "LINHA_AVAL_NOME": "Crédito emergencial", "LATITUDE": "-21.1229183", "LONGITUDE": "-42.9169062", "STATUS_OPERACIONAL": "CARTEIRA", "STATUS": "CARTEIRA" }, "geometry": { "type": "Point", "coordinates": [ -42.9169062, -21.1229183 ] } },
{ "type": "Feature", "properties": { "NROCNPJ_PAD": "46270678000195", "NOME_FANTASIA": "WAGAO ESTETICA AUTOMOTIVA", "RAZAO_SOCIAL": "WAGNER JUSTE DOS SANTOS 04855366684", "RESPONSAVEL": "WAGNERJUSTEDOSSANTOS", "MUNICIPIO": "UBA", "ENDEE": "RUA DOUTOR ADJALME MARTINS CARNEIRO, 139, BOA VISTA, 36501-020, UBÁ, MG, BRASIL", "BANCO": "SICOOB", "LINHA_AVAL_NOME": "Giro", "LATITUDE": "-21.1229643", "LONGITUDE": "-42.9327224", "STATUS_OPERACIONAL": "CARTEIRA", "STATUS": "CARTEIRA" }, "geometry": { "type": "Point", "coordinates": [ -42.9327224, -21.1229643 ] } },
{ "type": "Feature", "properties": { "NROCNPJ_PAD": "40961176000124", "NOME_FANTASIA": "TOTAL HIIT", "RAZAO_SOCIAL": "FELIPE DOS REIS PADILHA 08978057632", "RESPONSAVEL": "FELIPEDOSREISPADILHA", "MUNICIPIO": "UBA", "ENDEE": "RUA LENIR GUIZILINI DE ANDRADE, 86, APT 102, INDUSTRIAL, 36502-058, UBÁ, MG, BRASIL", "BANCO": "SICOOB", "LINHA_AVAL_NOME": "Crédito emergencial", "LATITUDE": "-21.1231354", "LONGITUDE": "-42.9257885", "STATUS_OPERACIONAL": "CARTEIRA", "STATUS": "CARTEIRA" }, "geometry": { "type": "Point", "coordinates": [ -42.9257885, -21.1231354 ] } },
{ "type": "Feature", "properties": { "NROCNPJ_PAD": "59810867000155", "NOME_FANTASIA": "COKRE PLANEJADOS", "RAZAO_SOCIAL": "COKRE DESIGN MOVEIS LTDA", "RESPONSAVEL": "ANDREROCHA|TIAGOROSSIGANDA", "MUNICIPIO": "TOCANTINS", "ENDEE": "RUA ANTONIO CATALDO, 35, GALPAO LOTE 3, BOA VISTA, 36512-000, TOCANTINS", "BANCO": "SICOOB", "LINHA_AVAL_NOME": "GIRO", "LATITUDE": "-21.1231717", "LONGITUDE": "-42.9516067", "STATUS_OPERACIONAL": "CARTEIRA", "STATUS": "CARTEIRA" }, "geometry": { "type": "Point", "coordinates": [ -42.9516067, -21.1231717 ] } },
{ "type": "Feature", "properties": { "NROCNPJ_PAD": "03532201000128", "NOME_FANTASIA": "HIDROELETRICA J A", "RAZAO_SOCIAL": "JERRI LUIZ TEIXEIRA & CIA LTDA", "RESPONSAVEL": "ELIANE RODRIGUES CARMANINI|JERRILUIZTEIXEIRA|LAIANACARMANINITEIXEIRA", "MUNICIPIO": "UBA", "ENDEE": "AVENIDA OLEGARIO MACIEL, 1166, LOJA, INDUSTRIAL, 36502-002, UBÁ, MG, BRASIL", "BANCO": "SICOOB", "LINHA_AVAL_NOME": "Giro", "LATITUDE": "-21.1236109", "LONGITUDE": "-42.9208954", "STATUS_OPERACIONAL": "CARTEIRA", "STATUS": "CARTEIRA" }, "geometry": { "type": "Point", "coordinates": [ -42.9208954, -21.1236109 ] } },
{ "type": "Feature", "properties": { "NROCNPJ_PAD": "03506788000109", "NOME_FANTASIA": "-", "RAZAO_SOCIAL": "CARLOS DIESEL LTDA", "RESPONSAVEL": "ALESSANDRAGOMIDESEDUARDO|EDSONRIBEIROFERRAREZ|JOSECARLOSTEIXEIRA", "MUNICIPIO": "UBA", "ENDEE": "RODOVIA UBA-GUIDOVAL, 3600, A, EIXO RODOVIARIO, 36500-001, UBÁ, MG, BRASIL", "BANCO": "SICOOB", "LINHA_AVAL_NOME": "Giro", "LATITUDE": "-21.1241083", "LONGITUDE": "-42.916745", "STATUS_OPERACIONAL": "CARTEIRA", "STATUS": "CARTEIRA" }, "geometry": { "type": "Point", "coordinates": [ -42.916745, -21.1241083 ] } },
{ "type": "Feature", "properties": { "NROCNPJ_PAD": "08197409000151", "NOME_FANTASIA": "GOLDLAR DISTRIBUIDORA", "RAZAO_SOCIAL": "GOLDLAR COMERCIO E SERVICO LTDA", "RESPONSAVEL": "LUCIANOMARQUESCORZINO|MARCILEYVIRGILINOMARQUESCORZINO", "MUNICIPIO": "UBA", "ENDEE": "RODOVIA MGT 265, 2000, EIXO RODOVIARIO, 36500-001, UBÁ, MG, BRASIL", "BANCO": "SICOOB", "LINHA_AVAL_NOME": "Crédito emergencial", "LATITUDE": "-21.1241569", "LONGITUDE": "-42.917645", "STATUS_OPERACIONAL": "CARTEIRA", "STATUS": "CARTEIRA" }, "geometry": { "type": "Point", "coordinates": [ -42.917645, -21.1241569 ] } },
{ "type": "Feature", "properties": { "NROCNPJ_PAD": "37112584000105", "NOME_FANTASIA": "-", "RAZAO_SOCIAL": "GEFER HOTEL LTDA", "RESPONSAVEL": "FERNANDOSERGIOCOELHO", "MUNICIPIO": "UBA", "ENDEE": "TRAVESSA EDSON DE MELO, 36, CENTRO, 36500-036, UBÁ, MG, BRASIL", "BANCO": "SICOOB", "LINHA_AVAL_NOME": "Crédito emergencial", "LATITUDE": "-21.124167", "LONGITUDE": "-42.938913", "STATUS_OPERACIONAL": "CARTEIRA", "STATUS": "CARTEIRA" }, "geometry": { "type": "Point", "coordinates": [ -42.938913, -21.124167 ] } },
{ "type": "Feature", "properties": { "NROCNPJ_PAD": "28859793000118", "NOME_FANTASIA": "MG COMPRESSORES E FREITOS", "RAZAO_SOCIAL": "MG COMPRESSORES E FREIOS LTDA", "RESPONSAVEL": "GILBERTOZANETTINICACIO|LUCIANOEUSTAQUIOREZENDE", "MUNICIPIO": "UBA", "ENDEE": "AVENIDA OLEGARIO MACIEL, 1510, GALPAO, INDUSTRIAL, 36502-002, UBÁ, MG, BRASIL", "BANCO": "SICOOB", "LINHA_AVAL_NOME": "Giro", "LATITUDE": "-21.1242695", "LONGITUDE": "-42.9173596", "STATUS_OPERACIONAL": "CARTEIRA", "STATUS": "CARTEIRA" }, "geometry": { "type": "Point", "coordinates": [ -42.9173596, -21.1242695 ] } },
{ "type": "Feature", "properties": { "NROCNPJ_PAD": "07324697000103", "NOME_FANTASIA": "FISIOCAP", "RAZAO_SOCIAL": "FISIOCAP FISIOTERAPIA E MEDICINA CAMILLOTTO PERON LTDA", "RESPONSAVEL": "ANGELO CAMILLOTTO TERCEIRO|ARLENE CAMILLOTTO", "MUNICIPIO": "UBA", "ENDEE": "RUA MAURI MARTINS DE OLIVEIRA, 142, LOJA 2, SANTA BERNADETE, 36502-150, UBÁ, MG, BRASIL", "BANCO": "BDMG", "LINHA_AVAL_NOME": "Crédito emergencial", "LATITUDE": "-21.1242821", "LONGITUDE": "-42.9232596", "STATUS_OPERACIONAL": "CARTEIRA", "STATUS": "CARTEIRA" }, "geometry": { "type": "Point", "coordinates": [ -42.9232596, -21.1242821 ] } },
{ "type": "Feature", "properties": { "NROCNPJ_PAD": "31186477000137", "NOME_FANTASIA": "RWR MOVEIS E DECORACOES", "RAZAO_SOCIAL": "WELLINGTON OLIVEIRA SOUZA 04427448623", "RESPONSAVEL": "WELLINGTONOLIVEIRASOUZA", "MUNICIPIO": "UBA", "ENDEE": "AVENIDA OLEGARIO MACIEL, 1317, INDUSTRIAL, 36502-000, UBÁ, MG, BRASIL", "BANCO": "SICOOB", "LINHA_AVAL_NOME": "Crédito emergencial", "LATITUDE": "-21.124495", "LONGITUDE": "-42.92004", "STATUS_OPERACIONAL": "CARTEIRA", "STATUS": "CARTEIRA" }, "geometry": { "type": "Point", "coordinates": [ -42.92004, -21.124495 ] } },
{ "type": "Feature", "properties": { "NROCNPJ_PAD": "26119883000147", "NOME_FANTASIA": "-", "RAZAO_SOCIAL": "J B S CONTABILIDADE LTDA", "RESPONSAVEL": "JOAO BATISTA PINTO DA SILVA", "MUNICIPIO": "UBA", "ENDEE": "RUA SANTO ANTONIO, 418, CENTRO, 36500-037, UBÁ, MG, BRASIL", "BANCO": "BDMG", "LINHA_AVAL_NOME": "Crédito emergencial", "LATITUDE": "-21.1247637", "LONGITUDE": "-42.9389426", "STATUS_OPERACIONAL": "CARTEIRA", "STATUS": "CARTEIRA" }, "geometry": { "type": "Point", "coordinates": [ -42.9389426, -21.1247637 ] } },
{ "type": "Feature", "properties": { "NROCNPJ_PAD": "24513118000181", "NOME_FANTASIA": "HB DIESEL", "RAZAO_SOCIAL": "OFICINA TEIXEIRA E CAMPOS DIESEL LTDA", "RESPONSAVEL": "RONALDO FERREIRA CAMPOS|ROSANGELA DA SILVA CAMPOS", "MUNICIPIO": "UBA", "ENDEE": "AVENIDA LUIZ PARMA, 150, NOSSA SENHORA DE FATIMA, 36500-001, UBÁ, MG, BRASIL", "BANCO": "BDMG", "LINHA_AVAL_NOME": "Crédito emergencial", "LATITUDE": "-21.1250828", "LONGITUDE": "-42.9163118", "STATUS_OPERACIONAL": "CARTEIRA", "STATUS": "CARTEIRA" }, "geometry": { "type": "Point", "coordinates": [ -42.9163118, -21.1250828 ] } },
{ "type": "Feature", "properties": { "NROCNPJ_PAD": "51297405000174", "NOME_FANTASIA": "PAMELA LOPES PROPAGANDAS E PUBLICIDADES", "RAZAO_SOCIAL": "51.297.405 PAMELA APARECIDA LOPES", "RESPONSAVEL": "PAMELAAPARECIDALOPES", "MUNICIPIO": "UBA", "ENDEE": "RUA SANTA CATARINA, 150, SANTA BERNADETE, 36502-152, UBÁ, MG, BRASIL", "BANCO": "SICOOB", "LINHA_AVAL_NOME": "Giro", "LATITUDE": "-21.1252053", "LONGITUDE": "-42.9225289", "STATUS_OPERACIONAL": "CARTEIRA", "STATUS": "CARTEIRA" }, "geometry": { "type": "Point", "coordinates": [ -42.9225289, -21.1252053 ] } },
{ "type": "Feature", "properties": { "NROCNPJ_PAD": "11152842000185", "NOME_FANTASIA": "FRIGORIFICO TALENTO", "RAZAO_SOCIAL": "FRIGORIFICO TALENTO LTDA", "RESPONSAVEL": "JIVAGOMARQUESPARMA", "MUNICIPIO": "UBA", "ENDEE": "RUA ORESTES BOVARETO PARMA, 65, NOSSA SENHORA DE FATIMA, 36502-112, UBÁ, MG, BRASIL", "BANCO": "SICOOB", "LINHA_AVAL_NOME": "Crédito emergencial", "LATITUDE": "-21.1267233", "LONGITUDE": "-42.9146945", "STATUS_OPERACIONAL": "CARTEIRA", "STATUS": "CARTEIRA" }, "geometry": { "type": "Point", "coordinates": [ -42.9146945, -21.1267233 ] } },
{ "type": "Feature", "properties": { "NROCNPJ_PAD": "55082019000116", "NOME_FANTASIA": "-", "RAZAO_SOCIAL": "SS DISTRIBUIDORA LTDA", "RESPONSAVEL": "ITALOSILVADESOUZA", "MUNICIPIO": "UBA", "ENDEE": "RUA FRANCISCO TEIXEIRA DE ABREU, 450, LOJA A, PALMEIRAS, 36502-210, UBÁ, MG, BRASIL", "BANCO": "SICOOB", "LINHA_AVAL_NOME": "Giro", "LATITUDE": "-21.1275669", "LONGITUDE": "-42.9345605", "STATUS_OPERACIONAL": "CARTEIRA", "STATUS": "CARTEIRA" }, "geometry": { "type": "Point", "coordinates": [ -42.9345605, -21.1275669 ] } },
{ "type": "Feature", "properties": { "NROCNPJ_PAD": "07952709000136", "NOME_FANTASIA": "-", "RAZAO_SOCIAL": "INDUSTRIA DE ROUPAS PEIXOTO LTDA", "RESPONSAVEL": "ELISANGELADEOLIVEIRAPEIXOTO|NILCEMARIADURIGUETTOPEIXOTO", "MUNICIPIO": "UBA", "ENDEE": "RUA FRANCISCO TEIXEIRA DE ABREU, 513, LOJA 01, PALMEIRAS, 36502-210, UBÁ, MG, BRASIL", "BANCO": "SICOOB", "LINHA_AVAL_NOME": "Crédito emergencial", "LATITUDE": "-21.1279347", "LONGITUDE": "-42.9341694", "STATUS_OPERACIONAL": "CARTEIRA", "STATUS": "CARTEIRA" }, "geometry": { "type": "Point", "coordinates": [ -42.9341694, -21.1279347 ] } },
{ "type": "Feature", "properties": { "NROCNPJ_PAD": "44415946000194", "NOME_FANTASIA": "ZM EXTINTORES", "RAZAO_SOCIAL": "ZM EXTINTORES LTDA", "RESPONSAVEL": "SANDRO COSTA SIMIQUEL", "MUNICIPIO": "UBA", "ENDEE": "AVENIDA AMADEU SCHIAVON, 169, LOJA 01, PALMEIRAS, 36502-220, UBÁ, MG, BRASIL", "BANCO": "BDMG", "LINHA_AVAL_NOME": "Giro", "LATITUDE": "-21.1283093", "LONGITUDE": "-42.9385775", "STATUS_OPERACIONAL": "CARTEIRA", "STATUS": "CARTEIRA" }, "geometry": { "type": "Point", "coordinates": [ -42.9385775, -21.1283093 ] } },
{ "type": "Feature", "properties": { "NROCNPJ_PAD": "47137571000136", "NOME_FANTASIA": "-", "RAZAO_SOCIAL": "J'ADORE DECOR MOVEIS LTDA", "RESPONSAVEL": "ANACLARAARRIGHIOLIVEIRA", "MUNICIPIO": "UBA", "ENDEE": "RUA PROFESSOR FRANCISCO ARTHIDORO DA COSTA, 200, LETRA B, PALMEIRAS, 36502-213, UBÁ, MG, BRASIL", "BANCO": "SICOOB", "LINHA_AVAL_NOME": "Crédito emergencial", "LATITUDE": "-21.1287066", "LONGITUDE": "-42.933284", "STATUS_OPERACIONAL": "CARTEIRA", "STATUS": "CARTEIRA" }, "geometry": { "type": "Point", "coordinates": [ -42.933284, -21.1287066 ] } },
{ "type": "Feature", "properties": { "NROCNPJ_PAD": "29413957000141", "NOME_FANTASIA": "PRIME REPRESENTACOES", "RAZAO_SOCIAL": "DANIEL CLEMENTE LTDA", "RESPONSAVEL": "DANIELCLEMENTE", "MUNICIPIO": "UBA", "ENDEE": "RUA JOAO BRANDO FILHO, 105, APT 101, VITORIA, 36500-250, UBÁ, MG, BRASIL", "BANCO": "SICOOB", "LINHA_AVAL_NOME": "Crédito emergencial", "LATITUDE": "-21.1289431", "LONGITUDE": "-42.9459159", "STATUS_OPERACIONAL": "CARTEIRA", "STATUS": "CARTEIRA" }, "geometry": { "type": "Point", "coordinates": [ -42.9459159, -21.1289431 ] } },
{ "type": "Feature", "properties": { "NROCNPJ_PAD": "07057929000104", "NOME_FANTASIA": "VASSOURAS CAROL", "RAZAO_SOCIAL": "VASSOURAS CAROL E CIA LTDA", "RESPONSAVEL": "ITAMARMOREIRAGROSSI|KAROLAINEDESOUSAGROSSI", "MUNICIPIO": "UBA", "ENDEE": "AVENIDA JOAO SCHIAVON, 288, SERVICOS, PALMEIRAS, 36502-224, UBÁ, MG, BRASIL", "BANCO": "SICOOB", "LINHA_AVAL_NOME": "Giro", "LATITUDE": "-21.1294501", "LONGITUDE": "-42.9382085", "STATUS_OPERACIONAL": "CARTEIRA", "STATUS": "CARTEIRA" }, "geometry": { "type": "Point", "coordinates": [ -42.9382085, -21.1294501 ] } },
{ "type": "Feature", "properties": { "NROCNPJ_PAD": "28232359000103", "NOME_FANTASIA": "-", "RAZAO_SOCIAL": "28.232.359 ALEXANDER HENRIQUE RIBEIRO BRAGA", "RESPONSAVEL": "ALEXANDERHENRIQUERIBEIROBRAGA", "MUNICIPIO": "UBA", "ENDEE": "RUA MARIEL BENJAMIN DOS SANTOS, 129, CASA A, SAO JUDAS TADEU, 36502-284, UBÁ, MG, BRASIL", "BANCO": "SICOOB", "LINHA_AVAL_NOME": "Crédito emergencial", "LATITUDE": "-21.1315973", "LONGITUDE": "-42.9307887", "STATUS_OPERACIONAL": "CARTEIRA", "STATUS": "CARTEIRA" }, "geometry": { "type": "Point", "coordinates": [ -42.9307887, -21.1315973 ] } },
{ "type": "Feature", "properties": { "NROCNPJ_PAD": "53705732000143", "NOME_FANTASIA": "ALUAP ESTOFADOS LTDA", "RAZAO_SOCIAL": "ALUAP ESTOFADOS LTDA", "RESPONSAVEL": "ADEMIR DE PAULA", "MUNICIPIO": "UBA", "ENDEE": "RUA PROFESSOR FRANCISCO ARTHIDORO DA COSTA, 120, PALMEIRAS, 36502-213, UBÁ, MG, BRASIL", "BANCO": "SICOOB", "LINHA_AVAL_NOME": "Crédito emergencial", "LATITUDE": "-21.1319017", "LONGITUDE": "-42.9317766", "STATUS_OPERACIONAL": "CARTEIRA", "STATUS": "CARTEIRA" }, "geometry": { "type": "Point", "coordinates": [ -42.9317766, -21.1319017 ] } },
{ "type": "Feature", "properties": { "NROCNPJ_PAD": "55989387000142", "NOME_FANTASIA": "INOVA ROTULOS", "RAZAO_SOCIAL": "INOVA ROTULOS E ETIQUETAS ADESIVAS LTDA", "RESPONSAVEL": "LUANA BAIAO DOS SANTOS|NILSONDOSSANTOSJUNIOR", "MUNICIPIO": "UBA", "ENDEE": "RUA PROFESSOR FRANCISCO ARTHIDORO DA COSTA, 231, PALMEIRAS, 36502-213, UBÁ, MG, BRASIL", "BANCO": "BDMG", "LINHA_AVAL_NOME": "Crédito emergencial", "LATITUDE": "-21.1320864", "LONGITUDE": "-42.9309744", "STATUS_OPERACIONAL": "CARTEIRA", "STATUS": "CARTEIRA" }, "geometry": { "type": "Point", "coordinates": [ -42.9309744, -21.1320864 ] } },
{ "type": "Feature", "properties": { "NROCNPJ_PAD": "54497518000101", "NOME_FANTASIA": "FENOMENO ELETRONICOS", "RAZAO_SOCIAL": "COMERCIAL RESENDE E XAVIER LTDA", "RESPONSAVEL": "AMANDAXAVIERDAROCHA|WELLINGTONLUIZRESENDE", "MUNICIPIO": "UBA", "ENDEE": "RUA LUIZ DE MATOS, 268, VILA REGINA, 36501-182, UBÁ, MG, BRASIL", "BANCO": "SICOOB", "LINHA_AVAL_NOME": "Giro", "LATITUDE": "-21.1337142", "LONGITUDE": "-42.9434154", "STATUS_OPERACIONAL": "CARTEIRA", "STATUS": "CARTEIRA" }, "geometry": { "type": "Point", "coordinates": [ -42.9434154, -21.1337142 ] } },
{ "type": "Feature", "properties": { "NROCNPJ_PAD": "42674989000169", "NOME_FANTASIA": "LUPS SPORTS", "RAZAO_SOCIAL": "LUPS SPORTS LTDA", "RESPONSAVEL": "LUIS FELIPE GONCALVES DA SILVA|SULAMITA ALMEIDA CARDOSO", "MUNICIPIO": "UBA", "ENDEE": "RUA RAIMUNDO CANDIDO DA COSTA, 275, VILA CASAL, 36501-108, UBÁ, MG, BRASIL", "BANCO": "BDMG", "LINHA_AVAL_NOME": "Crédito emergencial", "LATITUDE": "-21.1338406", "LONGITUDE": "-42.9391329", "STATUS_OPERACIONAL": "CARTEIRA", "STATUS": "CARTEIRA" }, "geometry": { "type": "Point", "coordinates": [ -42.9391329, -21.1338406 ] } },
{ "type": "Feature", "properties": { "NROCNPJ_PAD": "42386496000123", "NOME_FANTASIA": "MOVEIS BOM DE PRECO", "RAZAO_SOCIAL": "MOVEIS BOM DE PRECO LTDA", "RESPONSAVEL": "JOAO CARLOS FERNANDES JUNIOR", "MUNICIPIO": "UBA", "ENDEE": "RUA FRANCISCO TEIXEIRA DE ABREU, 1281, 1O. PAVIMENTO, PALMEIRAS, 36502-210, UBÁ, MG, BRASIL", "BANCO": "BDMG", "LINHA_AVAL_NOME": "Crédito emergencial", "LATITUDE": "-21.1341861", "LONGITUDE": "-42.9314299", "STATUS_OPERACIONAL": "CARTEIRA", "STATUS": "CARTEIRA" }, "geometry": { "type": "Point", "coordinates": [ -42.9314299, -21.1341861 ] } },
{ "type": "Feature", "properties": { "NROCNPJ_PAD": "33287066000163", "NOME_FANTASIA": "C F TREZENTOS", "RAZAO_SOCIAL": "CONDICIONAMENTO FISICO SPARTA LTDA", "RESPONSAVEL": "RONALDO COSTA MARQUES", "MUNICIPIO": "UBA", "ENDEE": "RUA JOSE CAMPOMIZZI, 121, LOJA 01, CENTRO, 36500-104, UBÁ, MG, BRASIL", "BANCO": "BDMG", "LINHA_AVAL_NOME": "Crédito emergencial", "LATITUDE": "-21.1343357", "LONGITUDE": "-42.9291341", "STATUS_OPERACIONAL": "CARTEIRA", "STATUS": "CARTEIRA" }, "geometry": { "type": "Point", "coordinates": [ -42.9291341, -21.1343357 ] } },
{ "type": "Feature", "properties": { "NROCNPJ_PAD": "26662891000135", "NOME_FANTASIA": "NOBRE ESTOFADOS", "RAZAO_SOCIAL": "VIVIANE APOLINARIO DE ANDRADE GONCALVES", "RESPONSAVEL": "VIVIANEAPOLINARIODEANDRADEGONCALVES", "MUNICIPIO": "UBA", "ENDEE": "RUA MAURICIO BAIAO GAZOLLA, 140, GALPAO01, SAO JOSE, 36501-150, UBÁ, MG, BRASIL", "BANCO": "SICOOB", "LINHA_AVAL_NOME": "Crédito emergencial", "LATITUDE": "-21.1355182", "LONGITUDE": "-42.9398189", "STATUS_OPERACIONAL": "CARTEIRA", "STATUS": "CARTEIRA" }, "geometry": { "type": "Point", "coordinates": [ -42.9398189, -21.1355182 ] } },
{ "type": "Feature", "properties": { "NROCNPJ_PAD": "49126862000154", "NOME_FANTASIA": "A.M. DE OLIVEIRA", "RAZAO_SOCIAL": "COA-FACIL INDUSTRIA E COMERCIO LTDA", "RESPONSAVEL": "LUCASBELLISANTOS", "MUNICIPIO": "UBA", "ENDEE": "RUA FRANCISCO TEIXEIRA DE ABREU, 1781, CONCORDIA, 36502-350, UBÁ, MG, BRASIL", "BANCO": "SICOOB", "LINHA_AVAL_NOME": "Crédito emergencial", "LATITUDE": "-21.1387413", "LONGITUDE": "-42.9285912", "STATUS_OPERACIONAL": "CARTEIRA", "STATUS": "CARTEIRA" }, "geometry": { "type": "Point", "coordinates": [ -42.9285912, -21.1387413 ] } },
{ "type": "Feature", "properties": { "NROCNPJ_PAD": "45434155000174", "NOME_FANTASIA": "-", "RAZAO_SOCIAL": "CENTRO MINAS IND. E COM. LTDA", "RESPONSAVEL": "DANIELEBELLIRINOLIMADOSSANTOS", "MUNICIPIO": "UBA", "ENDEE": "RUA FRANCISCO TEIXEIRA DE ABREU, 1745, GALPAOGALPAO, PALMEIRAS, 36502-210, UBÁ, MG, BRASIL", "BANCO": "SICOOB", "LINHA_AVAL_NOME": "Crédito emergencial", "LATITUDE": "-21.1391695", "LONGITUDE": "-42.9284456", "STATUS_OPERACIONAL": "CARTEIRA", "STATUS": "CARTEIRA" }, "geometry": { "type": "Point", "coordinates": [ -42.9284456, -21.1391695 ] } },
{ "type": "Feature", "properties": { "NROCNPJ_PAD": "02744868000121", "NOME_FANTASIA": "-", "RAZAO_SOCIAL": "RECIMINAS IND E COM LTDA", "RESPONSAVEL": "JULIO CESAR LIMA DOS SANTOS|MARCIOJULIOLIMADOSSANTOS|NILSON DOS SANTOS", "MUNICIPIO": "UBA", "ENDEE": "RUA FRANCISCO TEIXEIRA DE ABREU, 1745, PALMEIRAS, 36500-001, UBÁ, MG, BRASIL", "BANCO": "SICOOB", "LINHA_AVAL_NOME": "Giro", "LATITUDE": "-21.1391695", "LONGITUDE": "-42.9284456", "STATUS_OPERACIONAL": "CARTEIRA", "STATUS": "CARTEIRA" }, "geometry": { "type": "Point", "coordinates": [ -42.9284456, -21.1391695 ] } }
]
}
