{
"type": "FeatureCollection",
"name": "UNAI",
"crs": { "type": "name", "properties": { "name": "urn:ogc:def:crs:OGC:1.3:CRS84" } },
"features": [
{ "type": "Feature", "properties": { "NROCNPJ_PAD": "39642039000148", "NOME_FANTASIA": "-", "RAZAO_SOCIAL": "39.642.039 HELENA GOMES ARAUJO", "RESPONSAVEL": "-", "ENDEE": "RUA CACHOEIRA, 736, CACHOEIRA, 38610-283, UNAI", "BANCO": "-", "LATITUDE": "-16.3550718", "LONGITUDE": "-46.8945659", "STATUS_OPERACIONAL": "CARTEIRA" }, "geometry": { "type": "Point", "coordinates": [ -46.8945659, -16.3550718 ] } },
{ "type": "Feature", "properties": { "NROCNPJ_PAD": "46036880000157", "NOME_FANTASIA": "TRANSPORTES RODRIGUES", "RAZAO_SOCIAL": "TRANSPORTES RODRIGUES UNAI LTDA", "RESPONSAVEL": "NICASSIO RODRIGUES DE ALMEIDA (SÓCIO-ADMINISTRADOR) | ADRIANA FERREIRA DE LIMA (SÓCIO-ADMINISTRADOR)", "ENDEE": "AVENIDA VEREADOR JOAO NARCISO, 239, CACHOEIRA, 38610-298, UNAI", "BANCO": "-", "LATITUDE": "-16.3554676", "LONGITUDE": "-46.8980532", "STATUS_OPERACIONAL": "CARTEIRA" }, "geometry": { "type": "Point", "coordinates": [ -46.8980532, -16.3554676 ] } },
{ "type": "Feature", "properties": { "NROCNPJ_PAD": "60363285000157", "NOME_FANTASIA": "CORDEIRO VEICULOS ELETRICOS", "RAZAO_SOCIAL": "CORDEIRO VEICULOS ELETRICOS LTDA", "RESPONSAVEL": "GLAUCO DE LIMA (SÓCIO-ADMINISTRADOR)", "ENDEE": "RUA NATAL JUSTINO DA COSTA, 260, ITAPUA, 38610-152, UNAI", "BANCO": "-", "LATITUDE": "-16.3561434", "LONGITUDE": "-46.9005187", "STATUS_OPERACIONAL": "CARTEIRA" }, "geometry": { "type": "Point", "coordinates": [ -46.9005187, -16.3561434 ] } },
{ "type": "Feature", "properties": { "NROCNPJ_PAD": "33288500000120", "NOME_FANTASIA": "MAQMINAS", "RAZAO_SOCIAL": "WENDER CAETANO DA SILVA", "RESPONSAVEL": "-", "ENDEE": "RODOVIA FREI JORGE, 672, BARROCA, 38616-076, UNAI", "BANCO": "-", "LATITUDE": "-16.3601216", "LONGITUDE": "-46.8729393", "STATUS_OPERACIONAL": "CARTEIRA" }, "geometry": { "type": "Point", "coordinates": [ -46.8729393, -16.3601216 ] } },
{ "type": "Feature", "properties": { "NROCNPJ_PAD": "61320031000114", "NOME_FANTASIA": "-", "RAZAO_SOCIAL": "61.320.031 EDNEI COSTA BRITO", "RESPONSAVEL": "-", "ENDEE": "AREA RURAL, SN, KM FAZENDA JARDIM -CHACARA 123, AREA RURAL DE UNAI, 38623-899, UNAI", "BANCO": "-", "LATITUDE": "-16.3647325", "LONGITUDE": "-46.8920071", "STATUS_OPERACIONAL": "CARTEIRA" }, "geometry": { "type": "Point", "coordinates": [ -46.8920071, -16.3647325 ] } },
{ "type": "Feature", "properties": { "NROCNPJ_PAD": "52990151000138", "NOME_FANTASIA": "BS IRRIGACAO", "RAZAO_SOCIAL": "BS IRRIGACAO LTDA", "RESPONSAVEL": "BRUNO SANTOS ROCHA (SÓCIO-ADMINISTRADOR)", "ENDEE": "RUA JOSE CARAPINA, 36, IUNA, 38616-564, UNAI", "BANCO": "-", "LATITUDE": "-16.382815", "LONGITUDE": "-46.9119336", "STATUS_OPERACIONAL": "CARTEIRA" }, "geometry": { "type": "Point", "coordinates": [ -46.9119336, -16.382815 ] } },
{ "type": "Feature", "properties": { "NROCNPJ_PAD": "39616634000109", "NOME_FANTASIA": "OFICINA AMIGO DO REI", "RAZAO_SOCIAL": "OFICINA AMIGO DO REI LTDA", "RESPONSAVEL": "ELENICIA DE FATIMA ALVES SOARES (SÓCIO-ADMINISTRADOR)", "ENDEE": "RUA GRECINA OLIVEIRA SOUTO, 101, SANTA CLARA, 38621-742, UNAI", "BANCO": "-", "LATITUDE": "-16.2902172", "LONGITUDE": "-46.9018569", "STATUS_OPERACIONAL": "CARTEIRA" }, "geometry": { "type": "Point", "coordinates": [ -46.9018569, -16.2902172 ] } },
{ "type": "Feature", "properties": { "NROCNPJ_PAD": "54406175000122", "NOME_FANTASIA": "SUPERMERCADO SHOW MASTER", "RAZAO_SOCIAL": "SUPERMERCADO SHOW MASTER LTDA", "RESPONSAVEL": "BRUNO ALEXANDRE ROQUE MOREIRA (SÓCIO-ADMINISTRADOR)", "ENDEE": "RUA DA TORRE, 296, AGUA BRANCA, 38620-188, UNAI", "BANCO": "-", "LATITUDE": "-16.3397345", "LONGITUDE": "-46.9015424", "STATUS_OPERACIONAL": "CARTEIRA" }, "geometry": { "type": "Point", "coordinates": [ -46.9015424, -16.3397345 ] } },
{ "type": "Feature", "properties": { "NROCNPJ_PAD": "13519971000194", "NOME_FANTASIA": "UNA CALHAS", "RAZAO_SOCIAL": "UNA CALHAS E SERVICOS LTDA", "RESPONSAVEL": "JOSE FERREIRA DE MOURA (SÓCIO-ADMINISTRADOR)", "ENDEE": "RUA NOVA REPUBLICA, 225, CACHOEIRA, 38610-277, UNAI", "BANCO": "-", "LATITUDE": "-16.3551246", "LONGITUDE": "-46.8942585", "STATUS_OPERACIONAL": "CARTEIRA" }, "geometry": { "type": "Point", "coordinates": [ -46.8942585, -16.3551246 ] } },
{ "type": "Feature", "properties": { "NROCNPJ_PAD": "53924416000162", "NOME_FANTASIA": "CENTRO EMPRESARIAL JUCA FROES", "RAZAO_SOCIAL": "CENTRO EMPRESARIAL JUCA FROES SPE LTDA", "RESPONSAVEL": "RICARDO JOSE FROES CORREA (SÓCIO-ADMINISTRADOR) | MARCELO DE ALMEIDA (SÓCIO-ADMINISTRADOR)", "ENDEE": "RUA RIO PRETO, 403, CENTRO, 38610-084, UNAI", "BANCO": "-", "LATITUDE": "-16.3552774", "LONGITUDE": "-46.9023306", "STATUS_OPERACIONAL": "CARTEIRA" }, "geometry": { "type": "Point", "coordinates": [ -46.9023306, -16.3552774 ] } },
{ "type": "Feature", "properties": { "NROCNPJ_PAD": "15348292000125", "NOME_FANTASIA": "TRANSPORTADORA ASSUNCAO", "RAZAO_SOCIAL": "TONE JUNIOR DE ASSUNCAO", "RESPONSAVEL": "-", "ENDEE": "RUA NATAL JUSTINO DA COSTA, 278, CENTRO, 38610-044, UNAI", "BANCO": "-", "LATITUDE": "-16.3563954", "LONGITUDE": "-46.9003564", "STATUS_OPERACIONAL": "CARTEIRA" }, "geometry": { "type": "Point", "coordinates": [ -46.9003564, -16.3563954 ] } },
{ "type": "Feature", "properties": { "NROCNPJ_PAD": "37185690000100", "NOME_FANTASIA": "D MINAS EMP IMOB", "RAZAO_SOCIAL": "D MINAS EMPREENDIMENTOS IMOBILIARIOS LTDA", "RESPONSAVEL": "LEONARDO ANTUNES MENEZES (SÓCIO-ADMINISTRADOR) | DANIEL BRAGA DE LIMA (SÓCIO-ADMINISTRADOR)", "ENDEE": "RUA CACHOEIRA, 159, CENTRO, 38610-051, UNAI", "BANCO": "-", "LATITUDE": "-16.3573977", "LONGITUDE": "-46.9000963", "STATUS_OPERACIONAL": "CARTEIRA" }, "geometry": { "type": "Point", "coordinates": [ -46.9000963, -16.3573977 ] } },
{ "type": "Feature", "properties": { "NROCNPJ_PAD": "53914951000132", "NOME_FANTASIA": "VAMOS BRINCAR", "RAZAO_SOCIAL": "VAMOS BRINCAR BRINQUEDOS EDUCATIVOS E DIVERTIDOS LTDA", "RESPONSAVEL": "FERNANDA AGUIAR ANDRADE PALMA DE MORAIS (SÓCIO-ADMINISTRADOR)", "ENDEE": "AVENIDA GOVERNADOR VALADARES, 476, CENTRO, 38610-016, UNAI", "BANCO": "-", "LATITUDE": "-16.3579041", "LONGITUDE": "-46.9055223", "STATUS_OPERACIONAL": "CARTEIRA" }, "geometry": { "type": "Point", "coordinates": [ -46.9055223, -16.3579041 ] } },
{ "type": "Feature", "properties": { "NROCNPJ_PAD": "29583394000130", "NOME_FANTASIA": "VOVO FORMIGA BOLOS CASEIROS", "RAZAO_SOCIAL": "RODRIGUES & VALADAO BOLOS CASEIROS LTDA", "RESPONSAVEL": "DENISE RODRIGUES DA SILVA (SÓCIO-ADMINISTRADOR) | POLLIANA VALADAO DOS SANTOS (SÓCIO-ADMINISTRADOR)", "ENDEE": "RUA DJALMA TORRES, 517, CENTRO, 38610-036, UNAI", "BANCO": "-", "LATITUDE": "-16.358966", "LONGITUDE": "-46.8990479", "STATUS_OPERACIONAL": "CARTEIRA" }, "geometry": { "type": "Point", "coordinates": [ -46.8990479, -16.358966 ] } },
{ "type": "Feature", "properties": { "NROCNPJ_PAD": "33206308000147", "NOME_FANTASIA": "PADOCA", "RAZAO_SOCIAL": "PADOCA LANCHONETE E RESTAURANTE LTDA", "RESPONSAVEL": "STEFANIA MAGDA DE QUEIROZ MENDES (SÓCIO-ADMINISTRADOR)", "ENDEE": "RUA CELINA LISBOA FREDERICO, 205, CENTRO, 38610-041, UNAI", "BANCO": "-", "LATITUDE": "-16.359464", "LONGITUDE": "-46.9021238", "STATUS_OPERACIONAL": "CARTEIRA" }, "geometry": { "type": "Point", "coordinates": [ -46.9021238, -16.359464 ] } },
{ "type": "Feature", "properties": { "NROCNPJ_PAD": "54373869000100", "NOME_FANTASIA": "CHURRASQUINHO DO NIVIO", "RAZAO_SOCIAL": "ROMAGNOLI LTDA", "RESPONSAVEL": "FERNANDA CORDEIRO ROMAGNOLI (SÓCIO-ADMINISTRADOR)", "ENDEE": "RUA DJALMA TORRES, 233, CENTRO, 38610-036, UNAI", "BANCO": "-", "LATITUDE": "-16.3600077", "LONGITUDE": "-46.9015239", "STATUS_OPERACIONAL": "CARTEIRA" }, "geometry": { "type": "Point", "coordinates": [ -46.9015239, -16.3600077 ] } },
{ "type": "Feature", "properties": { "NROCNPJ_PAD": "25988092000190", "NOME_FANTASIA": "UNAI CALHAS", "RAZAO_SOCIAL": "SERVICOS DE CALHAS UNAI LTDA", "RESPONSAVEL": "DULCINEIA COUTINHO DA COSTA BRITO (SÓCIO-ADMINISTRADOR)", "ENDEE": "RODOVIA FREI JORGE, 2180, NORTE, JACILANDIA, 38620-001, UNAI", "BANCO": "-", "LATITUDE": "-16.3601216", "LONGITUDE": "-46.8729393", "STATUS_OPERACIONAL": "CARTEIRA" }, "geometry": { "type": "Point", "coordinates": [ -46.8729393, -16.3601216 ] } },
{ "type": "Feature", "properties": { "NROCNPJ_PAD": "30999949000108", "NOME_FANTASIA": "WA ELETRICA", "RAZAO_SOCIAL": "WA AUTOMACAO E PECAS ELETRICAS LTDA", "RESPONSAVEL": "WESLEY ANTONIO DA PAZ DA COSTA (SÓCIO-ADMINISTRADOR)", "ENDEE": "RODOVIA FREI JORGE, 710, NORTE, BARROCA, 38616-076, UNAI", "BANCO": "-", "LATITUDE": "-16.3601216", "LONGITUDE": "-46.8729393", "STATUS_OPERACIONAL": "CARTEIRA" }, "geometry": { "type": "Point", "coordinates": [ -46.8729393, -16.3601216 ] } },
{ "type": "Feature", "properties": { "NROCNPJ_PAD": "26934913000179", "NOME_FANTASIA": "PLANTAR AP", "RAZAO_SOCIAL": "PLANTAR AGRICULTURA DE PRECISAO LTDA", "RESPONSAVEL": "THIAGO FERREIRA CUNHA (SÓCIO) | PEDRO JUSTIN BUCHARA IORA (SÓCIO-ADMINISTRADOR)", "ENDEE": "RUA PREFEITO JOAO COSTA, 299, SALA 03, CENTRO, 38610-009, UNAI", "BANCO": "-", "LATITUDE": "-16.3602515", "LONGITUDE": "-46.9046377", "STATUS_OPERACIONAL": "CARTEIRA" }, "geometry": { "type": "Point", "coordinates": [ -46.9046377, -16.3602515 ] } },
{ "type": "Feature", "properties": { "NROCNPJ_PAD": "48506894000112", "NOME_FANTASIA": "-", "RAZAO_SOCIAL": "48.506.894 TAYRONE ALVES LIMA", "RESPONSAVEL": "-", "ENDEE": "RUA PRESIDENTE BERNARDES, 960, NOSSA SENHORA DO CARMO, 38610-215, UNAI", "BANCO": "-", "LATITUDE": "-16.3607799", "LONGITUDE": "-46.8949693", "STATUS_OPERACIONAL": "CARTEIRA" }, "geometry": { "type": "Point", "coordinates": [ -46.8949693, -16.3607799 ] } },
{ "type": "Feature", "properties": { "NROCNPJ_PAD": "02078267000127", "NOME_FANTASIA": "SORVETERIA TROPICAL", "RAZAO_SOCIAL": "GERALDO DIAS PEREIRA", "RESPONSAVEL": "-", "ENDEE": "RUA RONCADOR, 679, NOSSA SENHORA DO CARMO, 38610-225, UNAI", "BANCO": "-", "LATITUDE": "-16.3610264", "LONGITUDE": "-46.8962548", "STATUS_OPERACIONAL": "CARTEIRA" }, "geometry": { "type": "Point", "coordinates": [ -46.8962548, -16.3610264 ] } },
{ "type": "Feature", "properties": { "NROCNPJ_PAD": "22301472000117", "NOME_FANTASIA": "HANGAR MINI", "RAZAO_SOCIAL": "HANGAR MINI LTDA", "RESPONSAVEL": "MARCOS HENRIQUE DA SILVA (SÓCIO-ADMINISTRADOR)", "ENDEE": "RUA NOSSA SENHORA DO CARMO, 256, CENTRO, 38610-034, UNAI", "BANCO": "-", "LATITUDE": "-16.3615538", "LONGITUDE": "-46.9002227", "STATUS_OPERACIONAL": "CARTEIRA" }, "geometry": { "type": "Point", "coordinates": [ -46.9002227, -16.3615538 ] } },
{ "type": "Feature", "properties": { "NROCNPJ_PAD": "50179876000115", "NOME_FANTASIA": "-", "RAZAO_SOCIAL": "50.179.876 OSVALDINO REIS DE MORAES", "RESPONSAVEL": "-", "ENDEE": "RUA DAS MANGABAS, 249, PRIMAVERA, 38612-125, UNAI", "BANCO": "-", "LATITUDE": "-16.361896", "LONGITUDE": "-46.8851704", "STATUS_OPERACIONAL": "CARTEIRA" }, "geometry": { "type": "Point", "coordinates": [ -46.8851704, -16.361896 ] } },
{ "type": "Feature", "properties": { "NROCNPJ_PAD": "45554743000141", "NOME_FANTASIA": "SOLAR TINTAS", "RAZAO_SOCIAL": "SOLAR TINTAS UNAI LTDA", "RESPONSAVEL": "HERBERT FERREIRA DE ALMEIDA (SÓCIO-ADMINISTRADOR)", "ENDEE": "RUA NATAL JUSTINO DA COSTA, 999, CENTRO, 38610-044, UNAI", "BANCO": "-", "LATITUDE": "-16.3621002", "LONGITUDE": "-46.8971343", "STATUS_OPERACIONAL": "CARTEIRA" }, "geometry": { "type": "Point", "coordinates": [ -46.8971343, -16.3621002 ] } },
{ "type": "Feature", "properties": { "NROCNPJ_PAD": "22163341000110", "NOME_FANTASIA": "TRILHAGRO ASSESSORIA AGROPECUARIA", "RAZAO_SOCIAL": "MAIARA DE S. MIRANDA", "RESPONSAVEL": "-", "ENDEE": "RUA PATOS DE MINAS, 711, BLOCO B, NOSSA SENHORA APARECIDA, 38613-018, UNAI", "BANCO": "-", "LATITUDE": "-16.3637996", "LONGITUDE": "-46.8901558", "STATUS_OPERACIONAL": "CARTEIRA" }, "geometry": { "type": "Point", "coordinates": [ -46.8901558, -16.3637996 ] } },
{ "type": "Feature", "properties": { "NROCNPJ_PAD": "53312301000117", "NOME_FANTASIA": "PORTO FERNANDES HORTIFRUTIGRANJEIROS", "RAZAO_SOCIAL": "PF HORTIFRUTIGRANJEIROS LTDA", "RESPONSAVEL": "BRENA NATALIA FERNANDES ROSA PORTO (SÓCIO) | GILSON PORTO SANTOS FERNANDES (SÓCIO-ADMINISTRADOR)", "ENDEE": "RUA BEIJA FLOR CH52, 0, QUADRA07, CHAC PARK RIO PRETO, 38623-899, UNAI", "BANCO": "-", "LATITUDE": "-16.3647325", "LONGITUDE": "-46.8920071", "STATUS_OPERACIONAL": "CARTEIRA" }, "geometry": { "type": "Point", "coordinates": [ -46.8920071, -16.3647325 ] } },
{ "type": "Feature", "properties": { "NROCNPJ_PAD": "52239069000176", "NOME_FANTASIA": "-", "RAZAO_SOCIAL": "52.239.069 SILENE APARECIDA GUIMARAES", "RESPONSAVEL": "-", "ENDEE": "RUA GERALDO DIONISIO CARDOSO, 69, INDUSTRIAL, 38621-272, UNAI", "BANCO": "-", "LATITUDE": "-16.3647325", "LONGITUDE": "-46.8920071", "STATUS_OPERACIONAL": "CARTEIRA" }, "geometry": { "type": "Point", "coordinates": [ -46.8920071, -16.3647325 ] } },
{ "type": "Feature", "properties": { "NROCNPJ_PAD": "12215211000120", "NOME_FANTASIA": "-", "RAZAO_SOCIAL": "12.215.211 JOSE EUSTAQUIO DOS REIS", "RESPONSAVEL": "-", "ENDEE": "RUA DAS MAGNOLIAS, 759, DISTRITO INDUSTRIAL, 38613-042, UNAI", "BANCO": "-", "LATITUDE": "-16.3655029", "LONGITUDE": "-46.8927987", "STATUS_OPERACIONAL": "CARTEIRA" }, "geometry": { "type": "Point", "coordinates": [ -46.8927987, -16.3655029 ] } },
{ "type": "Feature", "properties": { "NROCNPJ_PAD": "28318270000164", "NOME_FANTASIA": "EASY ART DIGITAL", "RAZAO_SOCIAL": "ALBERTO JUNIOR DOMINGOS LEPESQUEUR 09182332673", "RESPONSAVEL": "-", "ENDEE": "RUA PROFESSOR OLIMPIO GONZAGA, 240, CENTRO, 38610-004, UNAI", "BANCO": "-", "LATITUDE": "-16.3656021", "LONGITUDE": "-46.9002635", "STATUS_OPERACIONAL": "CARTEIRA" }, "geometry": { "type": "Point", "coordinates": [ -46.9002635, -16.3656021 ] } },
{ "type": "Feature", "properties": { "NROCNPJ_PAD": "41820083000142", "NOME_FANTASIA": "SUPER PEGPAG", "RAZAO_SOCIAL": "SUPER PEGPAG PRIMAVERA LTDA", "RESPONSAVEL": "CARLOS BERNARDINO DA SILVA (SÓCIO-ADMINISTRADOR)", "ENDEE": "RUA DULCE TORRES BROCHADO, 1132, NOVO JARDIM, 38613-322, UNAI", "BANCO": "-", "LATITUDE": "-16.3664713", "LONGITUDE": "-46.8845857", "STATUS_OPERACIONAL": "CARTEIRA" }, "geometry": { "type": "Point", "coordinates": [ -46.8845857, -16.3664713 ] } },
{ "type": "Feature", "properties": { "NROCNPJ_PAD": "15503312000195", "NOME_FANTASIA": "RENATO RODAS E LAVA JATO", "RAZAO_SOCIAL": "RR ACESSORIOS LTDA", "RESPONSAVEL": "RENATO LOPES SOARES (SÓCIO-ADMINISTRADOR)", "ENDEE": "RUA PREFEITO JOAO COSTA, 1259, BARROCA, 38616-064, UNAI", "BANCO": "-", "LATITUDE": "-16.367671", "LONGITUDE": "-46.9005509", "STATUS_OPERACIONAL": "CARTEIRA" }, "geometry": { "type": "Point", "coordinates": [ -46.9005509, -16.367671 ] } },
{ "type": "Feature", "properties": { "NROCNPJ_PAD": "24833007000152", "NOME_FANTASIA": "L & S DISTRIBUIDORA DE COSMETICOS", "RAZAO_SOCIAL": "L & S DISTRIBUIDORA DE COSMETICOS LTDA", "RESPONSAVEL": "SERGIO DOS REIS BONIFACIO (SÓCIO-ADMINISTRADOR)", "ENDEE": "AVENIDA TRANSAMAZONICA, 13, DIVINEIA, 38613-440, UNAI", "BANCO": "-", "LATITUDE": "-16.3700283", "LONGITUDE": "-46.8929991", "STATUS_OPERACIONAL": "CARTEIRA" }, "geometry": { "type": "Point", "coordinates": [ -46.8929991, -16.3700283 ] } },
{ "type": "Feature", "properties": { "NROCNPJ_PAD": "25354694000196", "NOME_FANTASIA": "BRASIL VERDE POCOS ARTESIANOS", "RAZAO_SOCIAL": "BRASIL VERDE POCOS ARTESIANOS LTDA", "RESPONSAVEL": "ALESSANDRO BERNARDINELLI (SÓCIO-ADMINISTRADOR) | MARCIA CRISTIANI BELUCO BERNARDINELLI (SÓCIO-ADMINISTRADOR)", "ENDEE": "RUA DO OUVIDOR, 100, DE LOURDES, 38616-474, UNAI", "BANCO": "-", "LATITUDE": "-16.3719781", "LONGITUDE": "-46.9029533", "STATUS_OPERACIONAL": "CARTEIRA" }, "geometry": { "type": "Point", "coordinates": [ -46.9029533, -16.3719781 ] } },
{ "type": "Feature", "properties": { "NROCNPJ_PAD": "38240235000123", "NOME_FANTASIA": "AUTO ELETRICA SOUSA", "RAZAO_SOCIAL": "38.240.235 MAICON WILESON CLEMENTE DE SOUSA", "RESPONSAVEL": "-", "ENDEE": "AVENIDA SAO JOAO, 727, DIVINEIA, 38613-419, UNAI", "BANCO": "-", "LATITUDE": "-16.3734803", "LONGITUDE": "-46.8995595", "STATUS_OPERACIONAL": "CARTEIRA" }, "geometry": { "type": "Point", "coordinates": [ -46.8995595, -16.3734803 ] } },
{ "type": "Feature", "properties": { "NROCNPJ_PAD": "35166337000158", "NOME_FANTASIA": "MH FERTILIZANTES E BIOLOGICOS", "RAZAO_SOCIAL": "MH COMERCIAL AGRICOLA LTDA", "RESPONSAVEL": "GESSIMERE VAZ OLIVEIRA (SÓCIO-ADMINISTRADOR) | MICHELLE FERREIRA RODRIGUES (SÓCIO)", "ENDEE": "AVENIDA MARECHAL RONDON, 197, DIVINEIA, 38613-476, UNAI", "BANCO": "-", "LATITUDE": "-16.3746942", "LONGITUDE": "-46.8918733", "STATUS_OPERACIONAL": "CARTEIRA" }, "geometry": { "type": "Point", "coordinates": [ -46.8918733, -16.3746942 ] } },
{ "type": "Feature", "properties": { "NROCNPJ_PAD": "38544377000184", "NOME_FANTASIA": "TORNEADORA DO CHAVEIRAO", "RAZAO_SOCIAL": "TORNEADORA DO CHAVEIRAO LTDA", "RESPONSAVEL": "CLEVERSON PEREIRA (SÓCIO-ADMINISTRADOR) | VALDIRENE DA SILVA PEREIRA (SÓCIO-ADMINISTRADOR)", "ENDEE": "RUA ARLINDO GOMES BRANQUINHO, 1521, VILA DO SOL, 38616-192, UNAI", "BANCO": "-", "LATITUDE": "-16.3893531", "LONGITUDE": "-46.8977406", "STATUS_OPERACIONAL": "CARTEIRA" }, "geometry": { "type": "Point", "coordinates": [ -46.8977406, -16.3893531 ] } },
{ "type": "Feature", "properties": { "NROCNPJ_PAD": "35928412000170", "NOME_FANTASIA": "ESTOPAS PUMA", "RAZAO_SOCIAL": "GD RESIDUO TEXTIL E BUCHA VEGETAL LTDA", "RESPONSAVEL": "JOAO SIMAO DA SILVA FILHO (SÓCIO-ADMINISTRADOR)", "ENDEE": "RUA DOS BEM-TE-VIS, 66, VILA DO SOL, 38616-186, UNAI", "BANCO": "-", "LATITUDE": "-16.3899936", "LONGITUDE": "-46.8968192", "STATUS_OPERACIONAL": "CARTEIRA" }, "geometry": { "type": "Point", "coordinates": [ -46.8968192, -16.3899936 ] } },
{ "type": "Feature", "properties": { "NROCNPJ_PAD": "46034098000107", "NOME_FANTASIA": "PIT STOP LONAS", "RAZAO_SOCIAL": "PIT STOP LONAS UNAI LTDA", "RESPONSAVEL": "ERIC FERNANDES PEREIRA (SÓCIO-ADMINISTRADOR)", "ENDEE": "RUA PORANGATU, 530, KAMAYURA, 38616-222, UNAI", "BANCO": "-", "LATITUDE": "-16.3930729", "LONGITUDE": "-46.8981501", "STATUS_OPERACIONAL": "CARTEIRA" }, "geometry": { "type": "Point", "coordinates": [ -46.8981501, -16.3930729 ] } },
{ "type": "Feature", "properties": { "NROCNPJ_PAD": "44905596000144", "NOME_FANTASIA": "-", "RAZAO_SOCIAL": "EVANDRO LOPES CARDOSO 05686212635", "RESPONSAVEL": "-", "ENDEE": "RODOVIA MG-188, 820, AGUA BRANCA, 38620-180, UNAI", "BANCO": "-", "LATITUDE": "-18.829847", "LONGITUDE": "-46.919564", "STATUS_OPERACIONAL": "CARTEIRA" }, "geometry": { "type": "Point", "coordinates": [ -46.919564, -18.829847 ] } },
{ "type": "Feature", "properties": { "NROCNPJ_PAD": "05432458000133", "NOME_FANTASIA": "J FELIX DETETIZADORA", "RAZAO_SOCIAL": "J FELIX DETETIZADORA LTDA", "RESPONSAVEL": "SEBASTIAOGILMARFERREIRACOSTA|SIMONEDEOLIVEIRACOSTA", "ENDEE": "RUA MARIA VIEIRA, 940, MANOEIRO, 38621-618, UNAÍ, MG, BRASIL", "BANCO": "SICOOB", "LATITUDE": "-16.2983465", "LONGITUDE": "-46.9047094", "STATUS_OPERACIONAL": "CARTEIRA" }, "geometry": { "type": "Point", "coordinates": [ -46.9047094, -16.2983465 ] } },
{ "type": "Feature", "properties": { "NROCNPJ_PAD": "51005461000198", "NOME_FANTASIA": "MULT SOM", "RAZAO_SOCIAL": "MULT ACESSORIOS E SOM AUTOMOTIVO LTDA", "RESPONSAVEL": "MARCELO JOSE MOTA", "ENDEE": "RODOVIA MG-188, 434, AMARAL, 38620-778, UNAÍ, MG, BRASIL", "BANCO": "BDMG", "LATITUDE": "-16.3495136", "LONGITUDE": "-46.9063744", "STATUS_OPERACIONAL": "CARTEIRA" }, "geometry": { "type": "Point", "coordinates": [ -46.9063744, -16.3495136 ] } },
{ "type": "Feature", "properties": { "NROCNPJ_PAD": "45232959000190", "NOME_FANTASIA": "LIDER ESTOFADOS", "RAZAO_SOCIAL": "ISRAEL CRUZEIRO BERTO 08215641610", "RESPONSAVEL": "ISRAEL CRUZEIRO BERTO", "ENDEE": "RUA VENINA RAMOS AGUIAR, 196, ITAPUA, 38610-138, UNAÍ, MG, BRASIL", "BANCO": "SICREDI 4", "LATITUDE": "-16.3530839", "LONGITUDE": "-46.901613", "STATUS_OPERACIONAL": "CARTEIRA" }, "geometry": { "type": "Point", "coordinates": [ -46.901613, -16.3530839 ] } },
{ "type": "Feature", "properties": { "NROCNPJ_PAD": "35407713000159", "NOME_FANTASIA": "TIPO COWORKING", "RAZAO_SOCIAL": "TIPO COWORKING LTDA", "RESPONSAVEL": "FERNANDO ALVES MARTINS", "ENDEE": "AVENIDA VEREADOR JOAO NARCISO, 239, CACHOEIRA, 38610-298, UNAÍ, MG, BRASIL", "BANCO": "BDMG", "LATITUDE": "-16.3554676", "LONGITUDE": "-46.8980532", "STATUS_OPERACIONAL": "CARTEIRA" }, "geometry": { "type": "Point", "coordinates": [ -46.8980532, -16.3554676 ] } },
{ "type": "Feature", "properties": { "NROCNPJ_PAD": "07773242000167", "NOME_FANTASIA": "IMPRESSAO & CIA SOLUCOES INTELIGENTES", "RAZAO_SOCIAL": "MENDES SERVICOS GRAFICOS LTDA", "RESPONSAVEL": "KEILA FERREIRA DE JESUS MENDES TEIXEIRA|RICARDO MENDES TEIXEIRA", "ENDEE": "AVENIDA JOSE LUIZ ADJUTO, 757, CENTRO, 38610-066, UNAÍ, MG, BRASIL", "BANCO": "BDMG", "LATITUDE": "-16.3557028", "LONGITUDE": "-46.9004216", "STATUS_OPERACIONAL": "CARTEIRA" }, "geometry": { "type": "Point", "coordinates": [ -46.9004216, -16.3557028 ] } },
{ "type": "Feature", "properties": { "NROCNPJ_PAD": "22662000000190", "NOME_FANTASIA": "CASA DO EPI UNAI", "RAZAO_SOCIAL": "CASA DO EPI UNAI LTDA", "RESPONSAVEL": "ALANA CORREA DA SILVA OLIVEIRA", "ENDEE": "RUA JOSE DO PATROCINIO, 282, CENTRO, 38610-081, UNAÍ, MG, BRASIL", "BANCO": "BDMG", "LATITUDE": "-16.3558581", "LONGITUDE": "-46.9056472", "STATUS_OPERACIONAL": "CARTEIRA" }, "geometry": { "type": "Point", "coordinates": [ -46.9056472, -16.3558581 ] } },
{ "type": "Feature", "properties": { "NROCNPJ_PAD": "60673075000165", "NOME_FANTASIA": "DR PELUDO PET SHOP", "RAZAO_SOCIAL": "DR PELUDO PET SHOP LTDA", "RESPONSAVEL": "FERNANDARIBEIRODASILVA", "ENDEE": "RUA JOAO MENDES CORNELIO, 460, VALE VERDE, 38612-054, UNAÍ, MG, BRASIL", "BANCO": "SICOOB", "LATITUDE": "-16.3569923", "LONGITUDE": "-46.8872204", "STATUS_OPERACIONAL": "CARTEIRA" }, "geometry": { "type": "Point", "coordinates": [ -46.8872204, -16.3569923 ] } },
{ "type": "Feature", "properties": { "NROCNPJ_PAD": "40485363000189", "NOME_FANTASIA": "JAPINHA SUSHI", "RAZAO_SOCIAL": "JAPINHA SUSHI BAR E CONVENIENCIA LTDA", "RESPONSAVEL": "CAMILA ALVES TERESO", "ENDEE": "RUA CANABRAVA, 1075, CACHOEIRA, 38610-250, UNAÍ, MG, BRASIL", "BANCO": "SICREDI 4", "LATITUDE": "-16.3575277", "LONGITUDE": "-46.8936508", "STATUS_OPERACIONAL": "CARTEIRA" }, "geometry": { "type": "Point", "coordinates": [ -46.8936508, -16.3575277 ] } },
{ "type": "Feature", "properties": { "NROCNPJ_PAD": "41331098000147", "NOME_FANTASIA": "FLOR DE LARANJEIRA BOLOS E CONFEITARIA", "RAZAO_SOCIAL": "FLOR DE LARANJEIRA BOLOS LTDA", "RESPONSAVEL": "JAQUELINE COSTA VIANA BRITO", "ENDEE": "RUA TAQUARIL, 230, PRIMAVERA 5, 38612-224, UNAÍ, MG, BRASIL", "BANCO": "BDMG", "LATITUDE": "-16.3585134", "LONGITUDE": "-46.8831027", "STATUS_OPERACIONAL": "CARTEIRA" }, "geometry": { "type": "Point", "coordinates": [ -46.8831027, -16.3585134 ] } },
{ "type": "Feature", "properties": { "NROCNPJ_PAD": "57469897000114", "NOME_FANTASIA": "-", "RAZAO_SOCIAL": "57.469.897 DONGLECIANO MARTINS FERREIRA", "RESPONSAVEL": "DONGLECIANO MARTINS FERREIRA", "ENDEE": "RUA TRINDADE, 345, PRIMAVERA 5, 38612-222, UNAÍ, MG, BRASIL", "BANCO": "SICREDI 4", "LATITUDE": "-16.3588622", "LONGITUDE": "-46.8815633", "STATUS_OPERACIONAL": "CARTEIRA" }, "geometry": { "type": "Point", "coordinates": [ -46.8815633, -16.3588622 ] } },
{ "type": "Feature", "properties": { "NROCNPJ_PAD": "06084254000111", "NOME_FANTASIA": "FRANCHIARI", "RAZAO_SOCIAL": "ARMINDA FERNANDES LEITE LTDA", "RESPONSAVEL": "ARMINDAFERNANDESLEITE", "ENDEE": "RUA NOSSA SENHORA DO CARMO, 44, CENTRO, 38610-034, UNAÍ, MG, BRASIL", "BANCO": "SICOOB", "LATITUDE": "-16.3597765", "LONGITUDE": "-46.9011183", "STATUS_OPERACIONAL": "CARTEIRA" }, "geometry": { "type": "Point", "coordinates": [ -46.9011183, -16.3597765 ] } },
{ "type": "Feature", "properties": { "NROCNPJ_PAD": "50878307000168", "NOME_FANTASIA": "BARBOSA ASSESSORIA CERTIFICADOS DIGITAIS", "RAZAO_SOCIAL": "50.878.307 ARIELEN RAIHANE MELO BARBOSA", "RESPONSAVEL": "ARIELEN RAIHANE MELO BARBOSA", "ENDEE": "AVENIDA TANCREDO NEVES, 1876, NOSSA SENHORA APARECIDA, 38613-001, UNAÍ, MG, BRASIL", "BANCO": "SICREDI 4", "LATITUDE": "-16.360704", "LONGITUDE": "-46.8932695", "STATUS_OPERACIONAL": "CARTEIRA" }, "geometry": { "type": "Point", "coordinates": [ -46.8932695, -16.360704 ] } },
{ "type": "Feature", "properties": { "NROCNPJ_PAD": "37323996000186", "NOME_FANTASIA": "MINAS DATACENTER", "RAZAO_SOCIAL": "MINAS DATACENTER TECNOLOGIA LTDA", "RESPONSAVEL": "TIAGO FERNANDO CARDOSO", "ENDEE": "RUA NOSSA SENHORA DO CARMO, 224, SALA 4C, CENTRO, 38610-034, UNAÍ, MG, BRASIL", "BANCO": "BDMG", "LATITUDE": "-16.3613569", "LONGITUDE": "-46.9002814", "STATUS_OPERACIONAL": "CARTEIRA" }, "geometry": { "type": "Point", "coordinates": [ -46.9002814, -16.3613569 ] } },
{ "type": "Feature", "properties": { "NROCNPJ_PAD": "20045717000167", "NOME_FANTASIA": "RECOLOCAR COBRANCAS", "RAZAO_SOCIAL": "RECOLOCAR COBRANCAS LTDA", "RESPONSAVEL": "HUMBERTO LUIS DUARTE OLIVEIRA|THAYS CRISTINA KOWALSKI", "ENDEE": "RUA SAO JOSE, 203, SALA 101, CENTRO, 38610-026, UNAÍ, MG, BRASIL", "BANCO": "BDMG", "LATITUDE": "-16.3614215", "LONGITUDE": "-46.901266", "STATUS_OPERACIONAL": "CARTEIRA" }, "geometry": { "type": "Point", "coordinates": [ -46.901266, -16.3614215 ] } },
{ "type": "Feature", "properties": { "NROCNPJ_PAD": "31587018000165", "NOME_FANTASIA": "CASTRO CONTABILIDADE E ASSESSORIA", "RAZAO_SOCIAL": "REINALDO DE CASTRO SUARES", "RESPONSAVEL": "REINALDO DE CASTRO SUARES", "ENDEE": "RUA TEREZINA, 91, NOVO JARDIM, 38612-185, UNAÍ, MG, BRASIL", "BANCO": "BDMG", "LATITUDE": "-16.3627514", "LONGITUDE": "-46.8834499", "STATUS_OPERACIONAL": "CARTEIRA" }, "geometry": { "type": "Point", "coordinates": [ -46.8834499, -16.3627514 ] } },
{ "type": "Feature", "properties": { "NROCNPJ_PAD": "49618468000133", "NOME_FANTASIA": "DISTRIBUIDORA TERAPINGA", "RAZAO_SOCIAL": "49.618.468 JOAO LUCAS DA COSTA OLIVEIRA", "RESPONSAVEL": "JOAO LUCAS DA COSTA OLIVEIRA", "ENDEE": "RUA PARACATU, 546, CENTRO, 38610-011, UNAÍ, MG, BRASIL", "BANCO": "BDMG", "LATITUDE": "-16.3632046", "LONGITUDE": "-46.8978544", "STATUS_OPERACIONAL": "CARTEIRA" }, "geometry": { "type": "Point", "coordinates": [ -46.8978544, -16.3632046 ] } },
{ "type": "Feature", "properties": { "NROCNPJ_PAD": "41487958000136", "NOME_FANTASIA": "DOLIVAR STUDIO", "RAZAO_SOCIAL": "DOLIVAR STUDIO LTDA", "RESPONSAVEL": "-", "ENDEE": "RUA PROFESSOR OLIMPIO GONZAGA, 409, SALA 202, BARROCA, 38616-062, UNAÍ, MG, BRASIL", "BANCO": "BRADESCO", "LATITUDE": "-16.3646754", "LONGITUDE": "-46.8988994", "STATUS_OPERACIONAL": "CARTEIRA" }, "geometry": { "type": "Point", "coordinates": [ -46.8988994, -16.3646754 ] } },
{ "type": "Feature", "properties": { "NROCNPJ_PAD": "34551985000165", "NOME_FANTASIA": "TORNEADORA ALIANCA", "RAZAO_SOCIAL": "TORNEADORA ALIANCA LTDA", "RESPONSAVEL": "CARLOS HENRIQUE CAMPOS|DIEGO BARBOSA BRITO DE SOUSA", "ENDEE": "RUA MARIA HELENA DA COSTA, 3860, MANSOES SUL, 38617-358, UNAÍ, MG, BRASIL", "BANCO": "SICREDI 4", "LATITUDE": "-16.3647325", "LONGITUDE": "-46.8920071", "STATUS_OPERACIONAL": "CARTEIRA" }, "geometry": { "type": "Point", "coordinates": [ -46.8920071, -16.3647325 ] } },
{ "type": "Feature", "properties": { "NROCNPJ_PAD": "55263242000160", "NOME_FANTASIA": "-", "RAZAO_SOCIAL": "ALIANCA SERVICOS LTDA", "RESPONSAVEL": "MICHELY DAYANE MELGACO PIRES", "ENDEE": "RUA MARIA HELENA DA COSTA, 3860, MANSOES SUL, 38617-358, UNAÍ, MG, BRASIL", "BANCO": "BDMG", "LATITUDE": "-16.3647325", "LONGITUDE": "-46.8920071", "STATUS_OPERACIONAL": "CARTEIRA" }, "geometry": { "type": "Point", "coordinates": [ -46.8920071, -16.3647325 ] } },
{ "type": "Feature", "properties": { "NROCNPJ_PAD": "04300825000182", "NOME_FANTASIA": "MEGA HERTZ AUTO ELETRICA", "RAZAO_SOCIAL": "MEGA HERTZ AUTO ELETRICA LTDA", "RESPONSAVEL": "NICOLASSALVIANOSILVERIOLINHARESDEBRITO|RODRIGOSALVIANOSILVERIO|SABRINALINHARESDEBRITO", "ENDEE": "RUA VIRGILIO JUSTINIANO RIBEIRO, 1209, CENTRO, 38610-001, UNAÍ, MG, BRASIL", "BANCO": "SICOOB", "LATITUDE": "-16.3651516", "LONGITUDE": "-46.9030737", "STATUS_OPERACIONAL": "CARTEIRA" }, "geometry": { "type": "Point", "coordinates": [ -46.9030737, -16.3651516 ] } },
{ "type": "Feature", "properties": { "NROCNPJ_PAD": "29625110000120", "NOME_FANTASIA": "ZEZINHO MOTOS", "RAZAO_SOCIAL": "J.R PRIMO DE ALMEIDA", "RESPONSAVEL": "JOSE RIBEIRO PRIMO DE ALMEIDA", "ENDEE": "RUA PARACATU, 35, CENTRO, 38610-011, UNAÍ, MG, BRASIL", "BANCO": "SICREDI 4", "LATITUDE": "-16.365165", "LONGITUDE": "-46.9024659", "STATUS_OPERACIONAL": "CARTEIRA" }, "geometry": { "type": "Point", "coordinates": [ -46.9024659, -16.365165 ] } },
{ "type": "Feature", "properties": { "NROCNPJ_PAD": "05335714000174", "NOME_FANTASIA": "SUPER LATAS LTDA", "RAZAO_SOCIAL": "COMERCIAL DE PECAS AC LTDA", "RESPONSAVEL": "AGNALDO ALEXANDRE COSTA|THABATA CRISTINE COUTO DE BRITO", "ENDEE": "RUA VIRGILIO JUSTINIANO RIBEIRO, 1363, BARROCA, 38616-068, UNAÍ, MG, BRASIL", "BANCO": "BDMG", "LATITUDE": "-16.3662762", "LONGITUDE": "-46.902388", "STATUS_OPERACIONAL": "CARTEIRA" }, "geometry": { "type": "Point", "coordinates": [ -46.902388, -16.3662762 ] } },
{ "type": "Feature", "properties": { "NROCNPJ_PAD": "00560216000101", "NOME_FANTASIA": "-", "RAZAO_SOCIAL": "AUTO CENTER UNAI LTDA", "RESPONSAVEL": "IRACEMA SOARES|JOSE ANICESIO DA ROCHA", "ENDEE": "RUA PROFESSOR OLIMPIO GONZAGA, 11, BARROCA, 38616-062, UNAÍ, MG, BRASIL", "BANCO": "BDMG", "LATITUDE": "-16.3664237", "LONGITUDE": "-46.902368", "STATUS_OPERACIONAL": "CARTEIRA" }, "geometry": { "type": "Point", "coordinates": [ -46.902368, -16.3664237 ] } },
{ "type": "Feature", "properties": { "NROCNPJ_PAD": "47207332000105", "NOME_FANTASIA": "D.L ROCHA REPRESENTACOES", "RAZAO_SOCIAL": "D.L ROCHA REPRESENTACOES LTDA", "RESPONSAVEL": "DEBORA LUANA ROCHA DE JESUS", "ENDEE": "RUA OTTO WAGERMAN CARNEIRO, 73, NOVO JARDIM, 38613-316, UNAÍ, MG, BRASIL", "BANCO": "BDMG", "LATITUDE": "-16.36688", "LONGITUDE": "-46.8852978", "STATUS_OPERACIONAL": "CARTEIRA" }, "geometry": { "type": "Point", "coordinates": [ -46.8852978, -16.36688 ] } },
{ "type": "Feature", "properties": { "NROCNPJ_PAD": "02974862000140", "NOME_FANTASIA": "MANOBRA AUTO PECAS", "RAZAO_SOCIAL": "MANOBRA AUTO PECAS E MECANICA LTDA", "RESPONSAVEL": "ADEMAR ALVES DE SOUSA|LEANDRO VASCONCELOS DE SOUSA|LUCAS VASCONCELOS DE SOUSA|LUIZ CARLOS DE OLIVEIRA RATES|RAFAEL VASCONCELOS DE SOUSA", "ENDEE": "RUA PROFESSORA GEORGINA PIMENTEL, 78, BARROCA, 38616-066, UNAÍ, MG, BRASIL", "BANCO": "BDMG", "LATITUDE": "-16.3676638", "LONGITUDE": "-46.901499", "STATUS_OPERACIONAL": "CARTEIRA" }, "geometry": { "type": "Point", "coordinates": [ -46.901499, -16.3676638 ] } },
{ "type": "Feature", "properties": { "NROCNPJ_PAD": "13408213000107", "NOME_FANTASIA": "DROGARIA MINEIRAO", "RAZAO_SOCIAL": "IRMAOS DORNELAS MEDICAMENTOS LTDA", "RESPONSAVEL": "GILSON DORNELAS ZICA|HARLEM JOSE DORNELAS ZICA", "ENDEE": "RUA VIRGILIO JUSTINIANO RIBEIRO, 1678, BARROCA, 38616-068, UNAÍ, MG, BRASIL", "BANCO": "BDMG", "LATITUDE": "-16.3688112", "LONGITUDE": "-46.901325", "STATUS_OPERACIONAL": "CARTEIRA" }, "geometry": { "type": "Point", "coordinates": [ -46.901325, -16.3688112 ] } },
{ "type": "Feature", "properties": { "NROCNPJ_PAD": "29065797000197", "NOME_FANTASIA": "MINAS CAR PECAS E SERVICOS", "RAZAO_SOCIAL": "MINAS CAR PECAS E SERVICOS AUTOMOTIVOS LTDA", "RESPONSAVEL": "ANA PAULA ALVES DA SILVA FERNANDES|DOMINGAS DE ARAUJO MESQUITA", "ENDEE": "RUA VENEZA, 61, DE LOURDES, 38616-476, UNAÍ, MG, BRASIL", "BANCO": "BDMG", "LATITUDE": "-16.3723146", "LONGITUDE": "-46.9036971", "STATUS_OPERACIONAL": "CARTEIRA" }, "geometry": { "type": "Point", "coordinates": [ -46.9036971, -16.3723146 ] } },
{ "type": "Feature", "properties": { "NROCNPJ_PAD": "31514776000153", "NOME_FANTASIA": "TOP SOUND CAR", "RAZAO_SOCIAL": "TOP SOUND CAR LTDA", "RESPONSAVEL": "BRENO CARLOS CAETANO PEREIRA", "ENDEE": "AVENIDA JULIO RIBEIRO DOS SANTOS, 184, NOVA CANAA, 38616-446, UNAÍ, MG, BRASIL", "BANCO": "BDMG", "LATITUDE": "-16.3752438", "LONGITUDE": "-46.9033424", "STATUS_OPERACIONAL": "CARTEIRA" }, "geometry": { "type": "Point", "coordinates": [ -46.9033424, -16.3752438 ] } },
{ "type": "Feature", "properties": { "NROCNPJ_PAD": "58354977000197", "NOME_FANTASIA": "LEGADO GAS E AGUA MINERAL", "RAZAO_SOCIAL": "LEGADO GAS E AGUA MINERAL LTDA", "RESPONSAVEL": "EURIPEDES JUNIO GONCALVES PEREIRA", "ENDEE": "RUA JOSINDA DOS SANTOS CALDEIRA, 431, SAGRADA FAMILIA, 38616-773, UNAÍ, MG, BRASIL", "BANCO": "BDMG", "LATITUDE": "-16.3787976", "LONGITUDE": "-46.9100955", "STATUS_OPERACIONAL": "CARTEIRA" }, "geometry": { "type": "Point", "coordinates": [ -46.9100955, -16.3787976 ] } },
{ "type": "Feature", "properties": { "NROCNPJ_PAD": "50580655000154", "NOME_FANTASIA": "CASA DAS BATERIAS", "RAZAO_SOCIAL": "CASA DAS BATERIAS UNAI LTDA", "RESPONSAVEL": "IRACI VIANA DOS SANTOS|MARIA ANTONIA FERREIRA DE BARROS", "ENDEE": "RUA HERCULANO OLIVEIRA E SILVA, 34, CENTRO, 38610-091, UNAÍ, MG, BRASIL", "BANCO": "BDMG", "LATITUDE": "-16.357234", "LONGITUDE": "-46.9066074", "STATUS_OPERACIONAL": "CARTEIRA" }, "geometry": { "type": "Point", "coordinates": [ -46.9066074, -16.357234 ] } },
{ "type": "Feature", "properties": { "NROCNPJ_PAD": "20758195000140", "NOME_FANTASIA": "RAPOSA TRANSPORTES", "RAZAO_SOCIAL": "RAPOSA TRANSPORTES UNAI LTDA", "RESPONSAVEL": "-", "ENDEE": "AVENIDA GOVERNADOR VALADARES, 900, APT 504, CENTRO, 38610-014, UNAÍ, MG, BRASIL", "BANCO": "BRADESCO", "LATITUDE": "-16.3612989", "LONGITUDE": "-46.9035415", "STATUS_OPERACIONAL": "CARTEIRA" }, "geometry": { "type": "Point", "coordinates": [ -46.9035415, -16.3612989 ] } },
{ "type": "Feature", "properties": { "NROCNPJ_PAD": "00619442000110", "NOME_FANTASIA": "BARATAO GONTIJO", "RAZAO_SOCIAL": "BARATAO GONTIJO LTDA", "RESPONSAVEL": "MARIA ADILCA DE SOUZA GONTIJO|RONADY GONTIJO SOUZA", "ENDEE": "AVENIDA GOVERNADOR VALADARES, 711, CENTRO, 38610-014, UNAÍ, MG, BRASIL", "BANCO": "BDMG", "LATITUDE": "-16.3596062", "LONGITUDE": "-46.9042397", "STATUS_OPERACIONAL": "CARTEIRA" }, "geometry": { "type": "Point", "coordinates": [ -46.9042397, -16.3596062 ] } },
{ "type": "Feature", "properties": { "NROCNPJ_PAD": "46994685000130", "NOME_FANTASIA": "DISTRIBUIDORA DE BEBIDAS RIO PRETO", "RAZAO_SOCIAL": "DISTRIBUIDORA DE BEBIDAS RIO PRETO LTDA", "RESPONSAVEL": "SILVIO CARVALHO DE ARAUJO", "ENDEE": "AVENIDA GOVERNADOR VALADARES, 64, CAPIM BRANCO, 38610-114, UNAÍ, MG, BRASIL", "BANCO": "SICREDI 4", "LATITUDE": "-16.354725", "LONGITUDE": "-46.9073827", "STATUS_OPERACIONAL": "CARTEIRA" }, "geometry": { "type": "Point", "coordinates": [ -46.9073827, -16.354725 ] } },
{ "type": "Feature", "properties": { "NROCNPJ_PAD": "31172253000176", "NOME_FANTASIA": "-", "RAZAO_SOCIAL": "BANCA DO ZE MARIA PRODUTOS NATURAIS LTDA", "RESPONSAVEL": "JOSE MARIA PEREIRA DE MATOS", "ENDEE": "AVENIDA GOVERNADOR VALADARES, 537, CENTRO, 38610-014, UNAÍ, MG, BRASIL", "BANCO": "SICREDI 4", "LATITUDE": "-16.3581618", "LONGITUDE": "-46.9050457", "STATUS_OPERACIONAL": "CARTEIRA" }, "geometry": { "type": "Point", "coordinates": [ -46.9050457, -16.3581618 ] } },
{ "type": "Feature", "properties": { "NROCNPJ_PAD": "32749353000185", "NOME_FANTASIA": "PADOCA PADARIA", "RAZAO_SOCIAL": "PANIFICADORA E PADARIA FELIPE CEZARIO LTDA", "RESPONSAVEL": "FELIXGOMESTEIXEIRA|KARLA KELEN CEZARIO GONCALVES FELIPE|SERGIO FELIPE CEZARIO GONCALVES|THIAGOGOMESNASCIMENTO|WELLENNASCIMENTOAMARAL", "ENDEE": "AVENIDA GOVERNADOR VALADARES, 391, CENTRO, 38610-014, UNAÍ, MG, BRASIL", "BANCO": "BDMG", "LATITUDE": "-16.3570786", "LONGITUDE": "-46.9056705", "STATUS_OPERACIONAL": "CARTEIRA" }, "geometry": { "type": "Point", "coordinates": [ -46.9056705, -16.3570786 ] } },
{ "type": "Feature", "properties": { "NROCNPJ_PAD": "05144026000127", "NOME_FANTASIA": "CASA DE CARNES 2 IRMAOS", "RAZAO_SOCIAL": "W M SOUTO COMERCIAL DE CARNES", "RESPONSAVEL": "WILSON MARTINS SOUTO", "ENDEE": "AVENIDA GOVERNADOR VALADARES, 1358, CENTRO, 38610-014, UNAÍ, MG, BRASIL", "BANCO": "BDMG", "LATITUDE": "-16.364932", "LONGITUDE": "-46.901432", "STATUS_OPERACIONAL": "CARTEIRA" }, "geometry": { "type": "Point", "coordinates": [ -46.901432, -16.364932 ] } },
{ "type": "Feature", "properties": { "NROCNPJ_PAD": "48924185000157", "NOME_FANTASIA": "QUALITY TRIPAS", "RAZAO_SOCIAL": "48.924.185 HEUBERTH RAMOS MARQUES", "RESPONSAVEL": "-", "ENDEE": "AVENIDA GOVERNADOR VALADARES - DE 371 A 1469 - LADO IMPAR, 421, APT 302, CENTRO, 38610-016, UNAÍ, MG, BRASIL", "BANCO": "BRADESCO", "LATITUDE": "-16.3620467", "LONGITUDE": "-46.9030031", "STATUS_OPERACIONAL": "CARTEIRA" }, "geometry": { "type": "Point", "coordinates": [ -46.9030031, -16.3620467 ] } },
{ "type": "Feature", "properties": { "NROCNPJ_PAD": "33965746000199", "NOME_FANTASIA": "TS ESTAMPARIA FABRICA DE CAMISETAS", "RAZAO_SOCIAL": "TS ESTAMPARIA FABRICA DE CAMISETAS LTDA", "RESPONSAVEL": "HEBERT MOTA FERNANDES", "ENDEE": "AVENIDA FREI ESTEVAO, 159, CIDADE NOVA, 38616-656, UNAÍ, MG, BRASIL", "BANCO": "BDMG", "LATITUDE": "-16.3794977", "LONGITUDE": "-46.9071341", "STATUS_OPERACIONAL": "CARTEIRA" }, "geometry": { "type": "Point", "coordinates": [ -46.9071341, -16.3794977 ] } },
{ "type": "Feature", "properties": { "NROCNPJ_PAD": "37279057000181", "NOME_FANTASIA": "TRENTINI TRANSPORTES", "RAZAO_SOCIAL": "TRENTINI TRANSPORTES LTDA", "RESPONSAVEL": "FABIOALEXANDRETRENTINI", "ENDEE": "AREA FAZENDA CATINGUEIRO, SN, AREA RURAL DE UNAI, 38623-899, UNAÍ, MG, BRASIL", "BANCO": "SICOOB", "LATITUDE": "-16.3647325", "LONGITUDE": "-46.8920071", "STATUS_OPERACIONAL": "CARTEIRA" }, "geometry": { "type": "Point", "coordinates": [ -46.8920071, -16.3647325 ] } },
{ "type": "Feature", "properties": { "NROCNPJ_PAD": "48968310000120", "NOME_FANTASIA": "VJ TRANSPORTES", "RAZAO_SOCIAL": "VJ TRANSPORTES E SERVICO LTDA", "RESPONSAVEL": "VALTER JOSE DA SILVA", "ENDEE": "AREA FAZ PICO, 0, LUGAR PONTA DO GALHO, ZONA RURAL, 38623-899, UNAÍ, MG, BRASIL", "BANCO": "BDMG", "LATITUDE": "-16.3647325", "LONGITUDE": "-46.8920071", "STATUS_OPERACIONAL": "CARTEIRA" }, "geometry": { "type": "Point", "coordinates": [ -46.8920071, -16.3647325 ] } },
{ "type": "Feature", "properties": { "NROCNPJ_PAD": "47420340000135", "NOME_FANTASIA": "ELETRO TRUCKS ROTA 251", "RAZAO_SOCIAL": "ELETRO TRUCKS ROTA 251 LTDA", "RESPONSAVEL": "ELSON LUIZ BRANDAO|ELSONLUIZBRANDAO", "ENDEE": "RUA EPIA-01, 4760, SUL, MANSOES SUL, 38617-358, UNAÍ, MG, BRASIL", "BANCO": "BDMG", "LATITUDE": "-16.3647325", "LONGITUDE": "-46.8920071", "STATUS_OPERACIONAL": "CARTEIRA" }, "geometry": { "type": "Point", "coordinates": [ -46.8920071, -16.3647325 ] } },
{ "type": "Feature", "properties": { "NROCNPJ_PAD": "37649705000144", "NOME_FANTASIA": "CANTINHO DO PAO", "RAZAO_SOCIAL": "PANIFICADORA CANTINHO DO PAO UNAI LTDA", "RESPONSAVEL": "JAYNE MACIEL MARTINS", "ENDEE": "RUA DULCE TORRES BROCHADO, 1998, PRIMAVERA, 38612-161, UNAÍ, MG, BRASIL", "BANCO": "SICREDI 4", "LATITUDE": "-16.358569", "LONGITUDE": "-46.88356", "STATUS_OPERACIONAL": "CARTEIRA" }, "geometry": { "type": "Point", "coordinates": [ -46.88356, -16.358569 ] } },
{ "type": "Feature", "properties": { "NROCNPJ_PAD": "21157196000100", "NOME_FANTASIA": "CASA DAS IMPRESSORAS E INFORMATICA", "RAZAO_SOCIAL": "CASA DAS IMPRESSORAS E INFORMATICA LTDA", "RESPONSAVEL": "MARCOS PESSOA", "ENDEE": "RUA DOMINGOS PINTO BROCHADO, 445, CACHOEIRA, 38610-313, UNAÍ, MG, BRASIL", "BANCO": "BDMG", "LATITUDE": "-16.3531738", "LONGITUDE": "-46.9000359", "STATUS_OPERACIONAL": "CARTEIRA" }, "geometry": { "type": "Point", "coordinates": [ -46.9000359, -16.3531738 ] } },
{ "type": "Feature", "properties": { "NROCNPJ_PAD": "53591849000143", "NOME_FANTASIA": "FERREIRA ALVES CONSULTORIA E COMPLIANCE", "RAZAO_SOCIAL": "FERREIRA ALVES CONSULTORIA E COMPLIANCE LTDA", "RESPONSAVEL": "CLAUDINEI FERREIRA ALVES|FERNANDA RODRIGUES ALVES", "ENDEE": "RUA DO QUERO-QUERO, 387, AGUA BRANCA, 38620-230, UNAÍ, MG, BRASIL", "BANCO": "SICREDI 4", "LATITUDE": "-16.3397971", "LONGITUDE": "-46.8976374", "STATUS_OPERACIONAL": "CARTEIRA" }, "geometry": { "type": "Point", "coordinates": [ -46.8976374, -16.3397971 ] } },
{ "type": "Feature", "properties": { "NROCNPJ_PAD": "24112269000128", "NOME_FANTASIA": "TORNEADORA UNIAO CAMARGOS", "RAZAO_SOCIAL": "BLENIO BENICIO PEREIRA DE CAMARGO 01378135628", "RESPONSAVEL": "BLENIO BENICIO PEREIRA DE CAMARGO", "ENDEE": "RUA DO OUVIDOR, 192, DE LOUDRS, 38616-474, UNAÍ, MG, BRASIL", "BANCO": "BDMG", "LATITUDE": "-16.3713874", "LONGITUDE": "-46.9042528", "STATUS_OPERACIONAL": "CARTEIRA" }, "geometry": { "type": "Point", "coordinates": [ -46.9042528, -16.3713874 ] } },
{ "type": "Feature", "properties": { "NROCNPJ_PAD": "24007627000132", "NOME_FANTASIA": "AVICULTURA VERSIANI", "RAZAO_SOCIAL": "JEBL RACOES E PRODUTOS VETERINARIOS VERSIANI LTDA", "RESPONSAVEL": "ESTELA MARCIA ROCHA VERSIANE|JUNEI EUSTAQUIO VERSIANI", "ENDEE": "RUA DJALMA TORRES, 1243, CACHOEIRA, 38610-259, UNAÍ, MG, BRASIL", "BANCO": "BDMG", "LATITUDE": "-16.3562083", "LONGITUDE": "-46.8929077", "STATUS_OPERACIONAL": "CARTEIRA" }, "geometry": { "type": "Point", "coordinates": [ -46.8929077, -16.3562083 ] } },
{ "type": "Feature", "properties": { "NROCNPJ_PAD": "28398368000179", "NOME_FANTASIA": "OURO VERDE CONSULTORIA", "RAZAO_SOCIAL": "OURO VERDE CONSULTORIA LTDA", "RESPONSAVEL": "ANA MICHELE DE SOUZA", "ENDEE": "AVENIDA DELVITO ALVES DA SILVA, 590, DIVINEIA, 38613-467, UNAÍ, MG, BRASIL", "BANCO": "SICREDI 4", "LATITUDE": "-16.3744372", "LONGITUDE": "-46.8928033", "STATUS_OPERACIONAL": "CARTEIRA" }, "geometry": { "type": "Point", "coordinates": [ -46.8928033, -16.3744372 ] } },
{ "type": "Feature", "properties": { "NROCNPJ_PAD": "46649253000191", "NOME_FANTASIA": "AGRO DN CONSULTORIA E GESTAO DE PECAS", "RAZAO_SOCIAL": "AGRO DN CONSULTORIA E GESTAO DE PECAS LTDA", "RESPONSAVEL": "DAVID NATALINO ALVES", "ENDEE": "RUA DAS CAJARANAS, 149, PRIMAVERA, 38612-134, UNAÍ, MG, BRASIL", "BANCO": "BDMG", "LATITUDE": "-16.3630109", "LONGITUDE": "-46.88591", "STATUS_OPERACIONAL": "CARTEIRA" }, "geometry": { "type": "Point", "coordinates": [ -46.88591, -16.3630109 ] } },
{ "type": "Feature", "properties": { "NROCNPJ_PAD": "53193144000178", "NOME_FANTASIA": "CASA DE MASSAS PADOCA", "RAZAO_SOCIAL": "CASA DE MASSAS PADOCA LTDA", "RESPONSAVEL": "GEOVANNI GUIMARAES MENDES|STEFANIA MAGDA DE QUEIROZ MENDES", "ENDEE": "RUA CELINA LISBOA FREDERICO, 212, CENTRO, 38610-041, UNAÍ, MG, BRASIL", "BANCO": "BDMG", "LATITUDE": "-16.3597998", "LONGITUDE": "-46.9018806", "STATUS_OPERACIONAL": "CARTEIRA" }, "geometry": { "type": "Point", "coordinates": [ -46.9018806, -16.3597998 ] } },
{ "type": "Feature", "properties": { "NROCNPJ_PAD": "09649119000164", "NOME_FANTASIA": "MIL PECAS", "RAZAO_SOCIAL": "MP UNAI LTDA", "RESPONSAVEL": "MARCIEL FERREIRA DA SILVA|MARCOS ANTONIO DA SILVA|PEDRO HENRIQUE DE SOUSA", "ENDEE": "RUA CANABRAVA, 60, CENTRO, 38610-031, UNAÍ, MG, BRASIL", "BANCO": "BDMG", "LATITUDE": "-16.3617985", "LONGITUDE": "-46.902089", "STATUS_OPERACIONAL": "CARTEIRA" }, "geometry": { "type": "Point", "coordinates": [ -46.902089, -16.3617985 ] } },
{ "type": "Feature", "properties": { "NROCNPJ_PAD": "28145398000173", "NOME_FANTASIA": "TXT INFORMATICA", "RAZAO_SOCIAL": "TXT INFORMATICA LTDA", "RESPONSAVEL": "MARCELO XAVIER DA SILVA", "ENDEE": "RUA CANABRAVA, 320, LOJA 02, CENTRO, 38610-031, UNAÍ, MG, BRASIL", "BANCO": "BDMG", "LATITUDE": "-16.3608044", "LONGITUDE": "-46.8998321", "STATUS_OPERACIONAL": "CARTEIRA" }, "geometry": { "type": "Point", "coordinates": [ -46.8998321, -16.3608044 ] } },
{ "type": "Feature", "properties": { "NROCNPJ_PAD": "46928918000104", "NOME_FANTASIA": "LEGADO CONSULTORIA AGROPECUARIA", "RAZAO_SOCIAL": "LEGADO CONSULTORIA AGROPECUARIA LTDA", "RESPONSAVEL": "EURIPEDES JUNIO GONCALVES PEREIRA", "ENDEE": "RUA BURITIS, 256, CENTRO, 38610-049, UNAÍ, MG, BRASIL", "BANCO": "BDMG", "LATITUDE": "-16.356001", "LONGITUDE": "-46.8993126", "STATUS_OPERACIONAL": "CARTEIRA" }, "geometry": { "type": "Point", "coordinates": [ -46.8993126, -16.356001 ] } },
{ "type": "Feature", "properties": { "NROCNPJ_PAD": "10316049000101", "NOME_FANTASIA": "UNAI TRATORES", "RAZAO_SOCIAL": "UNAI TRATORES E SERVICOS LTDA", "RESPONSAVEL": "LEONICE CAMPOS FEITOSA DA SILVA", "ENDEE": "RODOVIA FREI JORGE, 692, NORTE, BARROCA, 38616-076, UNAÍ, MG, BRASIL", "BANCO": "BDMG", "LATITUDE": "-16.3601216", "LONGITUDE": "-46.8729393", "STATUS_OPERACIONAL": "CARTEIRA" }, "geometry": { "type": "Point", "coordinates": [ -46.8729393, -16.3601216 ] } },
{ "type": "Feature", "properties": { "NROCNPJ_PAD": "21834344000176", "NOME_FANTASIA": "TRIBU DO SOM", "RAZAO_SOCIAL": "MM SOM E LUZ LTDA", "RESPONSAVEL": "MARCOS ANTONIO BATISTA MEIRA", "ENDEE": "RUA BENEDITA FELIX BARBOSA, 123, DOM BOSCO, 38613-118, UNAÍ, MG, BRASIL", "BANCO": "BDMG", "LATITUDE": "-16.3633024", "LONGITUDE": "-46.8885904", "STATUS_OPERACIONAL": "CARTEIRA" }, "geometry": { "type": "Point", "coordinates": [ -46.8885904, -16.3633024 ] } },
{ "type": "Feature", "properties": { "NROCNPJ_PAD": "44441961000107", "NOME_FANTASIA": "UNAI CACAMBAS", "RAZAO_SOCIAL": "UNAI CACAMBAS LTDA", "RESPONSAVEL": "DANIEL AUGUSTO DE DEUS", "ENDEE": "RUA ARMINDA RANGEL, 282, JACILANDIA, 38620-003, UNAÍ, MG, BRASIL", "BANCO": "BDMG", "LATITUDE": "-16.3546294", "LONGITUDE": "-46.9101088", "STATUS_OPERACIONAL": "CARTEIRA" }, "geometry": { "type": "Point", "coordinates": [ -46.9101088, -16.3546294 ] } },
{ "type": "Feature", "properties": { "NROCNPJ_PAD": "53200182000100", "NOME_FANTASIA": "-", "RAZAO_SOCIAL": "ACOUGUE E SACOLAO DO POVO LTDA", "RESPONSAVEL": "-", "ENDEE": "RUA ANTONIO PEREIRA DOS SANTOS, 186, NOVO HORIZONTE, 38616-556, UNAÍ, MG, BRASIL", "BANCO": "BRADESCO", "LATITUDE": "-16.3795618", "LONGITUDE": "-46.9093492", "STATUS_OPERACIONAL": "CARTEIRA" }, "geometry": { "type": "Point", "coordinates": [ -46.9093492, -16.3795618 ] } },
{ "type": "Feature", "properties": { "NROCNPJ_PAD": "13614585000181", "NOME_FANTASIA": "MAXIMUS CAMISARIA", "RAZAO_SOCIAL": "MAXIMUS CAMISARIA LTDA", "RESPONSAVEL": "DANILO JUNIOR CAMPOS", "ENDEE": "RUA ALDEIA, 139, CENTRO, 38610-024, UNAÍ, MG, BRASIL", "BANCO": "BDMG", "LATITUDE": "-16.3623211", "LONGITUDE": "-46.9012903", "STATUS_OPERACIONAL": "CARTEIRA" }, "geometry": { "type": "Point", "coordinates": [ -46.9012903, -16.3623211 ] } },
{ "type": "Feature", "properties": { "NROCNPJ_PAD": "28209433000170", "NOME_FANTASIA": "PONTO CAR", "RAZAO_SOCIAL": "PONTO CAR COMERCIO DE VEICULOS UNAI LTDA", "RESPONSAVEL": "GRACIELE DA SILVA SOUTO|WAGNER LUIS ALVES RODRIGUES", "ENDEE": "RUA ALBA GONZAGA, 370, CENTRO, 38610-021, UNAÍ, MG, BRASIL", "BANCO": "BDMG", "LATITUDE": "-16.3631852", "LONGITUDE": "-46.9017484", "STATUS_OPERACIONAL": "CARTEIRA" }, "geometry": { "type": "Point", "coordinates": [ -46.9017484, -16.3631852 ] } },
{ "type": "Feature", "properties": { "NROCNPJ_PAD": "26776306000128", "NOME_FANTASIA": "THD SUSPENSOES", "RAZAO_SOCIAL": "THD CENTRO AUTOMOTIVO LTDA", "RESPONSAVEL": "HIGOR FERREIRA MARTINS", "ENDEE": "RUA AGUAS MARINHAS, 140, CAPIM BRANCO II, 38616-080, UNAÍ, MG, BRASIL", "BANCO": "SICREDI 4", "LATITUDE": "-16.3719314", "LONGITUDE": "-46.9003673", "STATUS_OPERACIONAL": "CARTEIRA" }, "geometry": { "type": "Point", "coordinates": [ -46.9003673, -16.3719314 ] } },
{ "type": "Feature", "properties": { "NROCNPJ_PAD": "26594883000107", "NOME_FANTASIA": "VIDA REAL ESCOLA", "RAZAO_SOCIAL": "VIDA REAL ESCOLA LTDA", "RESPONSAVEL": "HELENDANYANESOARESCAETANODESOUZA|SERGIOPEREIRADESOUZA", "ENDEE": "RUA AFONSO PENA, 500, SALA 109, CENTRO, 38610-074, UNAÍ, MG, BRASIL", "BANCO": "SICOOB", "LATITUDE": "-16.3583631", "LONGITUDE": "-46.9022054", "STATUS_OPERACIONAL": "CARTEIRA" }, "geometry": { "type": "Point", "coordinates": [ -46.9022054, -16.3583631 ] } },
{ "type": "Feature", "properties": { "NROCNPJ_PAD": "23234484000139", "NOME_FANTASIA": "-", "RAZAO_SOCIAL": "METODUS ASSESSORIA E CONSULTORIA LTDA", "RESPONSAVEL": "ANDRE LUIZ ALVES DE SOUSA|CARLOS ALBERTO MARTINS|LUCIANOCALDEIRADESOUZAMAIA", "ENDEE": "RUA ABAETE, 295, NOSSA SENHORA APARECIDA, 38613-010, UNAÍ, MG, BRASIL", "BANCO": "BDMG", "LATITUDE": "-16.3625846", "LONGITUDE": "-46.892442", "STATUS_OPERACIONAL": "CARTEIRA" }, "geometry": { "type": "Point", "coordinates": [ -46.892442, -16.3625846 ] } },
{ "type": "Feature", "properties": { "NROCNPJ_PAD": "34871498000180", "NOME_FANTASIA": "TL LOCACAO E TERRAPLANAGEM", "RAZAO_SOCIAL": "TL LOCACAO E TERRAPLANAGEM LTDA", "RESPONSAVEL": "IURY LUCAS", "ENDEE": "RUA DO RIO, 309, AGUA BRANCA, 38620-202, UNAÍ, MG, BRASIL", "BANCO": "ESTÍMULO", "LATITUDE": "-16.343984", "LONGITUDE": "-46.899411", "STATUS_OPERACIONAL": "CARTEIRA" }, "geometry": { "type": "Point", "coordinates": [ -46.899411, -16.343984 ] } }
]
}
