{
"type": "FeatureCollection",
"name": "VARZEA2",
"crs": { "type": "name", "properties": { "name": "urn:ogc:def:crs:OGC:1.3:CRS84" } },
"features": [
{ "type": "Feature", "properties": { "CNPJ": "30493823000167", "ENDEREÇO COMPLETO": "AVENIDA: DOM PEDRO I, Nº 1820, BAIRRO: JARDIM GUANCIALE, CIDADE: CAMPO LIMPO PAULISTA", "RAZÃO SOCIAL": "FERNANDO  CALHAS", "NOME FANTASIA": "FERNANDO  CALHAS", "NOME DO EMPRESÁRIO": "FERNANDO SOUZA", "STATUS": "-AP.LICAR T4" }, "geometry": { "type": "Point", "coordinates": [ -46.8016169, -23.2057321 ] } },
{ "type": "Feature", "properties": { "CNPJ": "48050381000140", "ENDEREÇO COMPLETO": "AVENIDA: DOM PEDRO I, Nº 1650, BAIRRO: JARDIM GUANCIALE, CIDADE: CAMPO LIMPO PAULISTA", "RAZÃO SOCIAL": "ADEGA REALI", "NOME FANTASIA": "ADEGA REALI", "NOME DO EMPRESÁRIO": "LEANDRO ROCHA", "STATUS": "-AP.LICAR T4" }, "geometry": { "type": "Point", "coordinates": [ -46.8005279, -23.205121 ] } },
{ "type": "Feature", "properties": { "CNPJ": "07689913000106", "ENDEREÇO COMPLETO": "AVENIDA: DOM PEDRO I, Nº 1640, BAIRRO: JARDIM GUANCIALE, CIDADE: CAMPO LIMPO PAULISTA", "RAZÃO SOCIAL": "RESTAURANTE PRESTES", "NOME FANTASIA": "RESTAURANTE PRESTES", "NOME DO EMPRESÁRIO": "VIVIANE GONÇALVES", "STATUS": "-AP.LICAR T4" }, "geometry": { "type": "Point", "coordinates": [ -46.8004467, -23.2050715 ] } },
{ "type": "Feature", "properties": { "CNPJ": "60280310000139", "ENDEREÇO COMPLETO": "AVENIDA: PRESIDENTE VARGAS, Nº 61, BAIRRO: VILA TAVARES, CIDADE: CAMPO LIMPO PAULISTA", "RAZÃO SOCIAL": "ELETRÔNICA FERREIRA", "NOME FANTASIA": "ELETRÔNICA FERREIRA", "NOME DO EMPRESÁRIO": "LUIZA GIMENEZ", "STATUS": "-AP.LICAR T4" }, "geometry": { "type": "Point", "coordinates": [ -46.7886441, -23.2052382 ] } },
{ "type": "Feature", "properties": { "CNPJ": "45697674000125", "ENDEREÇO COMPLETO": "RUA: SÉTIMO PATELLI, Nº 84, BAIRRO: CENTRO, CIDADE: CAMPO LIMPO PAULISTA", "RAZÃO SOCIAL": "JS", "NOME FANTASIA": "JS", "NOME DO EMPRESÁRIO": "JESSICA OLIVEIRA", "STATUS": "-AP.LICAR T4" }, "geometry": { "type": "Point", "coordinates": [ -46.7884491, -23.20631 ] } },
{ "type": "Feature", "properties": { "CNPJ": "32929422000132", "ENDEREÇO COMPLETO": "AVENIDA: PRESIDENTE VARGAS, Nº 40, BAIRRO: VILA TAVARES, CIDADE: CAMPO LIMPO PAULISTA", "RAZÃO SOCIAL": "BELLA PRESENTES", "NOME FANTASIA": "BELLA PRESENTES", "NOME DO EMPRESÁRIO": "EMILIA BARBI", "STATUS": "-AP.LICAR T4" }, "geometry": { "type": "Point", "coordinates": [ -46.7882736, -23.2051579 ] } },
{ "type": "Feature", "properties": { "CNPJ": "30475506000118", "ENDEREÇO COMPLETO": "RUA: MARIA MAIOLINO DE SOUZA, Nº 65, BAIRRO: CENTRO, CIDADE: CAMPO LIMPO PAULISTA", "RAZÃO SOCIAL": "ANA MILA ESMALTERIA", "NOME FANTASIA": "ANA MILA ESMALTERIA", "NOME DO EMPRESÁRIO": "HELOIDES CAETANO", "STATUS": "-AP.LICAR T4" }, "geometry": { "type": "Point", "coordinates": [ -46.7881283, -23.206612 ] } },
{ "type": "Feature", "properties": { "CNPJ": "39977135000147", "ENDEREÇO COMPLETO": "RUA: MARIA MAIOLINO DE SOUZA, Nº 55, BAIRRO: CENTRO, CIDADE: CAMPO LIMPO PAULISTA", "RAZÃO SOCIAL": "FLASH INFORMÁTICA", "NOME FANTASIA": "FLASH INFORMÁTICA", "NOME DO EMPRESÁRIO": "ALESSANDRO SOUZA", "STATUS": "-AP.LICAR T4" }, "geometry": { "type": "Point", "coordinates": [ -46.7880324, -23.2067287 ] } },
{ "type": "Feature", "properties": { "CNPJ": "41214498000172", "ENDEREÇO COMPLETO": "RUA: NOSSA SENHORA DO ROSÁRIO, Nº 127, BAIRRO: CENTRO, CIDADE: CAMPO LIMPO PAULISTA", "RAZÃO SOCIAL": "Q HORIZONTE", "NOME FANTASIA": "Q HORIZONTE", "NOME DO EMPRESÁRIO": "GABRIEL ALMEIDA", "STATUS": "-AP.LICAR T4" }, "geometry": { "type": "Point", "coordinates": [ -46.7873295, -23.2075519 ] } },
{ "type": "Feature", "properties": { "CNPJ": "57606157000182", "ENDEREÇO COMPLETO": "RUA: JOÃO BATISTA ARSÊNIO ROSSI, Nº 19, BAIRRO: CENTRO, CIDADE: CAMPO LIMPO PAULISTA", "RAZÃO SOCIAL": "CAELIS", "NOME FANTASIA": "CAELIS", "NOME DO EMPRESÁRIO": "GABRIELLY CAVALLARO", "STATUS": "-AP.LICAR T4" }, "geometry": { "type": "Point", "coordinates": [ -46.7893405, -23.206675 ] } },
{ "type": "Feature", "properties": { "CNPJ": "48427224000100", "ENDEREÇO COMPLETO": "RUA: JOÃO BATISTA ARSÊNIO ROSSI, Nº 78, BAIRRO: CENTRO, CIDADE: CAMPO LIMPO PAULISTA", "RAZÃO SOCIAL": "STUDIO RENOVAR", "NOME FANTASIA": "STUDIO RENOVAR", "NOME DO EMPRESÁRIO": "SILVANA REIS", "STATUS": "-AP.LICAR T4" }, "geometry": { "type": "Point", "coordinates": [ -46.7890704, -23.2063844 ] } },
{ "type": "Feature", "properties": { "CNPJ": "59734273000102", "ENDEREÇO COMPLETO": "RUA: NOSSA SENHORA DO ROSÁRIO, Nº 250, BAIRRO: CENTRO, CIDADE: CAMPO LIMPO PAULISTA", "RAZÃO SOCIAL": "NINA ROSÊ", "NOME FANTASIA": "NINA ROSÊ", "NOME DO EMPRESÁRIO": "ENARA SOUZA", "STATUS": "-AP.LICAR T4" }, "geometry": { "type": "Point", "coordinates": [ -46.7886501, -23.2070729 ] } },
{ "type": "Feature", "properties": { "CNPJ": "41109719000142", "ENDEREÇO COMPLETO": "RUA: NOSSA SENHORA DO ROSÁRIO, Nº 176, BAIRRO: CENTRO, CIDADE: CAMPO LIMPO PAULISTA", "RAZÃO SOCIAL": "FABI FRALDAS", "NOME FANTASIA": "FABI FRALDAS", "NOME DO EMPRESÁRIO": "FABIANA FERREIRA", "STATUS": "-AP.LICAR T4" }, "geometry": { "type": "Point", "coordinates": [ -46.787744, -23.2072637 ] } },
{ "type": "Feature", "properties": { "CNPJ": "53218505000193", "ENDEREÇO COMPLETO": "RUA: NOSSA SENHORA DO ROSÁRIO, Nº 170, BAIRRO: CENTRO, CIDADE: CAMPO LIMPO PAULISTA", "RAZÃO SOCIAL": "AME FLORES", "NOME FANTASIA": "AME FLORES", "NOME DO EMPRESÁRIO": "AUDRI MEZEI", "STATUS": "-AP.LICAR T4" }, "geometry": { "type": "Point", "coordinates": [ -46.7876749, -23.2072404 ] } },
{ "type": "Feature", "properties": { "CNPJ": "50735537000178", "ENDEREÇO COMPLETO": "RUA: NOSSA SENHORA DO ROSÁRIO, Nº 159, BAIRRO: CENTRO, CIDADE: CAMPO LIMPO PAULISTA", "RAZÃO SOCIAL": "CASA DA CASTANHA", "NOME FANTASIA": "CASA DA CASTANHA", "NOME DO EMPRESÁRIO": "TERIVALDO SILVA", "STATUS": "-AP.LICAR T4" }, "geometry": { "type": "Point", "coordinates": [ -46.7875927, -23.2074284 ] } },
{ "type": "Feature", "properties": { "CNPJ": "54755861000109", "ENDEREÇO COMPLETO": "RUA: HERMANN, Nº 69, BAIRRO: CENTRO, CIDADE: CAMPO LIMPO PAULISTA", "RAZÃO SOCIAL": "OUTLET DAS CAMISAS", "NOME FANTASIA": "OUTLET DAS CAMISAS", "NOME DO EMPRESÁRIO": "VANDERLEI RODRIGUES", "STATUS": "-AP.LICAR T4" }, "geometry": { "type": "Point", "coordinates": [ -46.7875453, -23.2070687 ] } },
{ "type": "Feature", "properties": { "CNPJ": "56898561000104", "ENDEREÇO COMPLETO": "RUA: NOSSA SENHORA DO ROSÁRIO, Nº 127, BAIRRO: CENTRO, CIDADE: CAMPO LIMPO PAULISTA", "RAZÃO SOCIAL": "REUSE MARIA BRECHÓ", "NOME FANTASIA": "REUSE MARIA BRECHÓ", "NOME DO EMPRESÁRIO": "MARIA EDUARDA CARVALHO", "STATUS": "-AP.LICAR T4" }, "geometry": { "type": "Point", "coordinates": [ -46.7873295, -23.2075519 ] } },
{ "type": "Feature", "properties": { "CNPJ": "27429709000244", "ENDEREÇO COMPLETO": "RUA: NOSSA SENHORA DO ROSÁRIO, Nº 15, BAIRRO: CENTRO, CIDADE: CAMPO LIMPO PAULISTA", "RAZÃO SOCIAL": "EMPÓRIO  SÓ SABOR", "NOME FANTASIA": "EMPÓRIO  SÓ SABOR", "NOME DO EMPRESÁRIO": "FABIANO ANTÔNIO", "STATUS": "-AP.LICAR T4" }, "geometry": { "type": "Point", "coordinates": [ -46.7862805, -23.2077426 ] } },
{ "type": "Feature", "properties": { "CNPJ": "54734258000140", "ENDEREÇO COMPLETO": "AVENIDA: PRESIDENTE VARGAS, Nº 56, BAIRRO: VILA TAVARES, CIDADE: CAMPO LIMPO PAULISTA", "RAZÃO SOCIAL": "CAFÉ COM PROSA", "NOME FANTASIA": "CAFÉ COM PROSA", "NOME DO EMPRESÁRIO": "ALINE COELHO", "STATUS": "-AP.LICAR T4" }, "geometry": { "type": "Point", "coordinates": [ -46.7883823, -23.2050343 ] } },
{ "type": "Feature", "properties": { "CNPJ": "49390172000108", "ENDEREÇO COMPLETO": "RUA: FRANCISCO MIGUEL, Nº 208, BAIRRO: CENTRO, CIDADE: CAMPO LIMPO PAULISTA", "RAZÃO SOCIAL": "PANIFICADORA CENTRAL", "NOME FANTASIA": "PANIFICADORA CENTRAL", "NOME DO EMPRESÁRIO": "CESAR ALMEIDA", "STATUS": "-AP.LICAR T4" }, "geometry": { "type": "Point", "coordinates": [ -46.7867887, -23.2070011 ] } },
{ "type": "Feature", "properties": { "CNPJ": "34384069000188", "ENDEREÇO COMPLETO": "RUA: FRANCISCO MIGUEL, Nº 448, BAIRRO: CENTRO, CIDADE: CAMPO LIMPO PAULISTA", "RAZÃO SOCIAL": "ELÉTRICA PRESTES", "NOME FANTASIA": "ELÉTRICA PRESTES", "NOME DO EMPRESÁRIO": "FRANCIANY PRESTES", "STATUS": "-AP.LICAR T4" }, "geometry": { "type": "Point", "coordinates": [ -46.7853079, -23.2080991 ] } },
{ "type": "Feature", "properties": { "CNPJ": "37502208000119", "ENDEREÇO COMPLETO": "ESTRADA: BRAGANTINA, Nº 901, BAIRRO: JARDIM SANTO ANTÔNIO I, CIDADE: CAMPO LIMPO PAULISTA", "RAZÃO SOCIAL": "MATERIAIS PARA CONSTRUÇÃO DINI", "NOME FANTASIA": "MATERIAIS PARA CONSTRUÇÃO DINI", "NOME DO EMPRESÁRIO": "EUGÊNIO HENRIQUE", "STATUS": "-AP.LICAR T4" }, "geometry": { "type": "Point", "coordinates": [ -46.7638859, -23.2084294 ] } },
{ "type": "Feature", "properties": { "CNPJ": "61902866000182", "ENDEREÇO COMPLETO": "RUA: BRAGANTINA, Nº 1090, BAIRRO: JARDIM SANTO ANTÔNIO I, CIDADE: CAMPO LIMPO PAULISTA", "RAZÃO SOCIAL": "TAPEÇARIA PONTUAL", "NOME FANTASIA": "TAPEÇARIA PONTUAL", "NOME DO EMPRESÁRIO": "CHARLES PEREIRA", "STATUS": "-AP.LICAR T4" }, "geometry": { "type": "Point", "coordinates": [ -46.7624203, -23.2084818 ] } },
{ "type": "Feature", "properties": { "CNPJ": "28828776000113", "ENDEREÇO COMPLETO": "RUA: BRAGANTINA, Nº 1242, BAIRRO: JARDIM SANTO ANTÔNIO I, CIDADE: CAMPO LIMPO PAULISTA", "RAZÃO SOCIAL": "JP ENCANTO MISTICO", "NOME FANTASIA": "JP ENCANTO MISTICO", "NOME DO EMPRESÁRIO": "PRISCILA COSTA", "STATUS": "-AP.LICAR T4" }, "geometry": { "type": "Point", "coordinates": [ -46.7612607, -23.2090578 ] } },
{ "type": "Feature", "properties": { "CNPJ": "10437787000107", "ENDEREÇO COMPLETO": "RUA: BRAGANTINA, Nº 1605, BAIRRO: JARDIM SANTO ANTÔNIO I, CIDADE: CAMPO LIMPO PAULISTA", "RAZÃO SOCIAL": "PARAÍSO DOS CALÇADOS", "NOME FANTASIA": "PARAÍSO DOS CALÇADOS", "NOME DO EMPRESÁRIO": "LUCIA SHIMIT", "STATUS": "-AP.LICAR T2" }, "geometry": { "type": "Point", "coordinates": [ -46.7596766, -23.2108699 ] } },
{ "type": "Feature", "properties": { "CNPJ": "46035559000158", "ENDEREÇO COMPLETO": "RUA: BRAGANTINA, Nº 1558, BAIRRO: JARDIM SANTO ANTÔNIO I, CIDADE: CAMPO LIMPO PAULISTA", "RAZÃO SOCIAL": "PANIFICADORA BRUNELA", "NOME FANTASIA": "PANIFICADORA BRUNELA", "NOME DO EMPRESÁRIO": "GÊNERO MITIDIERI", "STATUS": "-AP.LICAR T4" }, "geometry": { "type": "Point", "coordinates": [ -46.7596045, -23.211761 ] } },
{ "type": "Feature", "properties": { "CNPJ": "61107789000179", "ENDEREÇO COMPLETO": "RUA: BRAGANTINA, Nº 5820, BAIRRO: JARDIM SANTO ANTÔNIO I, CIDADE: CAMPO LIMPO PAULISTA", "RAZÃO SOCIAL": "SUSHI MANIA", "NOME FANTASIA": "SUSHI MANIA", "NOME DO EMPRESÁRIO": "MARCIA PERANDINI", "STATUS": "-AP.LICAR T4" }, "geometry": { "type": "Point", "coordinates": [ -46.7181368, -23.2075078 ] } },
{ "type": "Feature", "properties": { "CNPJ": "62016966000174", "ENDEREÇO COMPLETO": "RUA: BRAGANTINA, Nº 1511, BAIRRO: JARDIM SANTO ANTÔNIO I, CIDADE: CAMPO LIMPO PAULISTA", "RAZÃO SOCIAL": "ATELIÊ SALGADOS E BOLOS", "NOME FANTASIA": "ATELIÊ SALGADOS E BOLOS", "NOME DO EMPRESÁRIO": "VALDIR SILVA", "STATUS": "-AP.LICAR T4" }, "geometry": { "type": "Point", "coordinates": [ -46.7696098, -23.2093989 ] } },
{ "type": "Feature", "properties": { "CNPJ": "57463509000198", "ENDEREÇO COMPLETO": "RUA: EDMUNDO REIS FRIAS JÚNIOR, Nº 183, BAIRRO: CONJUNTO HABITACIONAL SÃO JOSÉ, CIDADE: CAMPO LIMPO PAULISTA", "RAZÃO SOCIAL": "TATO MATERIAL", "NOME FANTASIA": "TATO MATERIAL", "NOME DO EMPRESÁRIO": "ANDERSON DUARTE", "STATUS": "-AP.LICAR T4" }, "geometry": { "type": "Point", "coordinates": [ -46.7622794, -23.2105846 ] } },
{ "type": "Feature", "properties": { "CNPJ": "29571545000130", "ENDEREÇO COMPLETO": "RUA: ELIAS DE CAMARGO, Nº 213, BAIRRO: CONJUNTO HABITACIONAL SÃO JOSÉ, CIDADE: CAMPO LIMPO PAULISTA", "RAZÃO SOCIAL": "EDSON E LEO INFORMÁTICA", "NOME FANTASIA": "EDSON E LEO INFORMÁTICA", "NOME DO EMPRESÁRIO": "EDSON SIMÃO", "STATUS": "-AP.LICAR T4" }, "geometry": { "type": "Point", "coordinates": [ -46.762046, -23.211595 ] } },
{ "type": "Feature", "properties": { "CNPJ": "59251127000126", "ENDEREÇO COMPLETO": "RUA: JOSÉ VALTER PACHECO, Nº 210, BAIRRO: CONJUNTO HABITACIONAL SÃO JOSÉ, CIDADE: CAMPO LIMPO PAULISTA", "RAZÃO SOCIAL": "D STYLE ELETRÔNICA E ACESSÓRIOS", "NOME FANTASIA": "D STYLE ELETRÔNICA E ACESSÓRIOS", "NOME DO EMPRESÁRIO": "BRUNO TEGA", "STATUS": "-AP.LICAR T4" }, "geometry": { "type": "Point", "coordinates": [ -46.7618868, -23.2117577 ] } },
{ "type": "Feature", "properties": { "CNPJ": "36793144000190", "ENDEREÇO COMPLETO": "AVENIDA: MITIHARU TANAKA, Nº 203, BAIRRO: CONJUNTO HABITACIONAL SÃO JOSÉ, CIDADE: CAMPO LIMPO PAULISTA", "RAZÃO SOCIAL": "POINT DA LIMPEZA", "NOME FANTASIA": "POINT DA LIMPEZA", "NOME DO EMPRESÁRIO": "MARCIA NATALI", "STATUS": "-AP.LICAR T4" }, "geometry": { "type": "Point", "coordinates": [ -46.7617394, -23.2120243 ] } },
{ "type": "Feature", "properties": { "CNPJ": "26261963000132", "ENDEREÇO COMPLETO": "RUA: BRAGANTINA, Nº 1500, BAIRRO: JARDIM SANTO ANTÔNIO I, CIDADE: CAMPO LIMPO PAULISTA", "RAZÃO SOCIAL": "VILLE EMBALAGENS", "NOME FANTASIA": "VILLE EMBALAGENS", "NOME DO EMPRESÁRIO": "MARCIA MORAES", "STATUS": "-AP.LICAR T4" }, "geometry": { "type": "Point", "coordinates": [ -46.760564, -23.2103196 ] } },
{ "type": "Feature", "properties": { "CNPJ": "50753248000100", "ENDEREÇO COMPLETO": "RUA: BRAGANTINA, Nº 1485, BAIRRO: JARDIM SANTO ANTÔNIO I, CIDADE: CAMPO LIMPO PAULISTA", "RAZÃO SOCIAL": "EMPÓRIO RAÇÕES E JARDIM", "NOME FANTASIA": "EMPÓRIO RAÇÕES E JARDIM", "NOME DO EMPRESÁRIO": "JEFERSON SILVA", "STATUS": "-AP.LICAR T4" }, "geometry": { "type": "Point", "coordinates": [ -46.7600937, -23.2103411 ] } },
{ "type": "Feature", "properties": { "CNPJ": "61301503000191", "ENDEREÇO COMPLETO": "RUA: RAFAEL ZULLI, Nº 460, BAIRRO: JARDIM SANTO ANTÔNIO II, CIDADE: CAMPO LIMPO PAULISTA", "RAZÃO SOCIAL": "CHAVEIRO SANTO ANTONIO", "NOME FANTASIA": "CHAVEIRO SANTO ANTONIO", "NOME DO EMPRESÁRIO": "CARLOS CUNHA", "STATUS": "-AP.LICAR T2" }, "geometry": { "type": "Point", "coordinates": [ -46.7682138, -23.2096835 ] } },
{ "type": "Feature", "properties": { "CNPJ": "00781189000105", "ENDEREÇO COMPLETO": "RUA: RAFAEL ZULLI, Nº 496, BAIRRO: JARDIM SANTO ANTÔNIO II, CIDADE: CAMPO LIMPO PAULISTA", "RAZÃO SOCIAL": "RESTAURANTE PONTO DO RANGO", "NOME FANTASIA": "RESTAURANTE PONTO DO RANGO", "NOME DO EMPRESÁRIO": "RAIMUNDO OLIVEIRA", "STATUS": "-AP.LICAR T4" }, "geometry": { "type": "Point", "coordinates": [ -46.7677399, -23.2095837 ] } },
{ "type": "Feature", "properties": { "CNPJ": "18287289000137", "ENDEREÇO COMPLETO": "RUA: RAFAEL ZULLI, Nº 184, BAIRRO: JARDIM SANTO ANTÔNIO II, CIDADE: CAMPO LIMPO PAULISTA", "RAZÃO SOCIAL": "HS CASA DO LUBRIFICANTE", "NOME FANTASIA": "HS CASA DO LUBRIFICANTE", "NOME DO EMPRESÁRIO": "IGOR ROMAGNA", "STATUS": "-AP.LICAR T4" }, "geometry": { "type": "Point", "coordinates": [ -46.766587, -23.2094118 ] } },
{ "type": "Feature", "properties": { "CNPJ": "30974673000103", "ENDEREÇO COMPLETO": "RUA: MITIHARU TANAKA, Nº 198, BAIRRO: CONJUNTO HABITACIONAL SÃO JOSÉ, CIDADE: CAMPO LIMPO PAULISTA", "RAZÃO SOCIAL": "S.O.S COXINHAS", "NOME FANTASIA": "S.O.S COXINHAS", "NOME DO EMPRESÁRIO": "JESSICA CAROLINE", "STATUS": "-AP.LICAR T4" }, "geometry": { "type": "Point", "coordinates": [ -46.7626155, -23.2098969 ] } },
{ "type": "Feature", "properties": { "CNPJ": "05425762000153", "ENDEREÇO COMPLETO": "RUA: MITIHARU TANAKA, Nº 171, BAIRRO: CONJUNTO HABITACIONAL SÃO JOSÉ, CIDADE: CAMPO LIMPO PAULISTA", "RAZÃO SOCIAL": "DROGARIA BRUNELLA", "NOME FANTASIA": "DROGARIA BRUNELLA", "NOME DO EMPRESÁRIO": "VANDERLEI PRANDI", "STATUS": "-AP.LICAR T4" }, "geometry": { "type": "Point", "coordinates": [ -46.7625292, -23.2095905 ] } },
{ "type": "Feature", "properties": { "CNPJ": "57291355000102", "ENDEREÇO COMPLETO": "AVENIDA: MITIHARU TANAKA, Nº 179, BAIRRO: CONJUNTO HABITACIONAL SÃO JOSÉ, CIDADE: CAMPO LIMPO PAULISTA", "RAZÃO SOCIAL": "DALU BOLOS E DOCES", "NOME FANTASIA": "DALU BOLOS E DOCES", "NOME DO EMPRESÁRIO": "LUCIANA NASCIMENTO", "STATUS": "-AP.LICAR T4" }, "geometry": { "type": "Point", "coordinates": [ -46.7623287, -23.2098029 ] } },
{ "type": "Feature", "properties": { "CNPJ": "65104225000133", "ENDEREÇO COMPLETO": "RUA: MITIHARU TANAKA, Nº 499, BAIRRO: CONJUNTO HABITACIONAL SÃO JOSÉ, CIDADE: CAMPO LIMPO PAULISTA", "RAZÃO SOCIAL": "LOTUS BOUTIQUE", "NOME FANTASIA": "LOTUS BOUTIQUE", "NOME DO EMPRESÁRIO": "LILIANE AMARAL", "STATUS": "-AP.LICAR T4" }, "geometry": { "type": "Point", "coordinates": [ -46.7613065, -23.212553 ] } },
{ "type": "Feature", "properties": { "CNPJ": "54439016000124", "ENDEREÇO COMPLETO": "AVENIDA: SÃO PAULO, Nº 485, BAIRRO: JARDIM SANTA LÚCIA, CIDADE: CAMPO LIMPO PAULISTA", "RAZÃO SOCIAL": "BRITAS BAR", "NOME FANTASIA": "BRITAS BAR", "NOME DO EMPRESÁRIO": "GISELE RITA", "STATUS": "-AP.LICAR T2" }, "geometry": { "type": "Point", "coordinates": [ -46.7982551, -23.2145921 ] } },
{ "type": "Feature", "properties": { "CNPJ": "55438685000144", "ENDEREÇO COMPLETO": "RUA: MARIA JOSÉ RODRIGUES, Nº 974, BAIRRO: JARDIM SANTA LÚCIA, CIDADE: CAMPO LIMPO PAULISTA", "RAZÃO SOCIAL": "RM REPARA RÁPIDO", "NOME FANTASIA": "RM REPARA RÁPIDO", "NOME DO EMPRESÁRIO": "RODOLFO MIRANDA", "STATUS": "-AP.LICAR T4" }, "geometry": { "type": "Point", "coordinates": [ -46.7944212, -23.2118024 ] } },
{ "type": "Feature", "properties": { "CNPJ": "27254385000170", "ENDEREÇO COMPLETO": "RUA: MARIA JOSÉ RODRIGUES, Nº 242, BAIRRO: JARDIM SANTA LÚCIA, CIDADE: CAMPO LIMPO PAULISTA", "RAZÃO SOCIAL": "BAR DOS AMIGOS", "NOME FANTASIA": "BAR DOS AMIGOS", "NOME DO EMPRESÁRIO": "PAULO SILVA", "STATUS": "-AP.LICAR T4" }, "geometry": { "type": "Point", "coordinates": [ -46.7943505, -23.211054 ] } },
{ "type": "Feature", "properties": { "CNPJ": "33872286000154", "ENDEREÇO COMPLETO": "RUA: MARIA JOSÉ RODRIGUES, Nº 125, BAIRRO: JARDIM SANTA LÚCIA, CIDADE: CAMPO LIMPO PAULISTA", "RAZÃO SOCIAL": "REVEST HD", "NOME FANTASIA": "REVEST HD", "NOME DO EMPRESÁRIO": "CINTIA LOPES", "STATUS": "-AP.LICAR T4" }, "geometry": { "type": "Point", "coordinates": [ -46.7940216, -23.2107886 ] } },
{ "type": "Feature", "properties": { "CNPJ": "43077507000156", "ENDEREÇO COMPLETO": "RUA: MARIA JOSÉ RODRIGUES, Nº 1335, BAIRRO: JARDIM SANTA LÚCIA, CIDADE: CAMPO LIMPO PAULISTA", "RAZÃO SOCIAL": "ÓTICA BIAGI", "NOME FANTASIA": "ÓTICA BIAGI", "NOME DO EMPRESÁRIO": "LUCI BARBOSA", "STATUS": "-AP.LICAR T4" }, "geometry": { "type": "Point", "coordinates": [ -46.7939632, -23.2135595 ] } },
{ "type": "Feature", "properties": { "CNPJ": "59930782000100", "ENDEREÇO COMPLETO": "RUA: JOSÉ BERTINE, Nº 17, BAIRRO: JARDIM VITÓRIA, CIDADE: CAMPO LIMPO PAULISTA", "RAZÃO SOCIAL": "ADEGA DA GALERA", "NOME FANTASIA": "ADEGA DA GALERA", "NOME DO EMPRESÁRIO": "CARLOS BARAUNA", "STATUS": "-AP.LICAR T4" }, "geometry": { "type": "Point", "coordinates": [ -46.799326, -23.215156 ] } },
{ "type": "Feature", "properties": { "CNPJ": "17043254000190", "ENDEREÇO COMPLETO": "RUA: MARIA PAVANELLO BONAMIGO, Nº 6, BAIRRO: JARDIM VITÓRIA, CIDADE: CAMPO LIMPO PAULISTA", "RAZÃO SOCIAL": "MORA SOLUÇÕES", "NOME FANTASIA": "MORA SOLUÇÕES", "NOME DO EMPRESÁRIO": "IVAN PEDRASSOLI", "STATUS": "-AP.LICAR T4" }, "geometry": { "type": "Point", "coordinates": [ -46.7988222, -23.2151135 ] } },
{ "type": "Feature", "properties": { "CNPJ": "50398572000149", "ENDEREÇO COMPLETO": "RUA: COLIBRI, Nº 440, BAIRRO: JARDIM SANTA LÚCIA, CIDADE: CAMPO LIMPO PAULISTA", "RAZÃO SOCIAL": "DROGARIA VITALI", "NOME FANTASIA": "DROGARIA VITALI", "NOME DO EMPRESÁRIO": "ALINE ARAUJO", "STATUS": "-AP.LICAR T4" }, "geometry": { "type": "Point", "coordinates": [ -46.7984261, -23.2141901 ] } },
{ "type": "Feature", "properties": { "CNPJ": "46356232000188", "ENDEREÇO COMPLETO": "RUA: PINTASSILGO, Nº 185, BAIRRO: JARDIM SANTA LÚCIA, CIDADE: CAMPO LIMPO PAULISTA", "RAZÃO SOCIAL": "ÁGUA NA BOCA SALGADOS", "NOME FANTASIA": "ÁGUA NA BOCA SALGADOS", "NOME DO EMPRESÁRIO": "JOAO SANTOS", "STATUS": "-AP.LICAR T4" }, "geometry": { "type": "Point", "coordinates": [ -46.79799, -23.2099339 ] } },
{ "type": "Feature", "properties": { "CNPJ": "05073364000115", "ENDEREÇO COMPLETO": "AVENIDA: DA SAUDADE, Nº 435, BAIRRO: JARDIM GUANCIALE, CIDADE: CAMPO LIMPO PAULISTA", "RAZÃO SOCIAL": "AGRO SERV", "NOME FANTASIA": "AGRO SERV", "NOME DO EMPRESÁRIO": "MAURO PAREDES", "STATUS": "-AP.LICAR T4" }, "geometry": { "type": "Point", "coordinates": [ -46.7978445, -23.2090005 ] } },
{ "type": "Feature", "properties": { "CNPJ": "28228387000157", "ENDEREÇO COMPLETO": "AVENIDA: DA SAUDADE, Nº 381, BAIRRO: JARDIM GUANCIALE, CIDADE: CAMPO LIMPO PAULISTA", "RAZÃO SOCIAL": "TANIA FLORES", "NOME FANTASIA": "TANIA FLORES", "NOME DO EMPRESÁRIO": "YURI REINALDO", "STATUS": "-AP.LICAR T4" }, "geometry": { "type": "Point", "coordinates": [ -46.7978362, -23.2080456 ] } },
{ "type": "Feature", "properties": { "CNPJ": "39437028000126", "ENDEREÇO COMPLETO": "RUA: COLIBRI, Nº 197, BAIRRO: JARDIM SANTA LÚCIA, CIDADE: CAMPO LIMPO PAULISTA", "RAZÃO SOCIAL": "BIGUI ARTES E BALÕES", "NOME FANTASIA": "BIGUI ARTES E BALÕES", "NOME DO EMPRESÁRIO": "CRISTINA SALAZAR", "STATUS": "-AP.LICAR T4" }, "geometry": { "type": "Point", "coordinates": [ -46.7968063, -23.2127087 ] } },
{ "type": "Feature", "properties": { "CNPJ": "63309919000181", "ENDEREÇO COMPLETO": "AVENIDA: ALFRIED KRUPP, Nº 600, BAIRRO: CENTRO, CIDADE: CAMPO LIMPO PAULISTA", "RAZÃO SOCIAL": "TREINO E VIDA", "NOME FANTASIA": "TREINO E VIDA", "NOME DO EMPRESÁRIO": "ANGÉLICA ROQUE", "STATUS": "-AP.LICAR T4" }, "geometry": { "type": "Point", "coordinates": [ -46.7883858, -23.2017426 ] } },
{ "type": "Feature", "properties": { "CNPJ": "51173218000189", "ENDEREÇO COMPLETO": "AVENIDA: ALFRIED KRUPP, Nº 345, BAIRRO: CENTRO, CIDADE: CAMPO LIMPO PAULISTA", "RAZÃO SOCIAL": "DANIEL PISCINAS", "NOME FANTASIA": "DANIEL PISCINAS", "NOME DO EMPRESÁRIO": "JESSIANE ALMEIDA", "STATUS": "-AP.LICAR T4" }, "geometry": { "type": "Point", "coordinates": [ -46.7869902, -23.204086 ] } },
{ "type": "Feature", "properties": { "CNPJ": "29745751000119", "ENDEREÇO COMPLETO": "AVENIDA: ADHERBAL DA COSTA MOREIRA, Nº 538, BAIRRO: JARDIM AMÉRICA, CIDADE: CAMPO LIMPO PAULISTA", "RAZÃO SOCIAL": "VIVENDO SAÚDE", "NOME FANTASIA": "VIVENDO SAÚDE", "NOME DO EMPRESÁRIO": "ÉRICA SALLES", "STATUS": "-AP.LICAR T4" }, "geometry": { "type": "Point", "coordinates": [ -46.7835108, -23.2025776 ] } },
{ "type": "Feature", "properties": { "CNPJ": "36531638000104", "ENDEREÇO COMPLETO": "AVENIDA: ADHERBAL DA COSTA MOREIRA, Nº 748, BAIRRO: JARDIM AMÉRICA, CIDADE: CAMPO LIMPO PAULISTA", "RAZÃO SOCIAL": "OTICA KADIMA", "NOME FANTASIA": "OTICA KADIMA", "NOME DO EMPRESÁRIO": "ANDREIA BRAGHETTI", "STATUS": "-AP.LICAR T4" }, "geometry": { "type": "Point", "coordinates": [ -46.7833261, -23.2008795 ] } },
{ "type": "Feature", "properties": { "CNPJ": "42182655000178", "ENDEREÇO COMPLETO": "RUA: NOVE DE JULHO, Nº 10, BAIRRO: VILA IMAPE, CIDADE: CAMPO LIMPO PAULISTA", "RAZÃO SOCIAL": "THAÍS", "NOME FANTASIA": "THAÍS", "NOME DO EMPRESÁRIO": "THAIS LEITE", "STATUS": "-AP.LICAR T4" }, "geometry": { "type": "Point", "coordinates": [ -46.7832561, -23.2006804 ] } },
{ "type": "Feature", "properties": { "CNPJ": "47303438000102", "ENDEREÇO COMPLETO": "AVENIDA: DOM PEDRO I, Nº 140, BAIRRO: CENTRO, CIDADE: CAMPO LIMPO PAULISTA", "RAZÃO SOCIAL": "CARINI VEÍCULOS", "NOME FANTASIA": "CARINI VEÍCULOS", "NOME DO EMPRESÁRIO": "MATHEUS GONÇALO", "STATUS": "-AP.LICAR T4" }, "geometry": { "type": "Point", "coordinates": [ -46.7936226, -23.2015857 ] } },
{ "type": "Feature", "properties": { "CNPJ": "04561856000197", "ENDEREÇO COMPLETO": "AVENIDA: ADHERBAL DA COSTA MOREIRA, Nº 1094, BAIRRO: JARDIM AMÉRICA, CIDADE: CAMPO LIMPO PAULISTA", "RAZÃO SOCIAL": "DALMAQ  MÁQUINAS E EQUIPAMENTOS", "NOME FANTASIA": "DALMAQ  MÁQUINAS E EQUIPAMENTOS", "NOME DO EMPRESÁRIO": "GLAUCIA LAIRA", "STATUS": "-AP.LICAR T4" }, "geometry": { "type": "Point", "coordinates": [ -46.7833934, -23.1978699 ] } },
{ "type": "Feature", "properties": { "CNPJ": "37764491000157", "ENDEREÇO COMPLETO": "AVENIDA: ADHERBAL DA COSTA MOREIRA, Nº 886, BAIRRO: JARDIM AMÉRICA, CIDADE: CAMPO LIMPO PAULISTA", "RAZÃO SOCIAL": "LB INFORMÁTICA", "NOME FANTASIA": "LB INFORMÁTICA", "NOME DO EMPRESÁRIO": "LUIZ SILVA", "STATUS": "-AP.LICAR T4" }, "geometry": { "type": "Point", "coordinates": [ -46.7832612, -23.1999154 ] } },
{ "type": "Feature", "properties": { "CNPJ": "45136795000106", "ENDEREÇO COMPLETO": "AVENIDA: ADHERBAL DA COSTA MOREIRA, Nº 874, BAIRRO: JARDIM AMÉRICA, CIDADE: CAMPO LIMPO PAULISTA", "RAZÃO SOCIAL": "ARCA DOCE SORVETES", "NOME FANTASIA": "ARCA DOCE SORVETES", "NOME DO EMPRESÁRIO": "SERGIO GEBRAN", "STATUS": "-AP.LICAR T4" }, "geometry": { "type": "Point", "coordinates": [ -46.7832428, -23.2000921 ] } }
]
}
