{
"type": "FeatureCollection",
"name": "VARZEA1",
"crs": { "type": "name", "properties": { "name": "urn:ogc:def:crs:OGC:1.3:CRS84" } },
"features": [
{ "type": "Feature", "properties": { "CNPJ": "45447788000117", "ENDEREÇO COMPLETO": "AVENIDA: PACAEMBU, Nº 2540, BAIRRO: JARDIM PAULISTA, CIDADE: VÁRZEA PAULISTA", "RAZÃO SOCIAL": "ADEGA DE VILA", "NOME FANTASIA": "ADEGA DE VILA", "NOME DO EMPRESÁRIO": "IGOR SILVA", "STATUS": "APLICAR T4" }, "geometry": { "type": "Point", "coordinates": [ -46.8160513, -23.1970738 ] } },
{ "type": "Feature", "properties": { "CNPJ": "21464135000188", "ENDEREÇO COMPLETO": "RUA: SOROCABA, Nº 285, BAIRRO: JARDIM PAULISTA, CIDADE: VÁRZEA PAULISTA", "RAZÃO SOCIAL": "LANCHONETE DA NETE", "NOME FANTASIA": "LANCHONETE DA NETE", "NOME DO EMPRESÁRIO": "IVONETE BARBOSA", "STATUS": "APLICAR T5" }, "geometry": { "type": "Point", "coordinates": [ -46.8334336, -23.2068944 ] } },
{ "type": "Feature", "properties": { "CNPJ": "41384119000192", "ENDEREÇO COMPLETO": "RUA: SOROCABA, Nº 205, BAIRRO: JARDIM PAULISTA, CIDADE: VÁRZEA PAULISTA", "RAZÃO SOCIAL": "MAX ENERGY SOLAR", "NOME FANTASIA": "MAX ENERGY SOLAR", "NOME DO EMPRESÁRIO": "FERNANDA SILVA", "STATUS": "APLICAR T4" }, "geometry": { "type": "Point", "coordinates": [ -46.8333274, -23.2077376 ] } },
{ "type": "Feature", "properties": { "CNPJ": "64890849000160", "ENDEREÇO COMPLETO": "RUA: SOROCABA, Nº 901, BAIRRO: JARDIM PAULISTA, CIDADE: VÁRZEA PAULISTA", "RAZÃO SOCIAL": "AGROPESCA DAI", "NOME FANTASIA": "AGROPESCA DAI", "NOME DO EMPRESÁRIO": "DAIANE SILVA", "STATUS": "APLICAR T4" }, "geometry": { "type": "Point", "coordinates": [ -46.8303734, -23.201712 ] } },
{ "type": "Feature", "properties": { "CNPJ": "63110834000170", "ENDEREÇO COMPLETO": "AVENIDA: BARRETOS, Nº 384, BAIRRO: JARDIM AMÉRICA, CIDADE: VÁRZEA PAULISTA", "RAZÃO SOCIAL": "MALHEIRO BIKE SHOP", "NOME FANTASIA": "MALHEIRO BIKE SHOP", "NOME DO EMPRESÁRIO": "APARECIDO DAVYD SANTOS", "STATUS": "APLICAR T4" }, "geometry": { "type": "Point", "coordinates": [ -46.8300578, -23.1983042 ] } },
{ "type": "Feature", "properties": { "CNPJ": "44394349000120", "ENDEREÇO COMPLETO": "RUA: OSASCO, Nº 245, BAIRRO: JARDIM AMÉRICA, CIDADE: VÁRZEA PAULISTA", "RAZÃO SOCIAL": "WBBVITE SOLUÇÕES ESTRATÉGIAS", "NOME FANTASIA": "WBBVITE SOLUÇÕES ESTRATÉGIAS", "NOME DO EMPRESÁRIO": "WELLINGTON BALTAZAR", "STATUS": "APLICAR T2" }, "geometry": { "type": "Point", "coordinates": [ -46.827713, -23.1940537 ] } },
{ "type": "Feature", "properties": { "CNPJ": "53974727000136", "ENDEREÇO COMPLETO": "AVENIDA: CENTRAL, Nº 155, BAIRRO: VILA SANTA TEREZINHA, CIDADE: VÁRZEA PAULISTA", "RAZÃO SOCIAL": "PAPELARIA CENTRAL", "NOME FANTASIA": "PAPELARIA CENTRAL", "NOME DO EMPRESÁRIO": "RODRIGO PEREIRA", "STATUS": "APLICAR T4" }, "geometry": { "type": "Point", "coordinates": [ -46.8470837, -23.2083759 ] } },
{ "type": "Feature", "properties": { "CNPJ": "59560789000188", "ENDEREÇO COMPLETO": "AVENIDA: JOSÉ RABELLO PORTELLA, Nº 605, BAIRRO: JARDIM MARIA DE FÁTIMA, CIDADE: VÁRZEA PAULISTA", "RAZÃO SOCIAL": "RELOJOARIA MODERNA", "NOME FANTASIA": "RELOJOARIA MODERNA", "NOME DO EMPRESÁRIO": "CLARICE DUARTE", "STATUS": "APLICAR T5" }, "geometry": { "type": "Point", "coordinates": [ -46.8463794, -23.216559 ] } },
{ "type": "Feature", "properties": { "CNPJ": "28048659000137", "ENDEREÇO COMPLETO": "RUA: DOM PEDRO II, Nº 184, BAIRRO: VILA SANTA TEREZINHA, CIDADE: VÁRZEA PAULISTA", "RAZÃO SOCIAL": "RM A CASA DA VASSOURA", "NOME FANTASIA": "RM A CASA DA VASSOURA", "NOME DO EMPRESÁRIO": "GIOVANA RODRIGUES", "STATUS": "APLICAR T4" }, "geometry": { "type": "Point", "coordinates": [ -46.8452424, -23.2090744 ] } },
{ "type": "Feature", "properties": { "CNPJ": "62980835000102", "ENDEREÇO COMPLETO": "AVENIDA: FERNÃO DIAS PAES LEME, Nº 864, BAIRRO: CENTRO, CIDADE: VÁRZEA PAULISTA", "RAZÃO SOCIAL": "VIP VARIEDADES", "NOME FANTASIA": "VIP VARIEDADES", "NOME DO EMPRESÁRIO": "EDUARDA SOUZA", "STATUS": "APLICAR T4" }, "geometry": { "type": "Point", "coordinates": [ -46.8371247, -23.2126883 ] } },
{ "type": "Feature", "properties": { "CNPJ": "08366657000189", "ENDEREÇO COMPLETO": "AVENIDA: FERNÃO DIAS PAES LEME, Nº 864, BAIRRO: CENTRO, CIDADE: VÁRZEA PAULISTA", "RAZÃO SOCIAL": "ENCONTRO MODA INTIMA", "NOME FANTASIA": "ENCONTRO MODA INTIMA", "NOME DO EMPRESÁRIO": "SILVANIA NASCIMENTO", "STATUS": "APLICAR T2" }, "geometry": { "type": "Point", "coordinates": [ -46.8371247, -23.2126883 ] } },
{ "type": "Feature", "properties": { "CNPJ": "35615815000160", "ENDEREÇO COMPLETO": "RUA: VICTÓRIO SPINUCCI, Nº 324, BAIRRO: JARDIM PROMECA, CIDADE: VÁRZEA PAULISTA", "RAZÃO SOCIAL": "ZAFFAN FERRAGENS", "NOME FANTASIA": "ZAFFAN FERRAGENS", "NOME DO EMPRESÁRIO": "ROBSON ZAFFANI", "STATUS": "APLICAR T4" }, "geometry": { "type": "Point", "coordinates": [ -46.8127796, -23.2135271 ] } },
{ "type": "Feature", "properties": { "CNPJ": "02599172000159", "ENDEREÇO COMPLETO": "RUA: EUGÊNIO CAREZZATO, Nº 14, BAIRRO: JARDIM PROMECA, CIDADE: VÁRZEA PAULISTA", "RAZÃO SOCIAL": "LU MAGAZINE", "NOME FANTASIA": "LU MAGAZINE", "NOME DO EMPRESÁRIO": "LUIZ PEDROSO", "STATUS": "APLICAR T4" }, "geometry": { "type": "Point", "coordinates": [ -46.8127471, -23.2137305 ] } },
{ "type": "Feature", "properties": { "CNPJ": "62411621000115", "ENDEREÇO COMPLETO": "RUA: VICTÓRIO SPINUCCI, Nº 510, BAIRRO: JARDIM PROMECA, CIDADE: VÁRZEA PAULISTA", "RAZÃO SOCIAL": "ALTÍSSIMO BURGER", "NOME FANTASIA": "ALTÍSSIMO BURGER", "NOME DO EMPRESÁRIO": "ANA MOL", "STATUS": "APLICAR T4" }, "geometry": { "type": "Point", "coordinates": [ -46.8124248, -23.2143196 ] } },
{ "type": "Feature", "properties": { "CNPJ": "24317589000114", "ENDEREÇO COMPLETO": "RUA: VICTÓRIO SPINUCCI, Nº 165, BAIRRO: JARDIM PROMECA, CIDADE: VÁRZEA PAULISTA", "RAZÃO SOCIAL": "BICICLETARIA PROMECA", "NOME FANTASIA": "BICICLETARIA PROMECA", "NOME DO EMPRESÁRIO": "WESLEY MORAES", "STATUS": "APLICAR T4" }, "geometry": { "type": "Point", "coordinates": [ -46.8124002, -23.211935 ] } },
{ "type": "Feature", "properties": { "CNPJ": "15564591000105", "ENDEREÇO COMPLETO": "RUA: VICTÓRIO SPINUCCI, Nº 417, BAIRRO: JARDIM PROMECA, CIDADE: VÁRZEA PAULISTA", "RAZÃO SOCIAL": "ELETRO CORSINI", "NOME FANTASIA": "ELETRO CORSINI", "NOME DO EMPRESÁRIO": "HELEN CORSINI", "STATUS": "APLICAR T4" }, "geometry": { "type": "Point", "coordinates": [ -46.8123227, -23.2140394 ] } },
{ "type": "Feature", "properties": { "CNPJ": "64309716000158", "ENDEREÇO COMPLETO": "RUA: VICTÓRIO SPINUCCI, Nº 95, BAIRRO: JARDIM PROMECA, CIDADE: VÁRZEA PAULISTA", "RAZÃO SOCIAL": "PJ TECH", "NOME FANTASIA": "PJ TECH", "NOME DO EMPRESÁRIO": "PAMELA SANTOS", "STATUS": "APLICAR T4" }, "geometry": { "type": "Point", "coordinates": [ -46.8121284, -23.2114989 ] } },
{ "type": "Feature", "properties": { "CNPJ": "62272504000118", "ENDEREÇO COMPLETO": "RUA: VICTÓRIO SPINUCCI, Nº 512, BAIRRO: JARDIM PROMECA, CIDADE: VÁRZEA PAULISTA", "RAZÃO SOCIAL": "EMPÓRIO DA MA", "NOME FANTASIA": "EMPÓRIO DA MA", "NOME DO EMPRESÁRIO": "MARLUCE ESPINDOLA", "STATUS": "APLICAR T4" }, "geometry": { "type": "Point", "coordinates": [ -46.8120946, -23.2149603 ] } },
{ "type": "Feature", "properties": { "CNPJ": "07789628000167", "ENDEREÇO COMPLETO": "AVENIDA: DUQUE DE CAXIAS, Nº 2335, BAIRRO: JARDIM PROMECA, CIDADE: VÁRZEA PAULISTA", "RAZÃO SOCIAL": "FIXOGERAL", "NOME FANTASIA": "FIXOGERAL", "NOME DO EMPRESÁRIO": "JUNIOR CICERO", "STATUS": "APLICAR T4" }, "geometry": { "type": "Point", "coordinates": [ -46.8120085, -23.2086807 ] } },
{ "type": "Feature", "properties": { "CNPJ": "58732259000107", "ENDEREÇO COMPLETO": "RUA: MARANHÃO, Nº 19, BAIRRO: VILA POPULAR, CIDADE: VÁRZEA PAULISTA", "RAZÃO SOCIAL": "NEGO BLUE", "NOME FANTASIA": "NEGO BLUE", "NOME DO EMPRESÁRIO": "CAUE CASOTI", "STATUS": "APLICAR T4" }, "geometry": { "type": "Point", "coordinates": [ -46.8424952, -23.2274661 ] } },
{ "type": "Feature", "properties": { "CNPJ": "62090401000137", "ENDEREÇO COMPLETO": "RUA: CORONEL ÁLVARO DE CASTRO, Nº 366, BAIRRO: VILA SÃO JOSÉ, CIDADE: VÁRZEA PAULISTA", "RAZÃO SOCIAL": "MAKE SHINE", "NOME FANTASIA": "MAKE SHINE", "NOME DO EMPRESÁRIO": "SHIRLEI DINIZ", "STATUS": "APLICAR T4" }, "geometry": { "type": "Point", "coordinates": [ -46.8343562, -23.2135292 ] } },
{ "type": "Feature", "properties": { "CNPJ": "07671717000104", "ENDEREÇO COMPLETO": "RUA: CORONEL ÁLVARO DE CASTRO, Nº 275, BAIRRO: VILA SÃO JOSÉ, CIDADE: VÁRZEA PAULISTA", "RAZÃO SOCIAL": "AGRO GUERRA", "NOME FANTASIA": "AGRO GUERRA", "NOME DO EMPRESÁRIO": "ANA PAULA GUERRA", "STATUS": "APLICAR T4" }, "geometry": { "type": "Point", "coordinates": [ -46.8335218, -23.2138039 ] } },
{ "type": "Feature", "properties": { "CNPJ": "31560079000139", "ENDEREÇO COMPLETO": "RUA: SAO JOSÉ, Nº 162, BAIRRO: VILA SÃO JOSÉ, CIDADE: VÁRZEA PAULISTA", "RAZÃO SOCIAL": "LC STYLE", "NOME FANTASIA": "LC STYLE", "NOME DO EMPRESÁRIO": "FABIANO CAMPANA", "STATUS": "APLICAR T4" }, "geometry": { "type": "Point", "coordinates": [ -46.8333978, -23.2140659 ] } },
{ "type": "Feature", "properties": { "CNPJ": "20885925000174", "ENDEREÇO COMPLETO": "RUA: SAO JOSÉ, Nº 16, BAIRRO: VILA SÃO JOSÉ, CIDADE: VÁRZEA PAULISTA", "RAZÃO SOCIAL": "ESSESNCIA DE MULHER", "NOME FANTASIA": "ESSESNCIA DE MULHER", "NOME DO EMPRESÁRIO": "VANDA PEREIRA", "STATUS": "APLICAR T4" }, "geometry": { "type": "Point", "coordinates": [ -46.8333792, -23.2136466 ] } },
{ "type": "Feature", "properties": { "CNPJ": "37532010000188", "ENDEREÇO COMPLETO": "RUA: SAO JOSÉ, Nº 165, BAIRRO: VILA SÃO JOSÉ, CIDADE: VÁRZEA PAULISTA", "RAZÃO SOCIAL": "CIRÚRGICA VÁRZEA MED", "NOME FANTASIA": "CIRÚRGICA VÁRZEA MED", "NOME DO EMPRESÁRIO": "STEFANY SOUZA", "STATUS": "APLICAR T4" }, "geometry": { "type": "Point", "coordinates": [ -46.8331381, -23.2142888 ] } },
{ "type": "Feature", "properties": { "CNPJ": "44160409000140", "ENDEREÇO COMPLETO": "AVENIDA: FERNÃO DIAS PAES LEME, Nº 371, BAIRRO: CENTRO, CIDADE: VÁRZEA PAULISTA", "RAZÃO SOCIAL": "PAPEL E ARTE", "NOME FANTASIA": "PAPEL E ARTE", "NOME DO EMPRESÁRIO": "MARLENE ALMEIDA", "STATUS": "APLICAR T4" }, "geometry": { "type": "Point", "coordinates": [ -46.8324654, -23.212507 ] } },
{ "type": "Feature", "properties": { "CNPJ": "33459319000139", "ENDEREÇO COMPLETO": "AVENIDA: FERNÃO DIAS PAES LEME, Nº 970, BAIRRO: CENTRO, CIDADE: VÁRZEA PAULISTA", "RAZÃO SOCIAL": "FRUTO DA TERRA", "NOME FANTASIA": "FRUTO DA TERRA", "NOME DO EMPRESÁRIO": "TIAGO SANTOS", "STATUS": "APLICAR T5" }, "geometry": { "type": "Point", "coordinates": [ -46.8382923, -23.2126871 ] } },
{ "type": "Feature", "properties": { "CNPJ": "57237586000120", "ENDEREÇO COMPLETO": "AVENIDA: FERNÃO DIAS PAES LEME, Nº 935, BAIRRO: CENTRO, CIDADE: VÁRZEA PAULISTA", "RAZÃO SOCIAL": "GB INFORMÁTICA", "NOME FANTASIA": "GB INFORMÁTICA", "NOME DO EMPRESÁRIO": "ALECIO BUSCH", "STATUS": "APLICAR T4" }, "geometry": { "type": "Point", "coordinates": [ -46.8377792, -23.212969 ] } },
{ "type": "Feature", "properties": { "CNPJ": "30811536000158", "ENDEREÇO COMPLETO": "AVENIDA: FERNÃO DIAS PAES LEME, Nº 893, BAIRRO: CENTRO, CIDADE: VÁRZEA PAULISTA", "RAZÃO SOCIAL": "TITECH CELULARES", "NOME FANTASIA": "TITECH CELULARES", "NOME DO EMPRESÁRIO": "DAIANE SILVA", "STATUS": "APLICAR T5" }, "geometry": { "type": "Point", "coordinates": [ -46.8373638, -23.2129615 ] } },
{ "type": "Feature", "properties": { "CNPJ": "63145741000180", "ENDEREÇO COMPLETO": "RUA: JOSÉ DIAS DE CASTRO, Nº 331, BAIRRO: VILA SÃO JOSÉ, CIDADE: VÁRZEA PAULISTA", "RAZÃO SOCIAL": "AGRO CENTRAL", "NOME FANTASIA": "AGRO CENTRAL", "NOME DO EMPRESÁRIO": "MARIA EDUARDA SILVA", "STATUS": "APLICAR T4" }, "geometry": { "type": "Point", "coordinates": [ -46.8366411, -23.2140024 ] } },
{ "type": "Feature", "properties": { "CNPJ": "59635019000157", "ENDEREÇO COMPLETO": "AVENIDA: FERNÃO DIAS PAES LEME, Nº 688, BAIRRO: CENTRO, CIDADE: VÁRZEA PAULISTA", "RAZÃO SOCIAL": "COXINHAS DO SIMÕES", "NOME FANTASIA": "COXINHAS DO SIMÕES", "NOME DO EMPRESÁRIO": "SAMANTHA SIMOES", "STATUS": "APLICAR T4" }, "geometry": { "type": "Point", "coordinates": [ -46.8353066, -23.2126924 ] } },
{ "type": "Feature", "properties": { "CNPJ": "25179951000109", "ENDEREÇO COMPLETO": "AVENIDA: FERNÃO DIAS PAES LEME, Nº 1872, BAIRRO: CENTRO, CIDADE: VÁRZEA PAULISTA", "RAZÃO SOCIAL": "ROD CAR VEÍCULOS", "NOME FANTASIA": "ROD CAR VEÍCULOS", "NOME DO EMPRESÁRIO": "RODRIGO LEME", "STATUS": "APLICAR T2" }, "geometry": { "type": "Point", "coordinates": [ -46.8448284, -23.211458 ] } },
{ "type": "Feature", "properties": { "CNPJ": "47996393000107", "ENDEREÇO COMPLETO": "RUA: ANTÔNIO LUIZ SUTTI, Nº 77, BAIRRO: JARDIM MARIA DE FÁTIMA, CIDADE: VÁRZEA PAULISTA", "RAZÃO SOCIAL": "MARIA CHIQUINHA TATOO", "NOME FANTASIA": "MARIA CHIQUINHA TATOO", "NOME DO EMPRESÁRIO": "ENDRIGO HASIGUTI", "STATUS": "APLICAR T4" }, "geometry": { "type": "Point", "coordinates": [ -46.8423696, -23.2131591 ] } },
{ "type": "Feature", "properties": { "CNPJ": "63667007000181", "ENDEREÇO COMPLETO": "AVENIDA: FERNÃO DIAS PAES LEME, Nº 1506, BAIRRO: CENTRO, CIDADE: VÁRZEA PAULISTA", "RAZÃO SOCIAL": "DECOR COLORS", "NOME FANTASIA": "DECOR COLORS", "NOME DO EMPRESÁRIO": "LUIS JUNIOR", "STATUS": "APLICAR T4" }, "geometry": { "type": "Point", "coordinates": [ -46.8419267, -23.212736 ] } },
{ "type": "Feature", "properties": { "CNPJ": "50725471000135", "ENDEREÇO COMPLETO": "RUA: PASCHOAL GIANFRANCESCO, Nº 60, BAIRRO: JARDIM DAS PALMEIRAS, CIDADE: VÁRZEA PAULISTA", "RAZÃO SOCIAL": "CHAVEIRO ONI", "NOME FANTASIA": "CHAVEIRO ONI", "NOME DO EMPRESÁRIO": "GUILHERME PINHO", "STATUS": "APLICAR T4" }, "geometry": { "type": "Point", "coordinates": [ -46.8391776, -23.2131065 ] } },
{ "type": "Feature", "properties": { "CNPJ": "53137916000154", "ENDEREÇO COMPLETO": "AVENIDA: DUQUE DE CAXIAS, Nº 2433, BAIRRO: JARDIM PROMECA, CIDADE: VÁRZEA PAULISTA", "RAZÃO SOCIAL": "DIH BURGUERS", "NOME FANTASIA": "DIH BURGUERS", "NOME DO EMPRESÁRIO": "DIEGO SANTOS", "STATUS": "APLICAR T2" }, "geometry": { "type": "Point", "coordinates": [ -46.809783, -23.2092217 ] } },
{ "type": "Feature", "properties": { "CNPJ": "61553968000130", "ENDEREÇO COMPLETO": "AVENIDA: FERNÃO DIAS PAES LEME, Nº 2487, BAIRRO: CENTRO, CIDADE: VÁRZEA PAULISTA", "RAZÃO SOCIAL": "SUPER TROCA DE ÓLEO HORTOLANDIA", "NOME FANTASIA": "SUPER TROCA DE ÓLEO HORTOLANDIA", "NOME DO EMPRESÁRIO": "VANDERLEI COELHO", "STATUS": "APLICAR T4" }, "geometry": { "type": "Point", "coordinates": [ -46.8484655, -23.2090503 ] } },
{ "type": "Feature", "properties": { "CNPJ": "55554021000140", "ENDEREÇO COMPLETO": "AVENIDA: FERNÃO DIAS PAES LEME, Nº 2463, BAIRRO: CENTRO, CIDADE: VÁRZEA PAULISTA", "RAZÃO SOCIAL": "KIOSQUE ROSEIRA", "NOME FANTASIA": "KIOSQUE ROSEIRA", "NOME DO EMPRESÁRIO": "RAFAEL PASSARELLI", "STATUS": "APLICAR T5" }, "geometry": { "type": "Point", "coordinates": [ -46.8482859, -23.209087 ] } },
{ "type": "Feature", "properties": { "CNPJ": "17984997000164", "ENDEREÇO COMPLETO": "AVENIDA: FERNÃO DIAS PAES LEME, Nº 2460, BAIRRO: CENTRO, CIDADE: VÁRZEA PAULISTA", "RAZÃO SOCIAL": "BAU ENCANTADO FANTASIAS", "NOME FANTASIA": "BAU ENCANTADO FANTASIAS", "NOME DO EMPRESÁRIO": "BRUNA CAMARGO", "STATUS": "APLICAR T5" }, "geometry": { "type": "Point", "coordinates": [ -46.8480301, -23.2087346 ] } },
{ "type": "Feature", "properties": { "CNPJ": "36818014000164", "ENDEREÇO COMPLETO": "RUA: CANANÉIA, Nº 490, BAIRRO: JARDIM PAULISTA, CIDADE: VÁRZEA PAULISTA", "RAZÃO SOCIAL": "BARBEARIA DORNELAS", "NOME FANTASIA": "BARBEARIA DORNELAS", "NOME DO EMPRESÁRIO": "GABRIEL PINTO", "STATUS": "APLICAR T4" }, "geometry": { "type": "Point", "coordinates": [ -46.823141, -23.198629 ] } },
{ "type": "Feature", "properties": { "CNPJ": "61439448000109", "ENDEREÇO COMPLETO": "AVENIDA: TANABI, Nº 160, BAIRRO: JARDIM AMÉRICA, CIDADE: VÁRZEA PAULISTA", "RAZÃO SOCIAL": "AGRO BORGES", "NOME FANTASIA": "AGRO BORGES", "NOME DO EMPRESÁRIO": "LUIZ BORGES", "STATUS": "APLICAR T4" }, "geometry": { "type": "Point", "coordinates": [ -46.8229401, -23.1955152 ] } },
{ "type": "Feature", "properties": { "CNPJ": "35901652000181", "ENDEREÇO COMPLETO": "AVENIDA: TANABI, Nº 292, BAIRRO: JARDIM AMÉRICA, CIDADE: VÁRZEA PAULISTA", "RAZÃO SOCIAL": "BARBEARIA VINICIUS BARBER SHOP", "NOME FANTASIA": "BARBEARIA VINICIUS BARBER SHOP", "NOME DO EMPRESÁRIO": "VINÍCIUS SILVA", "STATUS": "APLICAR T4" }, "geometry": { "type": "Point", "coordinates": [ -46.8227696, -23.1946126 ] } },
{ "type": "Feature", "properties": { "CNPJ": "55760838000175", "ENDEREÇO COMPLETO": "AVENIDA: TANABI, Nº 432, BAIRRO: JARDIM AMÉRICA, CIDADE: VÁRZEA PAULISTA", "RAZÃO SOCIAL": "ADEGA BARATEIRO", "NOME FANTASIA": "ADEGA BARATEIRO", "NOME DO EMPRESÁRIO": "VINÍCIUS CRUZ", "STATUS": "APLICAR T4" }, "geometry": { "type": "Point", "coordinates": [ -46.8217557, -23.1934834 ] } },
{ "type": "Feature", "properties": { "CNPJ": "17987755000124", "ENDEREÇO COMPLETO": "RUA: PIRAJU, Nº 26, BAIRRO: JARDIM AMÉRICA, CIDADE: VÁRZEA PAULISTA", "RAZÃO SOCIAL": "RESTAURANTE REAL", "NOME FANTASIA": "RESTAURANTE REAL", "NOME DO EMPRESÁRIO": "MARIA SOUZA", "STATUS": "APLICAR T2" }, "geometry": { "type": "Point", "coordinates": [ -46.8205805, -23.1925343 ] } },
{ "type": "Feature", "properties": { "CNPJ": "63164173000165", "ENDEREÇO COMPLETO": "AVENIDA: MACAÚBA, Nº 757, BAIRRO: JARDIM MIRANTE, CIDADE: VÁRZEA PAULISTA", "RAZÃO SOCIAL": "THAELU", "NOME FANTASIA": "THAELU", "NOME DO EMPRESÁRIO": "TAMIRES REITER", "STATUS": "APLICAR T4" }, "geometry": { "type": "Point", "coordinates": [ -46.8357649, -23.2213801 ] } },
{ "type": "Feature", "properties": { "CNPJ": "37134737000107", "ENDEREÇO COMPLETO": "AVENIDA: MACAÚBA, Nº 780, BAIRRO: JARDIM MIRANTE, CIDADE: VÁRZEA PAULISTA", "RAZÃO SOCIAL": "CONEXCELL", "NOME FANTASIA": "CONEXCELL", "NOME DO EMPRESÁRIO": "ISMAEL RIBEIRO", "STATUS": "APLICAR T4" }, "geometry": { "type": "Point", "coordinates": [ -46.8353125, -23.2213461 ] } },
{ "type": "Feature", "properties": { "CNPJ": "40850376000100", "ENDEREÇO COMPLETO": "RUA: IGURUPI, Nº 26, BAIRRO: JARDIM CRUZ ALTA, CIDADE: VÁRZEA PAULISTA", "RAZÃO SOCIAL": "GIMENE DOCES E BOLOS CASEIROS", "NOME FANTASIA": "GIMENE DOCES E BOLOS CASEIROS", "NOME DO EMPRESÁRIO": "MICHELE SOUZA", "STATUS": "APLICAR T4" }, "geometry": { "type": "Point", "coordinates": [ -46.8347633, -23.2162244 ] } },
{ "type": "Feature", "properties": { "CNPJ": "20086710000193", "ENDEREÇO COMPLETO": "AVENIDA: DUQUE DE CAXIAS, Nº 420, BAIRRO: JARDIM PROMECA, CIDADE: VÁRZEA PAULISTA", "RAZÃO SOCIAL": "ADEGA REALI", "NOME FANTASIA": "ADEGA REALI", "NOME DO EMPRESÁRIO": "ENZO JUNIOR", "STATUS": "APLICAR T4" }, "geometry": { "type": "Point", "coordinates": [ -46.826148, -23.21074 ] } },
{ "type": "Feature", "properties": { "CNPJ": "14481867000110", "ENDEREÇO COMPLETO": "RUA: DOM PEDRO I, Nº 286, BAIRRO: JARDIM BURITI, CIDADE: VÁRZEA PAULISTA", "RAZÃO SOCIAL": "D10 SPORTS", "NOME FANTASIA": "D10 SPORTS", "NOME DO EMPRESÁRIO": "DOUGLAS SILVA", "STATUS": "APLICAR T4" }, "geometry": { "type": "Point", "coordinates": [ -46.8545844, -23.2149749 ] } },
{ "type": "Feature", "properties": { "CNPJ": "63783676000119", "ENDEREÇO COMPLETO": "RUA: MATHIAS MUCHA, Nº 163, BAIRRO: JARDIM BURITI, CIDADE: VÁRZEA PAULISTA", "RAZÃO SOCIAL": "PG SUSPENSÕES", "NOME FANTASIA": "PG SUSPENSÕES", "NOME DO EMPRESÁRIO": "PATRICK SOARES", "STATUS": "APLICAR T4" }, "geometry": { "type": "Point", "coordinates": [ -46.8537016, -23.2179943 ] } },
{ "type": "Feature", "properties": { "CNPJ": "17227977000149", "ENDEREÇO COMPLETO": "RUA: ITORORÓ, Nº 30, BAIRRO: VILA IGUAÇU, CIDADE: VÁRZEA PAULISTA", "RAZÃO SOCIAL": "JÁ SERVICE CAR", "NOME FANTASIA": "JÁ SERVICE CAR", "NOME DO EMPRESÁRIO": "JEAN ANGELIERI", "STATUS": "APLICAR T5" }, "geometry": { "type": "Point", "coordinates": [ -46.8481986, -23.2241185 ] } },
{ "type": "Feature", "properties": { "CNPJ": "58012679000119", "ENDEREÇO COMPLETO": "RUA: DO TANQUE VELHO, Nº 102, BAIRRO: VILA IGUAÇU, CIDADE: VÁRZEA PAULISTA", "RAZÃO SOCIAL": "ECOM EXPRESS", "NOME FANTASIA": "ECOM EXPRESS", "NOME DO EMPRESÁRIO": "LUCAS SANTOS", "STATUS": "APLICAR T5" }, "geometry": { "type": "Point", "coordinates": [ -46.8471369, -23.2188881 ] } },
{ "type": "Feature", "properties": { "CNPJ": "11690733000111", "ENDEREÇO COMPLETO": "AVENIDA: JOSÉ RABELLO PORTELLA, Nº 3598, BAIRRO: VILA POPULAR, CIDADE: VÁRZEA PAULISTA", "RAZÃO SOCIAL": "SUPERMERCADO AYMORE", "NOME FANTASIA": "SUPERMERCADO AYMORE", "NOME DO EMPRESÁRIO": "FERNANDO BONFIM", "STATUS": "APLICAR T5" }, "geometry": { "type": "Point", "coordinates": [ -46.8500705, -23.2320232 ] } },
{ "type": "Feature", "properties": { "CNPJ": "61918362000150", "ENDEREÇO COMPLETO": "AVENIDA: PARAIBUNA, Nº 183, BAIRRO: JARDIM AMÉRICA, CIDADE: VÁRZEA PAULISTA", "RAZÃO SOCIAL": "AÇAITERIA AMÉRICA", "NOME FANTASIA": "AÇAITERIA AMÉRICA", "NOME DO EMPRESÁRIO": "ROGÉRIO MARINHO", "STATUS": "APLICAR T4" }, "geometry": { "type": "Point", "coordinates": [ -46.8311164, -23.2000552 ] } },
{ "type": "Feature", "properties": { "CNPJ": "46526357000109", "ENDEREÇO COMPLETO": "RUA: NAVIRAÍ, Nº 29, BAIRRO: JARDIM AMÉRICA, CIDADE: VÁRZEA PAULISTA", "RAZÃO SOCIAL": "EMPÓRIO CONFECÇÕES", "NOME FANTASIA": "EMPÓRIO CONFECÇÕES", "NOME DO EMPRESÁRIO": "LEILTON PAIXÃO", "STATUS": "APLICAR T4" }, "geometry": { "type": "Point", "coordinates": [ -46.8300837, -23.199207 ] } },
{ "type": "Feature", "properties": { "CNPJ": "54927164000198", "ENDEREÇO COMPLETO": "RUA: NAVIRAÍ, Nº 97, BAIRRO: JARDIM AMÉRICA, CIDADE: VÁRZEA PAULISTA", "RAZÃO SOCIAL": "BAR DA MARTA", "NOME FANTASIA": "BAR DA MARTA", "NOME DO EMPRESÁRIO": "MARTA PRETO", "STATUS": "APLICAR T4" }, "geometry": { "type": "Point", "coordinates": [ -46.8295182, -23.1995894 ] } },
{ "type": "Feature", "properties": { "CNPJ": "43063703000171", "ENDEREÇO COMPLETO": "AVENIDA: EDUARDO CASTRO, Nº 145, BAIRRO: VILA SÃO JOSÉ, CIDADE: VÁRZEA PAULISTA", "RAZÃO SOCIAL": "PADARIA R ER", "NOME FANTASIA": "PADARIA R ER", "NOME DO EMPRESÁRIO": "REGINA LEITE", "STATUS": "APLICAR T4" }, "geometry": { "type": "Point", "coordinates": [ -46.8307831, -23.2127935 ] } },
{ "type": "Feature", "properties": { "CNPJ": "26250302000101", "ENDEREÇO COMPLETO": "RUA: SAO VICENTE, Nº 470, BAIRRO: JARDIM PAULISTA, CIDADE: VÁRZEA PAULISTA", "RAZÃO SOCIAL": "ADEGA DRINK BEER", "NOME FANTASIA": "ADEGA DRINK BEER", "NOME DO EMPRESÁRIO": "ERASMO OLIVEIRA", "STATUS": "APLICAR T4" }, "geometry": { "type": "Point", "coordinates": [ -46.8241305, -23.1988553 ] } },
{ "type": "Feature", "properties": { "CNPJ": "64891250000141", "ENDEREÇO COMPLETO": "RUA: PONGAI, Nº 135, BAIRRO: VILA REAL, CIDADE: VÁRZEA PAULISTA", "RAZÃO SOCIAL": "64.891.250 CARLA DE ALMEIDA PINHO", "NOME FANTASIA": "CARLA ALMEIDA PINHO", "NOME DO EMPRESÁRIO": "CARLA ALMEIDA PINHO", "STATUS": "APLICAR T4" }, "geometry": { "type": "Point", "coordinates": [ -46.816208, -23.190001 ] } },
{ "type": "Feature", "properties": { "CNPJ": "51184072000177", "ENDEREÇO COMPLETO": "RUA: IGARAPE, Nº 118, BAIRRO: JARDIM AMÉRICA, CIDADE: VÁRZEA PAULISTA", "RAZÃO SOCIAL": "51.184.072 JANE RAMOS DOS REIS", "NOME FANTASIA": "JANE RAMOS DOS REIS", "NOME DO EMPRESÁRIO": "JANE RAMOS DOS REIS", "STATUS": "APLICAR T4" }, "geometry": { "type": "Point", "coordinates": [ -46.8167784, -23.188691 ] } },
{ "type": "Feature", "properties": { "CNPJ": "37960319000179", "ENDEREÇO COMPLETO": "AVENIDA: ITÁLIA, Nº 200, BAIRRO: PARQUE AMARYLIS, CIDADE: ITUPEVA", "RAZÃO SOCIAL": "AMANDA STRACHICINI", "NOME FANTASIA": "AMANDA STRACHICINI", "NOME DO EMPRESÁRIO": "AMANDA FERREIRA DE JESUS BONANOMI", "STATUS": "-AP.LICAR T5" }, "geometry": { "type": "Point", "coordinates": [ -47.0591133, -23.1534129 ] } },
{ "type": "Feature", "properties": { "CNPJ": "36561289000165", "ENDEREÇO COMPLETO": "AVENIDA: ITÁLIA, Nº 200, BAIRRO: PARQUE AMARYLIS, CIDADE: ITUPEVA", "RAZÃO SOCIAL": "MAMÃE CORUJA", "NOME FANTASIA": "MAMÃE CORUJA", "NOME DO EMPRESÁRIO": "KELLI APARECIDA TOLEDO RUANO", "STATUS": "-AP.LICAR T5" }, "geometry": { "type": "Point", "coordinates": [ -47.0591133, -23.1534129 ] } },
{ "type": "Feature", "properties": { "CNPJ": "17681668000144", "ENDEREÇO COMPLETO": "AVENIDA: ITÁLIA, Nº 200, BAIRRO: PARQUE AMARYLIS, CIDADE: ITUPEVA", "RAZÃO SOCIAL": "BUGIGANGA ELETRONICAS", "NOME FANTASIA": "BUGIGANGA ELETRONICAS", "NOME DO EMPRESÁRIO": "AMANDA NUNES DOS SANTOS", "STATUS": "-AP.LICAR T5" }, "geometry": { "type": "Point", "coordinates": [ -47.0591133, -23.1534129 ] } },
{ "type": "Feature", "properties": { "CNPJ": "27066366000110", "ENDEREÇO COMPLETO": "AVENIDA: ITÁLIA, Nº 194, BAIRRO: JARDIM SÃO VICENTE, CIDADE: ITUPEVA", "RAZÃO SOCIAL": "GRÃOS E CIA ITUPEVA", "NOME FANTASIA": "GRÃOS E CIA ITUPEVA", "NOME DO EMPRESÁRIO": "FERNANDA VALERIO", "STATUS": "-AP.LICAR T5" }, "geometry": { "type": "Point", "coordinates": [ -47.0587327, -23.153365 ] } },
{ "type": "Feature", "properties": { "CNPJ": "65420276000174", "ENDEREÇO COMPLETO": "AVENIDA: ITÁLIA, Nº 166, BAIRRO: JARDIM SÃO VICENTE, CIDADE: ITUPEVA", "RAZÃO SOCIAL": "EVIDÊNCIA MODAS", "NOME FANTASIA": "EVIDÊNCIA MODAS", "NOME DO EMPRESÁRIO": "JOSEZILEINE CARDOSO DE OLIVEIRA", "STATUS": "-AP.LICAR T5" }, "geometry": { "type": "Point", "coordinates": [ -47.0586203, -23.1532192 ] } },
{ "type": "Feature", "properties": { "CNPJ": "63102456000182", "ENDEREÇO COMPLETO": "AVENIDA: ITÁLIA, Nº 166, BAIRRO: PARQUE AMARYLIS, CIDADE: ITUPEVA", "RAZÃO SOCIAL": "GIRASSOL VESTUÁRIOS E ACESSÓRIOS LTDA", "NOME FANTASIA": "GIRASSOL VESTUÁRIOS E ACESSÓRIOS LTDA", "NOME DO EMPRESÁRIO": "EDMEIA FELIX DE PINHO", "STATUS": "-AP.LICAR T5" }, "geometry": { "type": "Point", "coordinates": [ -47.0586203, -23.1532192 ] } },
{ "type": "Feature", "properties": { "CNPJ": "28474525000188", "ENDEREÇO COMPLETO": "RUA: ANSELMO POLLI, Nº 32, BAIRRO: JARDIM PRIMAVERA, CIDADE: ITUPEVA", "RAZÃO SOCIAL": "ATELIÊ SIMONE MULLER", "NOME FANTASIA": "ATELIÊ SIMONE MULLER", "NOME DO EMPRESÁRIO": "YASMIN STEPHANIE RODRIGUES DE ALMEIDA", "STATUS": "-AP.LICAR T5" }, "geometry": { "type": "Point", "coordinates": [ -47.0555138, -23.1621368 ] } },
{ "type": "Feature", "properties": { "CNPJ": "40785208000188", "ENDEREÇO COMPLETO": "AVENIDA: BRASIL, Nº 200, BAIRRO: JARDIM SÃO VICENTE, CIDADE: ITUPEVA", "RAZÃO SOCIAL": "ANJO SAPECA", "NOME FANTASIA": "ANJO SAPECA", "NOME DO EMPRESÁRIO": "SAMIRA IRIS GONCALVES", "STATUS": "-AP.LICAR T5" }, "geometry": { "type": "Point", "coordinates": [ -47.0595184, -23.1570457 ] } },
{ "type": "Feature", "properties": { "CNPJ": "19326162000142", "ENDEREÇO COMPLETO": "AVENIDA: ITÁLIA, Nº 200, BAIRRO: PARQUE AMARYLIS, CIDADE: ITUPEVA", "RAZÃO SOCIAL": "DAS E LEO MODA FEMININA", "NOME FANTASIA": "DAS E LEO MODA FEMININA", "NOME DO EMPRESÁRIO": "LEONEIDE OLIVEIRA", "STATUS": "-AP.LICAR T5" }, "geometry": { "type": "Point", "coordinates": [ -47.0591133, -23.1534129 ] } },
{ "type": "Feature", "properties": { "CNPJ": "63444213000122", "ENDEREÇO COMPLETO": "RUA: GRANDE DO SUL, Nº 18, BAIRRO: VILA PARAÍZO, CIDADE: ITUPEVA", "RAZÃO SOCIAL": "BL10", "NOME FANTASIA": "BL10", "NOME DO EMPRESÁRIO": "ALYSSON ROCHA", "STATUS": "-AP.LICAR T5" }, "geometry": { "type": "Point", "coordinates": [ -47.0586061, -23.1522505 ] } },
{ "type": "Feature", "properties": { "CNPJ": "22023029000121", "ENDEREÇO COMPLETO": "RUA: COMENDADOR XISTO ARARIPE PARAÍSO, Nº 9, BAIRRO: JARDIM SÃO VICENTE, CIDADE: ITUPEVA", "RAZÃO SOCIAL": "INFRACOM", "NOME FANTASIA": "INFRACOM", "NOME DO EMPRESÁRIO": "MATHEUS CAVALINI", "STATUS": "-AP.LICAR T5" }, "geometry": { "type": "Point", "coordinates": [ -47.0578604, -23.1559202 ] } },
{ "type": "Feature", "properties": { "CNPJ": "53610458000129", "ENDEREÇO COMPLETO": "RUA: MIGUEL MADANI, Nº 45, BAIRRO: JARDIM SÃO VICENTE, CIDADE: ITUPEVA", "RAZÃO SOCIAL": "CLAME FITWERE", "NOME FANTASIA": "CLAME FITWERE", "NOME DO EMPRESÁRIO": "CLAUDIA DA COSTA MENEGUELO", "STATUS": "-AP.LICAR T5" }, "geometry": { "type": "Point", "coordinates": [ -47.0561037, -23.1573468 ] } },
{ "type": "Feature", "properties": { "CNPJ": "40847810000100", "ENDEREÇO COMPLETO": "RUA: JUNDIAÍ, Nº 145, BAIRRO: CENTRO, CIDADE: ITUPEVA", "RAZÃO SOCIAL": "CM MODA MASCULINA", "NOME FANTASIA": "CM MODA MASCULINA", "NOME DO EMPRESÁRIO": "SHEILA DA SILVA NUNES", "STATUS": "-AP.LICAR T5" }, "geometry": { "type": "Point", "coordinates": [ -47.0559072, -23.1532499 ] } },
{ "type": "Feature", "properties": { "CNPJ": "49108486000175", "ENDEREÇO COMPLETO": "RUA: GRANDE DO SUL, Nº 41, BAIRRO: VILA PARAÍZO, CIDADE: ITUPEVA", "RAZÃO SOCIAL": "SMART HEAR CELULARES", "NOME FANTASIA": "SMART HEAR CELULARES", "NOME DO EMPRESÁRIO": "RENAN MOREIRA", "STATUS": "-AP.LICAR T5" }, "geometry": { "type": "Point", "coordinates": [ -47.0586061, -23.1522505 ] } },
{ "type": "Feature", "properties": { "CNPJ": "39905804000175", "ENDEREÇO COMPLETO": "RUA: JUNDIAÍ, Nº 145, BAIRRO: CENTRO, CIDADE: ITUPEVA", "RAZÃO SOCIAL": "BALLE", "NOME FANTASIA": "BALLE", "NOME DO EMPRESÁRIO": "BRUNA PREXEDE", "STATUS": "-AP.LICAR T5" }, "geometry": { "type": "Point", "coordinates": [ -47.0559072, -23.1532499 ] } },
{ "type": "Feature", "properties": { "CNPJ": "43014152000156", "ENDEREÇO COMPLETO": "RUA: JUNDIAÍ, Nº 222, BAIRRO: CENTRO, CIDADE: ITUPEVA", "RAZÃO SOCIAL": "ISA.BELLI", "NOME FANTASIA": "ISA.BELLI", "NOME DO EMPRESÁRIO": "RAQUEL GONÇALVES", "STATUS": "-AP.LICAR T5" }, "geometry": { "type": "Point", "coordinates": [ -47.0553909, -23.1538085 ] } },
{ "type": "Feature", "properties": { "CNPJ": "54194529000112", "ENDEREÇO COMPLETO": "RUA: JUNDIAÍ, Nº 385, BAIRRO: CENTRO, CIDADE: ITUPEVA", "RAZÃO SOCIAL": "ELIS COSMÉTICOS", "NOME FANTASIA": "ELIS COSMÉTICOS", "NOME DO EMPRESÁRIO": "TAINA MIRANDA", "STATUS": "-AP.LICAR T5" }, "geometry": { "type": "Point", "coordinates": [ -47.0540637, -23.1540695 ] } },
{ "type": "Feature", "properties": { "CNPJ": "45462059000130", "ENDEREÇO COMPLETO": "AVENIDA: ITÁLIA, Nº 194, BAIRRO: JARDIM SÃO VICENTE, CIDADE: ITUPEVA", "RAZÃO SOCIAL": "KI SALGADOS", "NOME FANTASIA": "KI SALGADOS", "NOME DO EMPRESÁRIO": "TAILANIA JESUS SANTOS", "STATUS": "-AP.LICAR T5" }, "geometry": { "type": "Point", "coordinates": [ -47.0587327, -23.153365 ] } },
{ "type": "Feature", "properties": { "CNPJ": "56340405000123", "ENDEREÇO COMPLETO": "AVENIDA: BRASIL, Nº 126, BAIRRO: JARDIM PRIMAVERA, CIDADE: ITUPEVA", "RAZÃO SOCIAL": "MR MIX", "NOME FANTASIA": "MR MIX", "NOME DO EMPRESÁRIO": "KEILA SILVA", "STATUS": "-AP.LICAR T5" }, "geometry": { "type": "Point", "coordinates": [ -47.0573897, -23.1614161 ] } },
{ "type": "Feature", "properties": { "CNPJ": "32916328000149", "ENDEREÇO COMPLETO": "AVENIDA: BRASIL, Nº 37, BAIRRO: JARDIM PRIMAVERA, CIDADE: ITUPEVA", "RAZÃO SOCIAL": "LAVINE", "NOME FANTASIA": "LAVINE", "NOME DO EMPRESÁRIO": "JOSELMA ARAUJO", "STATUS": "-AP.LICAR T5" }, "geometry": { "type": "Point", "coordinates": [ -47.0573897, -23.1614161 ] } },
{ "type": "Feature", "properties": { "CNPJ": "39457729000127", "ENDEREÇO COMPLETO": "AVENIDA: ITÁLIA, Nº 200, BAIRRO: CENTRO, CIDADE: ITUPEVA", "RAZÃO SOCIAL": "ANA KIDS", "NOME FANTASIA": "ANA KIDS", "NOME DO EMPRESÁRIO": "BRUNA SANTOS", "STATUS": "-AP.LICAR T5" }, "geometry": { "type": "Point", "coordinates": [ -47.0587462, -23.1534241 ] } },
{ "type": "Feature", "properties": { "CNPJ": "27210063000129", "ENDEREÇO COMPLETO": "AVENIDA: ITÁLIA, Nº 200, BAIRRO: CENTRO, CIDADE: ITUPEVA", "RAZÃO SOCIAL": "ART LIVRE", "NOME FANTASIA": "ART LIVRE", "NOME DO EMPRESÁRIO": "MARIA LOPES DE SOUSA", "STATUS": "-AP.LICAR T5" }, "geometry": { "type": "Point", "coordinates": [ -47.0587462, -23.1534241 ] } },
{ "type": "Feature", "properties": { "CNPJ": "46713151000198", "ENDEREÇO COMPLETO": "RUA: GRANDE DO SUL, Nº 39, BAIRRO: VILA PARAÍZO, CIDADE: ITUPEVA", "RAZÃO SOCIAL": "DON SK", "NOME FANTASIA": "DON SK", "NOME DO EMPRESÁRIO": "JANAINA RODRIGUES", "STATUS": "-AP.LICAR T5" }, "geometry": { "type": "Point", "coordinates": [ -47.0586061, -23.1522505 ] } },
{ "type": "Feature", "properties": { "CNPJ": "40817374000119", "ENDEREÇO COMPLETO": "RUA: GRANDE DO SUL, Nº 49, BAIRRO: VILA PARAÍZO, CIDADE: ITUPEVA", "RAZÃO SOCIAL": "BRECHO INFANTIL", "NOME FANTASIA": "BRECHO INFANTIL", "NOME DO EMPRESÁRIO": "MARIANA PEREIRA GOMES", "STATUS": "-AP.LICAR T5" }, "geometry": { "type": "Point", "coordinates": [ -47.0586061, -23.1522505 ] } },
{ "type": "Feature", "properties": { "CNPJ": "19688177000150", "ENDEREÇO COMPLETO": "AVENIDA: BRASIL, Nº 155, BAIRRO: JARDIM PRIMAVERA, CIDADE: ITUPEVA", "RAZÃO SOCIAL": "CHIQUINHO SORVETES", "NOME FANTASIA": "CHIQUINHO SORVETES", "NOME DO EMPRESÁRIO": "SABRINA ALVES VIEIRA", "STATUS": "-AP.LICAR T5" }, "geometry": { "type": "Point", "coordinates": [ -47.0573897, -23.1614161 ] } },
{ "type": "Feature", "properties": { "CNPJ": "14887738000127", "ENDEREÇO COMPLETO": "AVENIDA: BRASIL, Nº 90, BAIRRO: JARDIM PRIMAVERA, CIDADE: ITUPEVA", "RAZÃO SOCIAL": "ROYAL PINK", "NOME FANTASIA": "ROYAL PINK", "NOME DO EMPRESÁRIO": "ROSANA SILVA", "STATUS": "-AP.LICAR T5" }, "geometry": { "type": "Point", "coordinates": [ -47.0573897, -23.1614161 ] } },
{ "type": "Feature", "properties": { "CNPJ": "24704583000108", "ENDEREÇO COMPLETO": "RUA: JUNDIAÍ, Nº 232, BAIRRO: CENTRO, CIDADE: ITUPEVA", "RAZÃO SOCIAL": "TALLES BARBEARIA", "NOME FANTASIA": "TALLES BARBEARIA", "NOME DO EMPRESÁRIO": "TALLES VAGNER", "STATUS": "-AP.LICAR T5" }, "geometry": { "type": "Point", "coordinates": [ -47.0553826, -23.1538178 ] } },
{ "type": "Feature", "properties": { "CNPJ": "34838069000100", "ENDEREÇO COMPLETO": "RUA: JUNDIAÍ, Nº 311, BAIRRO: CENTRO, CIDADE: ITUPEVA", "RAZÃO SOCIAL": "SALVATORI", "NOME FANTASIA": "SALVATORI", "NOME DO EMPRESÁRIO": "ANDREIA RODRIGUES", "STATUS": "-AP.LICAR T5" }, "geometry": { "type": "Point", "coordinates": [ -47.0547277, -23.1537951 ] } },
{ "type": "Feature", "properties": { "CNPJ": "24003929000132", "ENDEREÇO COMPLETO": "RUA: JUNDIAÍ, Nº 399, BAIRRO: CENTRO, CIDADE: ITUPEVA", "RAZÃO SOCIAL": "GLOBAL TINTAS", "NOME FANTASIA": "GLOBAL TINTAS", "NOME DO EMPRESÁRIO": "LETICIA RECHE", "STATUS": "-AP.LICAR T5" }, "geometry": { "type": "Point", "coordinates": [ -47.0539555, -23.15408 ] } },
{ "type": "Feature", "properties": { "CNPJ": "31734766000123", "ENDEREÇO COMPLETO": "RUA: ANTONIO BONIN, Nº 327, BAIRRO: RIO DAS PEDRAS, CIDADE: ITUPEVA", "RAZÃO SOCIAL": "PADARIA DO LUIZINHO", "NOME FANTASIA": "PADARIA DO LUIZINHO", "NOME DO EMPRESÁRIO": "JOSE LUIZ DE MORAES", "STATUS": "-AP.LICAR T5" }, "geometry": { "type": "Point", "coordinates": [ -47.0797294, -23.135576 ] } },
{ "type": "Feature", "properties": { "CNPJ": "22023029000202", "ENDEREÇO COMPLETO": "RUA: GERALDO FERRAZ, Nº 184, BAIRRO: RIO DAS PEDRAS, CIDADE: ITUPEVA", "RAZÃO SOCIAL": "INFRACON COMERCIO DE MATÉRIAS ELETRICOS", "NOME FANTASIA": "INFRACON COMERCIO DE MATÉRIAS ELETRICOS", "NOME DO EMPRESÁRIO": "GUSTAVO CAVALINI", "STATUS": "-AP.LICAR T5" }, "geometry": { "type": "Point", "coordinates": [ -47.0791083, -23.1360507 ] } },
{ "type": "Feature", "properties": { "CNPJ": "55979169000127", "ENDEREÇO COMPLETO": "RUA: GERALDO FERRAZ, Nº 286, BAIRRO: RIO DAS PEDRAS, CIDADE: ITUPEVA", "RAZÃO SOCIAL": "PADARIA BOM PAO", "NOME FANTASIA": "PADARIA BOM PAO", "NOME DO EMPRESÁRIO": "DAVID DIAS DA SILVA", "STATUS": "-AP.LICAR T5" }, "geometry": { "type": "Point", "coordinates": [ -47.0781039, -23.1362602 ] } },
{ "type": "Feature", "properties": { "CNPJ": "42466449000190", "ENDEREÇO COMPLETO": "RUA: GERALDO FERRAZ, Nº 293, BAIRRO: RIO DAS PEDRAS, CIDADE: ITUPEVA", "RAZÃO SOCIAL": "CALÇADOS CARVALHO", "NOME FANTASIA": "CALÇADOS CARVALHO", "NOME DO EMPRESÁRIO": "ELIAS VIDAL", "STATUS": "-AP.LICAR T5" }, "geometry": { "type": "Point", "coordinates": [ -47.0776452, -23.1362183 ] } },
{ "type": "Feature", "properties": { "CNPJ": "30953121000119", "ENDEREÇO COMPLETO": "RUA: JOSÉ MARCHI, Nº 450, BAIRRO: PARQUE AMARYLIS, CIDADE: ITUPEVA", "RAZÃO SOCIAL": "LOJA DO SORVETE", "NOME FANTASIA": "LOJA DO SORVETE", "NOME DO EMPRESÁRIO": "MAITA SOUZA", "STATUS": "-AP.LICAR T5" }, "geometry": { "type": "Point", "coordinates": [ -47.0624274, -23.1551704 ] } },
{ "type": "Feature", "properties": { "CNPJ": "63270423000141", "ENDEREÇO COMPLETO": "RUA: JUNDIAÍ, Nº 503, BAIRRO: JARDIM SAMAMBAIA, CIDADE: ITUPEVA", "RAZÃO SOCIAL": "KEROLY FASHION", "NOME FANTASIA": "KEROLY FASHION", "NOME DO EMPRESÁRIO": "KEROLY MOTA SANTANA CARNEIRO", "STATUS": "-AP.LICAR T5" }, "geometry": { "type": "Point", "coordinates": [ -47.0530207, -23.1545328 ] } },
{ "type": "Feature", "properties": { "CNPJ": "24842277000120", "ENDEREÇO COMPLETO": "RUA: VICENTE TONOLI, Nº 120, BAIRRO: MONTE SERRAT, CIDADE: ITUPEVA", "RAZÃO SOCIAL": "DEPÓSITO BEIRA RIO", "NOME FANTASIA": "DEPÓSITO BEIRA RIO", "NOME DO EMPRESÁRIO": "TALITA NUNES", "STATUS": "-AP.LICAR T5" }, "geometry": { "type": "Point", "coordinates": [ -47.0843452, -23.1404115 ] } },
{ "type": "Feature", "properties": { "CNPJ": "42745506000170", "ENDEREÇO COMPLETO": "RUA: ANTONIO BONIN, Nº 21, BAIRRO: RIO DAS PEDRAS, CIDADE: ITUPEVA", "RAZÃO SOCIAL": "AGRO PET GT", "NOME FANTASIA": "AGRO PET GT", "NOME DO EMPRESÁRIO": "SILVANIL DOS SANTOS BRANDAO", "STATUS": "-AP.LICAR T5" }, "geometry": { "type": "Point", "coordinates": [ -47.0787554, -23.1330727 ] } },
{ "type": "Feature", "properties": { "CNPJ": "16914733000171", "ENDEREÇO COMPLETO": "RUA: WALTER FREGNANI, Nº 226, BAIRRO: RIO DAS PEDRAS, CIDADE: ITUPEVA", "RAZÃO SOCIAL": "AVM BONIFACIO", "NOME FANTASIA": "AVM BONIFACIO", "NOME DO EMPRESÁRIO": "NARYANNE ALMEIDA", "STATUS": "-AP.LICAR T5" }, "geometry": { "type": "Point", "coordinates": [ -47.0780874, -23.13367 ] } },
{ "type": "Feature", "properties": { "CNPJ": "54778704000119", "ENDEREÇO COMPLETO": "RUA: GERALDO FERRAZ, Nº 409, BAIRRO: RIO DAS PEDRAS, CIDADE: ITUPEVA", "RAZÃO SOCIAL": "STELA PRESENTE", "NOME FANTASIA": "STELA PRESENTE", "NOME DO EMPRESÁRIO": "MARIA ALVES DA SILVA", "STATUS": "-AP.LICAR T5" }, "geometry": { "type": "Point", "coordinates": [ -47.0771087, -23.1363682 ] } },
{ "type": "Feature", "properties": { "CNPJ": "22302963000182", "ENDEREÇO COMPLETO": "RUA: SOROCABANA, Nº 3300, BAIRRO: MONTE SERRAT, CIDADE: ITUPEVA", "RAZÃO SOCIAL": "AUTO PEÇAS E ACESSÓRIOS RIBEIRO", "NOME FANTASIA": "AUTO PEÇAS E ACESSÓRIOS RIBEIRO", "NOME DO EMPRESÁRIO": "CLAUDINEIA COSTA RIBEIRO", "STATUS": "-AP.LICAR T5" }, "geometry": { "type": "Point", "coordinates": [ -47.0680343, -23.1323799 ] } },
{ "type": "Feature", "properties": { "CNPJ": "46840077000170", "ENDEREÇO COMPLETO": "AVENIDA: ITÁLIA, Nº 200, BAIRRO: CENTRO, CIDADE: ITUPEVA", "RAZÃO SOCIAL": "THAIS DESING", "NOME FANTASIA": "THAIS DESING", "NOME DO EMPRESÁRIO": "THAIS NASCIMENTO", "STATUS": "-AP.LICAR T5" }, "geometry": { "type": "Point", "coordinates": [ -47.0587462, -23.1534241 ] } },
{ "type": "Feature", "properties": { "CNPJ": "30493823000167", "ENDEREÇO COMPLETO": "AVENIDA: DOM PEDRO I, Nº 1820, BAIRRO: JARDIM GUANCIALE, CIDADE: CAMPO LIMPO PAULISTA", "RAZÃO SOCIAL": "FERNANDO  CALHAS", "NOME FANTASIA": "FERNANDO  CALHAS", "NOME DO EMPRESÁRIO": "FERNANDO SOUZA", "STATUS": "-AP.LICAR T4" }, "geometry": { "type": "Point", "coordinates": [ -46.8016169, -23.2057321 ] } },
{ "type": "Feature", "properties": { "CNPJ": "48050381000140", "ENDEREÇO COMPLETO": "AVENIDA: DOM PEDRO I, Nº 1650, BAIRRO: JARDIM GUANCIALE, CIDADE: CAMPO LIMPO PAULISTA", "RAZÃO SOCIAL": "ADEGA REALI", "NOME FANTASIA": "ADEGA REALI", "NOME DO EMPRESÁRIO": "LEANDRO ROCHA", "STATUS": "-AP.LICAR T4" }, "geometry": { "type": "Point", "coordinates": [ -46.8005279, -23.205121 ] } },
{ "type": "Feature", "properties": { "CNPJ": "07689913000106", "ENDEREÇO COMPLETO": "AVENIDA: DOM PEDRO I, Nº 1640, BAIRRO: JARDIM GUANCIALE, CIDADE: CAMPO LIMPO PAULISTA", "RAZÃO SOCIAL": "RESTAURANTE PRESTES", "NOME FANTASIA": "RESTAURANTE PRESTES", "NOME DO EMPRESÁRIO": "VIVIANE GONÇALVES", "STATUS": "-AP.LICAR T4" }, "geometry": { "type": "Point", "coordinates": [ -46.8004467, -23.2050715 ] } },
{ "type": "Feature", "properties": { "CNPJ": "60280310000139", "ENDEREÇO COMPLETO": "AVENIDA: PRESIDENTE VARGAS, Nº 61, BAIRRO: VILA TAVARES, CIDADE: CAMPO LIMPO PAULISTA", "RAZÃO SOCIAL": "ELETRÔNICA FERREIRA", "NOME FANTASIA": "ELETRÔNICA FERREIRA", "NOME DO EMPRESÁRIO": "LUIZA GIMENEZ", "STATUS": "-AP.LICAR T4" }, "geometry": { "type": "Point", "coordinates": [ -46.7886441, -23.2052382 ] } },
{ "type": "Feature", "properties": { "CNPJ": "45697674000125", "ENDEREÇO COMPLETO": "RUA: SÉTIMO PATELLI, Nº 84, BAIRRO: CENTRO, CIDADE: CAMPO LIMPO PAULISTA", "RAZÃO SOCIAL": "JS", "NOME FANTASIA": "JS", "NOME DO EMPRESÁRIO": "JESSICA OLIVEIRA", "STATUS": "-AP.LICAR T4" }, "geometry": { "type": "Point", "coordinates": [ -46.7884491, -23.20631 ] } },
{ "type": "Feature", "properties": { "CNPJ": "32929422000132", "ENDEREÇO COMPLETO": "AVENIDA: PRESIDENTE VARGAS, Nº 40, BAIRRO: VILA TAVARES, CIDADE: CAMPO LIMPO PAULISTA", "RAZÃO SOCIAL": "BELLA PRESENTES", "NOME FANTASIA": "BELLA PRESENTES", "NOME DO EMPRESÁRIO": "EMILIA BARBI", "STATUS": "-AP.LICAR T4" }, "geometry": { "type": "Point", "coordinates": [ -46.7882736, -23.2051579 ] } },
{ "type": "Feature", "properties": { "CNPJ": "30475506000118", "ENDEREÇO COMPLETO": "RUA: MARIA MAIOLINO DE SOUZA, Nº 65, BAIRRO: CENTRO, CIDADE: CAMPO LIMPO PAULISTA", "RAZÃO SOCIAL": "ANA MILA ESMALTERIA", "NOME FANTASIA": "ANA MILA ESMALTERIA", "NOME DO EMPRESÁRIO": "HELOIDES CAETANO", "STATUS": "-AP.LICAR T4" }, "geometry": { "type": "Point", "coordinates": [ -46.7881283, -23.206612 ] } },
{ "type": "Feature", "properties": { "CNPJ": "39977135000147", "ENDEREÇO COMPLETO": "RUA: MARIA MAIOLINO DE SOUZA, Nº 55, BAIRRO: CENTRO, CIDADE: CAMPO LIMPO PAULISTA", "RAZÃO SOCIAL": "FLASH INFORMÁTICA", "NOME FANTASIA": "FLASH INFORMÁTICA", "NOME DO EMPRESÁRIO": "ALESSANDRO SOUZA", "STATUS": "-AP.LICAR T4" }, "geometry": { "type": "Point", "coordinates": [ -46.7880324, -23.2067287 ] } },
{ "type": "Feature", "properties": { "CNPJ": "41214498000172", "ENDEREÇO COMPLETO": "RUA: NOSSA SENHORA DO ROSÁRIO, Nº 127, BAIRRO: CENTRO, CIDADE: CAMPO LIMPO PAULISTA", "RAZÃO SOCIAL": "Q HORIZONTE", "NOME FANTASIA": "Q HORIZONTE", "NOME DO EMPRESÁRIO": "GABRIEL ALMEIDA", "STATUS": "-AP.LICAR T4" }, "geometry": { "type": "Point", "coordinates": [ -46.7873295, -23.2075519 ] } },
{ "type": "Feature", "properties": { "CNPJ": "57606157000182", "ENDEREÇO COMPLETO": "RUA: JOÃO BATISTA ARSÊNIO ROSSI, Nº 19, BAIRRO: CENTRO, CIDADE: CAMPO LIMPO PAULISTA", "RAZÃO SOCIAL": "CAELIS", "NOME FANTASIA": "CAELIS", "NOME DO EMPRESÁRIO": "GABRIELLY CAVALLARO", "STATUS": "-AP.LICAR T4" }, "geometry": { "type": "Point", "coordinates": [ -46.7893405, -23.206675 ] } },
{ "type": "Feature", "properties": { "CNPJ": "48427224000100", "ENDEREÇO COMPLETO": "RUA: JOÃO BATISTA ARSÊNIO ROSSI, Nº 78, BAIRRO: CENTRO, CIDADE: CAMPO LIMPO PAULISTA", "RAZÃO SOCIAL": "STUDIO RENOVAR", "NOME FANTASIA": "STUDIO RENOVAR", "NOME DO EMPRESÁRIO": "SILVANA REIS", "STATUS": "-AP.LICAR T4" }, "geometry": { "type": "Point", "coordinates": [ -46.7890704, -23.2063844 ] } },
{ "type": "Feature", "properties": { "CNPJ": "59734273000102", "ENDEREÇO COMPLETO": "RUA: NOSSA SENHORA DO ROSÁRIO, Nº 250, BAIRRO: CENTRO, CIDADE: CAMPO LIMPO PAULISTA", "RAZÃO SOCIAL": "NINA ROSÊ", "NOME FANTASIA": "NINA ROSÊ", "NOME DO EMPRESÁRIO": "ENARA SOUZA", "STATUS": "-AP.LICAR T4" }, "geometry": { "type": "Point", "coordinates": [ -46.7886501, -23.2070729 ] } },
{ "type": "Feature", "properties": { "CNPJ": "41109719000142", "ENDEREÇO COMPLETO": "RUA: NOSSA SENHORA DO ROSÁRIO, Nº 176, BAIRRO: CENTRO, CIDADE: CAMPO LIMPO PAULISTA", "RAZÃO SOCIAL": "FABI FRALDAS", "NOME FANTASIA": "FABI FRALDAS", "NOME DO EMPRESÁRIO": "FABIANA FERREIRA", "STATUS": "-AP.LICAR T4" }, "geometry": { "type": "Point", "coordinates": [ -46.787744, -23.2072637 ] } },
{ "type": "Feature", "properties": { "CNPJ": "53218505000193", "ENDEREÇO COMPLETO": "RUA: NOSSA SENHORA DO ROSÁRIO, Nº 170, BAIRRO: CENTRO, CIDADE: CAMPO LIMPO PAULISTA", "RAZÃO SOCIAL": "AME FLORES", "NOME FANTASIA": "AME FLORES", "NOME DO EMPRESÁRIO": "AUDRI MEZEI", "STATUS": "-AP.LICAR T4" }, "geometry": { "type": "Point", "coordinates": [ -46.7876749, -23.2072404 ] } },
{ "type": "Feature", "properties": { "CNPJ": "50735537000178", "ENDEREÇO COMPLETO": "RUA: NOSSA SENHORA DO ROSÁRIO, Nº 159, BAIRRO: CENTRO, CIDADE: CAMPO LIMPO PAULISTA", "RAZÃO SOCIAL": "CASA DA CASTANHA", "NOME FANTASIA": "CASA DA CASTANHA", "NOME DO EMPRESÁRIO": "TERIVALDO SILVA", "STATUS": "-AP.LICAR T4" }, "geometry": { "type": "Point", "coordinates": [ -46.7875927, -23.2074284 ] } },
{ "type": "Feature", "properties": { "CNPJ": "54755861000109", "ENDEREÇO COMPLETO": "RUA: HERMANN, Nº 69, BAIRRO: CENTRO, CIDADE: CAMPO LIMPO PAULISTA", "RAZÃO SOCIAL": "OUTLET DAS CAMISAS", "NOME FANTASIA": "OUTLET DAS CAMISAS", "NOME DO EMPRESÁRIO": "VANDERLEI RODRIGUES", "STATUS": "-AP.LICAR T4" }, "geometry": { "type": "Point", "coordinates": [ -46.7875453, -23.2070687 ] } },
{ "type": "Feature", "properties": { "CNPJ": "56898561000104", "ENDEREÇO COMPLETO": "RUA: NOSSA SENHORA DO ROSÁRIO, Nº 127, BAIRRO: CENTRO, CIDADE: CAMPO LIMPO PAULISTA", "RAZÃO SOCIAL": "REUSE MARIA BRECHÓ", "NOME FANTASIA": "REUSE MARIA BRECHÓ", "NOME DO EMPRESÁRIO": "MARIA EDUARDA CARVALHO", "STATUS": "-AP.LICAR T4" }, "geometry": { "type": "Point", "coordinates": [ -46.7873295, -23.2075519 ] } },
{ "type": "Feature", "properties": { "CNPJ": "27429709000244", "ENDEREÇO COMPLETO": "RUA: NOSSA SENHORA DO ROSÁRIO, Nº 15, BAIRRO: CENTRO, CIDADE: CAMPO LIMPO PAULISTA", "RAZÃO SOCIAL": "EMPÓRIO  SÓ SABOR", "NOME FANTASIA": "EMPÓRIO  SÓ SABOR", "NOME DO EMPRESÁRIO": "FABIANO ANTÔNIO", "STATUS": "-AP.LICAR T4" }, "geometry": { "type": "Point", "coordinates": [ -46.7862805, -23.2077426 ] } },
{ "type": "Feature", "properties": { "CNPJ": "54734258000140", "ENDEREÇO COMPLETO": "AVENIDA: PRESIDENTE VARGAS, Nº 56, BAIRRO: VILA TAVARES, CIDADE: CAMPO LIMPO PAULISTA", "RAZÃO SOCIAL": "CAFÉ COM PROSA", "NOME FANTASIA": "CAFÉ COM PROSA", "NOME DO EMPRESÁRIO": "ALINE COELHO", "STATUS": "-AP.LICAR T4" }, "geometry": { "type": "Point", "coordinates": [ -46.7883823, -23.2050343 ] } },
{ "type": "Feature", "properties": { "CNPJ": "49390172000108", "ENDEREÇO COMPLETO": "RUA: FRANCISCO MIGUEL, Nº 208, BAIRRO: CENTRO, CIDADE: CAMPO LIMPO PAULISTA", "RAZÃO SOCIAL": "PANIFICADORA CENTRAL", "NOME FANTASIA": "PANIFICADORA CENTRAL", "NOME DO EMPRESÁRIO": "CESAR ALMEIDA", "STATUS": "-AP.LICAR T4" }, "geometry": { "type": "Point", "coordinates": [ -46.7867887, -23.2070011 ] } },
{ "type": "Feature", "properties": { "CNPJ": "34384069000188", "ENDEREÇO COMPLETO": "RUA: FRANCISCO MIGUEL, Nº 448, BAIRRO: CENTRO, CIDADE: CAMPO LIMPO PAULISTA", "RAZÃO SOCIAL": "ELÉTRICA PRESTES", "NOME FANTASIA": "ELÉTRICA PRESTES", "NOME DO EMPRESÁRIO": "FRANCIANY PRESTES", "STATUS": "-AP.LICAR T4" }, "geometry": { "type": "Point", "coordinates": [ -46.7853079, -23.2080991 ] } },
{ "type": "Feature", "properties": { "CNPJ": "37502208000119", "ENDEREÇO COMPLETO": "ESTRADA: BRAGANTINA, Nº 901, BAIRRO: JARDIM SANTO ANTÔNIO I, CIDADE: CAMPO LIMPO PAULISTA", "RAZÃO SOCIAL": "MATERIAIS PARA CONSTRUÇÃO DINI", "NOME FANTASIA": "MATERIAIS PARA CONSTRUÇÃO DINI", "NOME DO EMPRESÁRIO": "EUGÊNIO HENRIQUE", "STATUS": "-AP.LICAR T4" }, "geometry": { "type": "Point", "coordinates": [ -46.7638859, -23.2084294 ] } },
{ "type": "Feature", "properties": { "CNPJ": "61902866000182", "ENDEREÇO COMPLETO": "RUA: BRAGANTINA, Nº 1090, BAIRRO: JARDIM SANTO ANTÔNIO I, CIDADE: CAMPO LIMPO PAULISTA", "RAZÃO SOCIAL": "TAPEÇARIA PONTUAL", "NOME FANTASIA": "TAPEÇARIA PONTUAL", "NOME DO EMPRESÁRIO": "CHARLES PEREIRA", "STATUS": "-AP.LICAR T4" }, "geometry": { "type": "Point", "coordinates": [ -46.7624203, -23.2084818 ] } },
{ "type": "Feature", "properties": { "CNPJ": "28828776000113", "ENDEREÇO COMPLETO": "RUA: BRAGANTINA, Nº 1242, BAIRRO: JARDIM SANTO ANTÔNIO I, CIDADE: CAMPO LIMPO PAULISTA", "RAZÃO SOCIAL": "JP ENCANTO MISTICO", "NOME FANTASIA": "JP ENCANTO MISTICO", "NOME DO EMPRESÁRIO": "PRISCILA COSTA", "STATUS": "-AP.LICAR T4" }, "geometry": { "type": "Point", "coordinates": [ -46.7612607, -23.2090578 ] } },
{ "type": "Feature", "properties": { "CNPJ": "10437787000107", "ENDEREÇO COMPLETO": "RUA: BRAGANTINA, Nº 1605, BAIRRO: JARDIM SANTO ANTÔNIO I, CIDADE: CAMPO LIMPO PAULISTA", "RAZÃO SOCIAL": "PARAÍSO DOS CALÇADOS", "NOME FANTASIA": "PARAÍSO DOS CALÇADOS", "NOME DO EMPRESÁRIO": "LUCIA SHIMIT", "STATUS": "-AP.LICAR T2" }, "geometry": { "type": "Point", "coordinates": [ -46.7596766, -23.2108699 ] } },
{ "type": "Feature", "properties": { "CNPJ": "46035559000158", "ENDEREÇO COMPLETO": "RUA: BRAGANTINA, Nº 1558, BAIRRO: JARDIM SANTO ANTÔNIO I, CIDADE: CAMPO LIMPO PAULISTA", "RAZÃO SOCIAL": "PANIFICADORA BRUNELA", "NOME FANTASIA": "PANIFICADORA BRUNELA", "NOME DO EMPRESÁRIO": "GÊNERO MITIDIERI", "STATUS": "-AP.LICAR T4" }, "geometry": { "type": "Point", "coordinates": [ -46.7596045, -23.211761 ] } },
{ "type": "Feature", "properties": { "CNPJ": "61107789000179", "ENDEREÇO COMPLETO": "RUA: BRAGANTINA, Nº 5820, BAIRRO: JARDIM SANTO ANTÔNIO I, CIDADE: CAMPO LIMPO PAULISTA", "RAZÃO SOCIAL": "SUSHI MANIA", "NOME FANTASIA": "SUSHI MANIA", "NOME DO EMPRESÁRIO": "MARCIA PERANDINI", "STATUS": "-AP.LICAR T4" }, "geometry": { "type": "Point", "coordinates": [ -46.7181368, -23.2075078 ] } },
{ "type": "Feature", "properties": { "CNPJ": "62016966000174", "ENDEREÇO COMPLETO": "RUA: BRAGANTINA, Nº 1511, BAIRRO: JARDIM SANTO ANTÔNIO I, CIDADE: CAMPO LIMPO PAULISTA", "RAZÃO SOCIAL": "ATELIÊ SALGADOS E BOLOS", "NOME FANTASIA": "ATELIÊ SALGADOS E BOLOS", "NOME DO EMPRESÁRIO": "VALDIR SILVA", "STATUS": "-AP.LICAR T4" }, "geometry": { "type": "Point", "coordinates": [ -46.7696098, -23.2093989 ] } },
{ "type": "Feature", "properties": { "CNPJ": "57463509000198", "ENDEREÇO COMPLETO": "RUA: EDMUNDO REIS FRIAS JÚNIOR, Nº 183, BAIRRO: CONJUNTO HABITACIONAL SÃO JOSÉ, CIDADE: CAMPO LIMPO PAULISTA", "RAZÃO SOCIAL": "TATO MATERIAL", "NOME FANTASIA": "TATO MATERIAL", "NOME DO EMPRESÁRIO": "ANDERSON DUARTE", "STATUS": "-AP.LICAR T4" }, "geometry": { "type": "Point", "coordinates": [ -46.7622794, -23.2105846 ] } },
{ "type": "Feature", "properties": { "CNPJ": "29571545000130", "ENDEREÇO COMPLETO": "RUA: ELIAS DE CAMARGO, Nº 213, BAIRRO: CONJUNTO HABITACIONAL SÃO JOSÉ, CIDADE: CAMPO LIMPO PAULISTA", "RAZÃO SOCIAL": "EDSON E LEO INFORMÁTICA", "NOME FANTASIA": "EDSON E LEO INFORMÁTICA", "NOME DO EMPRESÁRIO": "EDSON SIMÃO", "STATUS": "-AP.LICAR T4" }, "geometry": { "type": "Point", "coordinates": [ -46.762046, -23.211595 ] } },
{ "type": "Feature", "properties": { "CNPJ": "59251127000126", "ENDEREÇO COMPLETO": "RUA: JOSÉ VALTER PACHECO, Nº 210, BAIRRO: CONJUNTO HABITACIONAL SÃO JOSÉ, CIDADE: CAMPO LIMPO PAULISTA", "RAZÃO SOCIAL": "D STYLE ELETRÔNICA E ACESSÓRIOS", "NOME FANTASIA": "D STYLE ELETRÔNICA E ACESSÓRIOS", "NOME DO EMPRESÁRIO": "BRUNO TEGA", "STATUS": "-AP.LICAR T4" }, "geometry": { "type": "Point", "coordinates": [ -46.7618868, -23.2117577 ] } },
{ "type": "Feature", "properties": { "CNPJ": "36793144000190", "ENDEREÇO COMPLETO": "AVENIDA: MITIHARU TANAKA, Nº 203, BAIRRO: CONJUNTO HABITACIONAL SÃO JOSÉ, CIDADE: CAMPO LIMPO PAULISTA", "RAZÃO SOCIAL": "POINT DA LIMPEZA", "NOME FANTASIA": "POINT DA LIMPEZA", "NOME DO EMPRESÁRIO": "MARCIA NATALI", "STATUS": "-AP.LICAR T4" }, "geometry": { "type": "Point", "coordinates": [ -46.7617394, -23.2120243 ] } },
{ "type": "Feature", "properties": { "CNPJ": "26261963000132", "ENDEREÇO COMPLETO": "RUA: BRAGANTINA, Nº 1500, BAIRRO: JARDIM SANTO ANTÔNIO I, CIDADE: CAMPO LIMPO PAULISTA", "RAZÃO SOCIAL": "VILLE EMBALAGENS", "NOME FANTASIA": "VILLE EMBALAGENS", "NOME DO EMPRESÁRIO": "MARCIA MORAES", "STATUS": "-AP.LICAR T4" }, "geometry": { "type": "Point", "coordinates": [ -46.760564, -23.2103196 ] } },
{ "type": "Feature", "properties": { "CNPJ": "50753248000100", "ENDEREÇO COMPLETO": "RUA: BRAGANTINA, Nº 1485, BAIRRO: JARDIM SANTO ANTÔNIO I, CIDADE: CAMPO LIMPO PAULISTA", "RAZÃO SOCIAL": "EMPÓRIO RAÇÕES E JARDIM", "NOME FANTASIA": "EMPÓRIO RAÇÕES E JARDIM", "NOME DO EMPRESÁRIO": "JEFERSON SILVA", "STATUS": "-AP.LICAR T4" }, "geometry": { "type": "Point", "coordinates": [ -46.7600937, -23.2103411 ] } },
{ "type": "Feature", "properties": { "CNPJ": "61301503000191", "ENDEREÇO COMPLETO": "RUA: RAFAEL ZULLI, Nº 460, BAIRRO: JARDIM SANTO ANTÔNIO II, CIDADE: CAMPO LIMPO PAULISTA", "RAZÃO SOCIAL": "CHAVEIRO SANTO ANTONIO", "NOME FANTASIA": "CHAVEIRO SANTO ANTONIO", "NOME DO EMPRESÁRIO": "CARLOS CUNHA", "STATUS": "-AP.LICAR T2" }, "geometry": { "type": "Point", "coordinates": [ -46.7682138, -23.2096835 ] } },
{ "type": "Feature", "properties": { "CNPJ": "00781189000105", "ENDEREÇO COMPLETO": "RUA: RAFAEL ZULLI, Nº 496, BAIRRO: JARDIM SANTO ANTÔNIO II, CIDADE: CAMPO LIMPO PAULISTA", "RAZÃO SOCIAL": "RESTAURANTE PONTO DO RANGO", "NOME FANTASIA": "RESTAURANTE PONTO DO RANGO", "NOME DO EMPRESÁRIO": "RAIMUNDO OLIVEIRA", "STATUS": "-AP.LICAR T4" }, "geometry": { "type": "Point", "coordinates": [ -46.7677399, -23.2095837 ] } },
{ "type": "Feature", "properties": { "CNPJ": "18287289000137", "ENDEREÇO COMPLETO": "RUA: RAFAEL ZULLI, Nº 184, BAIRRO: JARDIM SANTO ANTÔNIO II, CIDADE: CAMPO LIMPO PAULISTA", "RAZÃO SOCIAL": "HS CASA DO LUBRIFICANTE", "NOME FANTASIA": "HS CASA DO LUBRIFICANTE", "NOME DO EMPRESÁRIO": "IGOR ROMAGNA", "STATUS": "-AP.LICAR T4" }, "geometry": { "type": "Point", "coordinates": [ -46.766587, -23.2094118 ] } },
{ "type": "Feature", "properties": { "CNPJ": "30974673000103", "ENDEREÇO COMPLETO": "RUA: MITIHARU TANAKA, Nº 198, BAIRRO: CONJUNTO HABITACIONAL SÃO JOSÉ, CIDADE: CAMPO LIMPO PAULISTA", "RAZÃO SOCIAL": "S.O.S COXINHAS", "NOME FANTASIA": "S.O.S COXINHAS", "NOME DO EMPRESÁRIO": "JESSICA CAROLINE", "STATUS": "-AP.LICAR T4" }, "geometry": { "type": "Point", "coordinates": [ -46.7626155, -23.2098969 ] } },
{ "type": "Feature", "properties": { "CNPJ": "05425762000153", "ENDEREÇO COMPLETO": "RUA: MITIHARU TANAKA, Nº 171, BAIRRO: CONJUNTO HABITACIONAL SÃO JOSÉ, CIDADE: CAMPO LIMPO PAULISTA", "RAZÃO SOCIAL": "DROGARIA BRUNELLA", "NOME FANTASIA": "DROGARIA BRUNELLA", "NOME DO EMPRESÁRIO": "VANDERLEI PRANDI", "STATUS": "-AP.LICAR T4" }, "geometry": { "type": "Point", "coordinates": [ -46.7625292, -23.2095905 ] } },
{ "type": "Feature", "properties": { "CNPJ": "57291355000102", "ENDEREÇO COMPLETO": "AVENIDA: MITIHARU TANAKA, Nº 179, BAIRRO: CONJUNTO HABITACIONAL SÃO JOSÉ, CIDADE: CAMPO LIMPO PAULISTA", "RAZÃO SOCIAL": "DALU BOLOS E DOCES", "NOME FANTASIA": "DALU BOLOS E DOCES", "NOME DO EMPRESÁRIO": "LUCIANA NASCIMENTO", "STATUS": "-AP.LICAR T4" }, "geometry": { "type": "Point", "coordinates": [ -46.7623287, -23.2098029 ] } },
{ "type": "Feature", "properties": { "CNPJ": "65104225000133", "ENDEREÇO COMPLETO": "RUA: MITIHARU TANAKA, Nº 499, BAIRRO: CONJUNTO HABITACIONAL SÃO JOSÉ, CIDADE: CAMPO LIMPO PAULISTA", "RAZÃO SOCIAL": "LOTUS BOUTIQUE", "NOME FANTASIA": "LOTUS BOUTIQUE", "NOME DO EMPRESÁRIO": "LILIANE AMARAL", "STATUS": "-AP.LICAR T4" }, "geometry": { "type": "Point", "coordinates": [ -46.7613065, -23.212553 ] } },
{ "type": "Feature", "properties": { "CNPJ": "54439016000124", "ENDEREÇO COMPLETO": "AVENIDA: SÃO PAULO, Nº 485, BAIRRO: JARDIM SANTA LÚCIA, CIDADE: CAMPO LIMPO PAULISTA", "RAZÃO SOCIAL": "BRITAS BAR", "NOME FANTASIA": "BRITAS BAR", "NOME DO EMPRESÁRIO": "GISELE RITA", "STATUS": "-AP.LICAR T2" }, "geometry": { "type": "Point", "coordinates": [ -46.7982551, -23.2145921 ] } },
{ "type": "Feature", "properties": { "CNPJ": "55438685000144", "ENDEREÇO COMPLETO": "RUA: MARIA JOSÉ RODRIGUES, Nº 974, BAIRRO: JARDIM SANTA LÚCIA, CIDADE: CAMPO LIMPO PAULISTA", "RAZÃO SOCIAL": "RM REPARA RÁPIDO", "NOME FANTASIA": "RM REPARA RÁPIDO", "NOME DO EMPRESÁRIO": "RODOLFO MIRANDA", "STATUS": "-AP.LICAR T4" }, "geometry": { "type": "Point", "coordinates": [ -46.7944212, -23.2118024 ] } },
{ "type": "Feature", "properties": { "CNPJ": "27254385000170", "ENDEREÇO COMPLETO": "RUA: MARIA JOSÉ RODRIGUES, Nº 242, BAIRRO: JARDIM SANTA LÚCIA, CIDADE: CAMPO LIMPO PAULISTA", "RAZÃO SOCIAL": "BAR DOS AMIGOS", "NOME FANTASIA": "BAR DOS AMIGOS", "NOME DO EMPRESÁRIO": "PAULO SILVA", "STATUS": "-AP.LICAR T4" }, "geometry": { "type": "Point", "coordinates": [ -46.7943505, -23.211054 ] } },
{ "type": "Feature", "properties": { "CNPJ": "33872286000154", "ENDEREÇO COMPLETO": "RUA: MARIA JOSÉ RODRIGUES, Nº 125, BAIRRO: JARDIM SANTA LÚCIA, CIDADE: CAMPO LIMPO PAULISTA", "RAZÃO SOCIAL": "REVEST HD", "NOME FANTASIA": "REVEST HD", "NOME DO EMPRESÁRIO": "CINTIA LOPES", "STATUS": "-AP.LICAR T4" }, "geometry": { "type": "Point", "coordinates": [ -46.7940216, -23.2107886 ] } },
{ "type": "Feature", "properties": { "CNPJ": "43077507000156", "ENDEREÇO COMPLETO": "RUA: MARIA JOSÉ RODRIGUES, Nº 1335, BAIRRO: JARDIM SANTA LÚCIA, CIDADE: CAMPO LIMPO PAULISTA", "RAZÃO SOCIAL": "ÓTICA BIAGI", "NOME FANTASIA": "ÓTICA BIAGI", "NOME DO EMPRESÁRIO": "LUCI BARBOSA", "STATUS": "-AP.LICAR T4" }, "geometry": { "type": "Point", "coordinates": [ -46.7939632, -23.2135595 ] } },
{ "type": "Feature", "properties": { "CNPJ": "59930782000100", "ENDEREÇO COMPLETO": "RUA: JOSÉ BERTINE, Nº 17, BAIRRO: JARDIM VITÓRIA, CIDADE: CAMPO LIMPO PAULISTA", "RAZÃO SOCIAL": "ADEGA DA GALERA", "NOME FANTASIA": "ADEGA DA GALERA", "NOME DO EMPRESÁRIO": "CARLOS BARAUNA", "STATUS": "-AP.LICAR T4" }, "geometry": { "type": "Point", "coordinates": [ -46.799326, -23.215156 ] } },
{ "type": "Feature", "properties": { "CNPJ": "17043254000190", "ENDEREÇO COMPLETO": "RUA: MARIA PAVANELLO BONAMIGO, Nº 6, BAIRRO: JARDIM VITÓRIA, CIDADE: CAMPO LIMPO PAULISTA", "RAZÃO SOCIAL": "MORA SOLUÇÕES", "NOME FANTASIA": "MORA SOLUÇÕES", "NOME DO EMPRESÁRIO": "IVAN PEDRASSOLI", "STATUS": "-AP.LICAR T4" }, "geometry": { "type": "Point", "coordinates": [ -46.7988222, -23.2151135 ] } },
{ "type": "Feature", "properties": { "CNPJ": "50398572000149", "ENDEREÇO COMPLETO": "RUA: COLIBRI, Nº 440, BAIRRO: JARDIM SANTA LÚCIA, CIDADE: CAMPO LIMPO PAULISTA", "RAZÃO SOCIAL": "DROGARIA VITALI", "NOME FANTASIA": "DROGARIA VITALI", "NOME DO EMPRESÁRIO": "ALINE ARAUJO", "STATUS": "-AP.LICAR T4" }, "geometry": { "type": "Point", "coordinates": [ -46.7984261, -23.2141901 ] } },
{ "type": "Feature", "properties": { "CNPJ": "46356232000188", "ENDEREÇO COMPLETO": "RUA: PINTASSILGO, Nº 185, BAIRRO: JARDIM SANTA LÚCIA, CIDADE: CAMPO LIMPO PAULISTA", "RAZÃO SOCIAL": "ÁGUA NA BOCA SALGADOS", "NOME FANTASIA": "ÁGUA NA BOCA SALGADOS", "NOME DO EMPRESÁRIO": "JOAO SANTOS", "STATUS": "-AP.LICAR T4" }, "geometry": { "type": "Point", "coordinates": [ -46.79799, -23.2099339 ] } },
{ "type": "Feature", "properties": { "CNPJ": "05073364000115", "ENDEREÇO COMPLETO": "AVENIDA: DA SAUDADE, Nº 435, BAIRRO: JARDIM GUANCIALE, CIDADE: CAMPO LIMPO PAULISTA", "RAZÃO SOCIAL": "AGRO SERV", "NOME FANTASIA": "AGRO SERV", "NOME DO EMPRESÁRIO": "MAURO PAREDES", "STATUS": "-AP.LICAR T4" }, "geometry": { "type": "Point", "coordinates": [ -46.7978445, -23.2090005 ] } },
{ "type": "Feature", "properties": { "CNPJ": "28228387000157", "ENDEREÇO COMPLETO": "AVENIDA: DA SAUDADE, Nº 381, BAIRRO: JARDIM GUANCIALE, CIDADE: CAMPO LIMPO PAULISTA", "RAZÃO SOCIAL": "TANIA FLORES", "NOME FANTASIA": "TANIA FLORES", "NOME DO EMPRESÁRIO": "YURI REINALDO", "STATUS": "-AP.LICAR T4" }, "geometry": { "type": "Point", "coordinates": [ -46.7978362, -23.2080456 ] } },
{ "type": "Feature", "properties": { "CNPJ": "39437028000126", "ENDEREÇO COMPLETO": "RUA: COLIBRI, Nº 197, BAIRRO: JARDIM SANTA LÚCIA, CIDADE: CAMPO LIMPO PAULISTA", "RAZÃO SOCIAL": "BIGUI ARTES E BALÕES", "NOME FANTASIA": "BIGUI ARTES E BALÕES", "NOME DO EMPRESÁRIO": "CRISTINA SALAZAR", "STATUS": "-AP.LICAR T4" }, "geometry": { "type": "Point", "coordinates": [ -46.7968063, -23.2127087 ] } },
{ "type": "Feature", "properties": { "CNPJ": "63309919000181", "ENDEREÇO COMPLETO": "AVENIDA: ALFRIED KRUPP, Nº 600, BAIRRO: CENTRO, CIDADE: CAMPO LIMPO PAULISTA", "RAZÃO SOCIAL": "TREINO E VIDA", "NOME FANTASIA": "TREINO E VIDA", "NOME DO EMPRESÁRIO": "ANGÉLICA ROQUE", "STATUS": "-AP.LICAR T4" }, "geometry": { "type": "Point", "coordinates": [ -46.7883858, -23.2017426 ] } },
{ "type": "Feature", "properties": { "CNPJ": "51173218000189", "ENDEREÇO COMPLETO": "AVENIDA: ALFRIED KRUPP, Nº 345, BAIRRO: CENTRO, CIDADE: CAMPO LIMPO PAULISTA", "RAZÃO SOCIAL": "DANIEL PISCINAS", "NOME FANTASIA": "DANIEL PISCINAS", "NOME DO EMPRESÁRIO": "JESSIANE ALMEIDA", "STATUS": "-AP.LICAR T4" }, "geometry": { "type": "Point", "coordinates": [ -46.7869902, -23.204086 ] } },
{ "type": "Feature", "properties": { "CNPJ": "29745751000119", "ENDEREÇO COMPLETO": "AVENIDA: ADHERBAL DA COSTA MOREIRA, Nº 538, BAIRRO: JARDIM AMÉRICA, CIDADE: CAMPO LIMPO PAULISTA", "RAZÃO SOCIAL": "VIVENDO SAÚDE", "NOME FANTASIA": "VIVENDO SAÚDE", "NOME DO EMPRESÁRIO": "ÉRICA SALLES", "STATUS": "-AP.LICAR T4" }, "geometry": { "type": "Point", "coordinates": [ -46.7835108, -23.2025776 ] } },
{ "type": "Feature", "properties": { "CNPJ": "36531638000104", "ENDEREÇO COMPLETO": "AVENIDA: ADHERBAL DA COSTA MOREIRA, Nº 748, BAIRRO: JARDIM AMÉRICA, CIDADE: CAMPO LIMPO PAULISTA", "RAZÃO SOCIAL": "OTICA KADIMA", "NOME FANTASIA": "OTICA KADIMA", "NOME DO EMPRESÁRIO": "ANDREIA BRAGHETTI", "STATUS": "-AP.LICAR T4" }, "geometry": { "type": "Point", "coordinates": [ -46.7833261, -23.2008795 ] } },
{ "type": "Feature", "properties": { "CNPJ": "42182655000178", "ENDEREÇO COMPLETO": "RUA: NOVE DE JULHO, Nº 10, BAIRRO: VILA IMAPE, CIDADE: CAMPO LIMPO PAULISTA", "RAZÃO SOCIAL": "THAÍS", "NOME FANTASIA": "THAÍS", "NOME DO EMPRESÁRIO": "THAIS LEITE", "STATUS": "-AP.LICAR T4" }, "geometry": { "type": "Point", "coordinates": [ -46.7832561, -23.2006804 ] } },
{ "type": "Feature", "properties": { "CNPJ": "47303438000102", "ENDEREÇO COMPLETO": "AVENIDA: DOM PEDRO I, Nº 140, BAIRRO: CENTRO, CIDADE: CAMPO LIMPO PAULISTA", "RAZÃO SOCIAL": "CARINI VEÍCULOS", "NOME FANTASIA": "CARINI VEÍCULOS", "NOME DO EMPRESÁRIO": "MATHEUS GONÇALO", "STATUS": "-AP.LICAR T4" }, "geometry": { "type": "Point", "coordinates": [ -46.7936226, -23.2015857 ] } },
{ "type": "Feature", "properties": { "CNPJ": "04561856000197", "ENDEREÇO COMPLETO": "AVENIDA: ADHERBAL DA COSTA MOREIRA, Nº 1094, BAIRRO: JARDIM AMÉRICA, CIDADE: CAMPO LIMPO PAULISTA", "RAZÃO SOCIAL": "DALMAQ  MÁQUINAS E EQUIPAMENTOS", "NOME FANTASIA": "DALMAQ  MÁQUINAS E EQUIPAMENTOS", "NOME DO EMPRESÁRIO": "GLAUCIA LAIRA", "STATUS": "-AP.LICAR T4" }, "geometry": { "type": "Point", "coordinates": [ -46.7833934, -23.1978699 ] } },
{ "type": "Feature", "properties": { "CNPJ": "37764491000157", "ENDEREÇO COMPLETO": "AVENIDA: ADHERBAL DA COSTA MOREIRA, Nº 886, BAIRRO: JARDIM AMÉRICA, CIDADE: CAMPO LIMPO PAULISTA", "RAZÃO SOCIAL": "LB INFORMÁTICA", "NOME FANTASIA": "LB INFORMÁTICA", "NOME DO EMPRESÁRIO": "LUIZ SILVA", "STATUS": "-AP.LICAR T4" }, "geometry": { "type": "Point", "coordinates": [ -46.7832612, -23.1999154 ] } },
{ "type": "Feature", "properties": { "CNPJ": "45136795000106", "ENDEREÇO COMPLETO": "AVENIDA: ADHERBAL DA COSTA MOREIRA, Nº 874, BAIRRO: JARDIM AMÉRICA, CIDADE: CAMPO LIMPO PAULISTA", "RAZÃO SOCIAL": "ARCA DOCE SORVETES", "NOME FANTASIA": "ARCA DOCE SORVETES", "NOME DO EMPRESÁRIO": "SERGIO GEBRAN", "STATUS": "-AP.LICAR T4" }, "geometry": { "type": "Point", "coordinates": [ -46.7832428, -23.2000921 ] } }
]
}
