{
"type": "FeatureCollection",
"name": "VARZEA",
"crs": { "type": "name", "properties": { "name": "urn:ogc:def:crs:OGC:1.3:CRS84" } },
"features": [
{ "type": "Feature", "properties": { "CNPJ": "45447788000117", "ENDEREÇO COMPLETO": "AVENIDA: PACAEMBU, Nº 2540, BAIRRO: JARDIM PAULISTA, CIDADE: VÁRZEA PAULISTA", "RAZÃO SOCIAL": "ADEGA DE VILA", "NOME FANTASIA": "ADEGA DE VILA", "NOME DO EMPRESÁRIO": "IGOR SILVA", "STATUS": "APLICAR T4" }, "geometry": { "type": "Point", "coordinates": [ -46.8160513, -23.1970738 ] } },
{ "type": "Feature", "properties": { "CNPJ": "21464135000188", "ENDEREÇO COMPLETO": "RUA: SOROCABA, Nº 285, BAIRRO: JARDIM PAULISTA, CIDADE: VÁRZEA PAULISTA", "RAZÃO SOCIAL": "LANCHONETE DA NETE", "NOME FANTASIA": "LANCHONETE DA NETE", "NOME DO EMPRESÁRIO": "IVONETE BARBOSA", "STATUS": "APLICAR T5" }, "geometry": { "type": "Point", "coordinates": [ -46.8334336, -23.2068944 ] } },
{ "type": "Feature", "properties": { "CNPJ": "41384119000192", "ENDEREÇO COMPLETO": "RUA: SOROCABA, Nº 205, BAIRRO: JARDIM PAULISTA, CIDADE: VÁRZEA PAULISTA", "RAZÃO SOCIAL": "MAX ENERGY SOLAR", "NOME FANTASIA": "MAX ENERGY SOLAR", "NOME DO EMPRESÁRIO": "FERNANDA SILVA", "STATUS": "APLICAR T4" }, "geometry": { "type": "Point", "coordinates": [ -46.8333274, -23.2077376 ] } },
{ "type": "Feature", "properties": { "CNPJ": "64890849000160", "ENDEREÇO COMPLETO": "RUA: SOROCABA, Nº 901, BAIRRO: JARDIM PAULISTA, CIDADE: VÁRZEA PAULISTA", "RAZÃO SOCIAL": "AGROPESCA DAI", "NOME FANTASIA": "AGROPESCA DAI", "NOME DO EMPRESÁRIO": "DAIANE SILVA", "STATUS": "APLICAR T4" }, "geometry": { "type": "Point", "coordinates": [ -46.8303734, -23.201712 ] } },
{ "type": "Feature", "properties": { "CNPJ": "63110834000170", "ENDEREÇO COMPLETO": "AVENIDA: BARRETOS, Nº 384, BAIRRO: JARDIM AMÉRICA, CIDADE: VÁRZEA PAULISTA", "RAZÃO SOCIAL": "MALHEIRO BIKE SHOP", "NOME FANTASIA": "MALHEIRO BIKE SHOP", "NOME DO EMPRESÁRIO": "APARECIDO DAVYD SANTOS", "STATUS": "APLICAR T4" }, "geometry": { "type": "Point", "coordinates": [ -46.8300578, -23.1983042 ] } },
{ "type": "Feature", "properties": { "CNPJ": "44394349000120", "ENDEREÇO COMPLETO": "RUA: OSASCO, Nº 245, BAIRRO: JARDIM AMÉRICA, CIDADE: VÁRZEA PAULISTA", "RAZÃO SOCIAL": "WBBVITE SOLUÇÕES ESTRATÉGIAS", "NOME FANTASIA": "WBBVITE SOLUÇÕES ESTRATÉGIAS", "NOME DO EMPRESÁRIO": "WELLINGTON BALTAZAR", "STATUS": "APLICAR T2" }, "geometry": { "type": "Point", "coordinates": [ -46.827713, -23.1940537 ] } },
{ "type": "Feature", "properties": { "CNPJ": "53974727000136", "ENDEREÇO COMPLETO": "AVENIDA: CENTRAL, Nº 155, BAIRRO: VILA SANTA TEREZINHA, CIDADE: VÁRZEA PAULISTA", "RAZÃO SOCIAL": "PAPELARIA CENTRAL", "NOME FANTASIA": "PAPELARIA CENTRAL", "NOME DO EMPRESÁRIO": "RODRIGO PEREIRA", "STATUS": "APLICAR T4" }, "geometry": { "type": "Point", "coordinates": [ -46.8470837, -23.2083759 ] } },
{ "type": "Feature", "properties": { "CNPJ": "59560789000188", "ENDEREÇO COMPLETO": "AVENIDA: JOSÉ RABELLO PORTELLA, Nº 605, BAIRRO: JARDIM MARIA DE FÁTIMA, CIDADE: VÁRZEA PAULISTA", "RAZÃO SOCIAL": "RELOJOARIA MODERNA", "NOME FANTASIA": "RELOJOARIA MODERNA", "NOME DO EMPRESÁRIO": "CLARICE DUARTE", "STATUS": "APLICAR T5" }, "geometry": { "type": "Point", "coordinates": [ -46.8463794, -23.216559 ] } },
{ "type": "Feature", "properties": { "CNPJ": "28048659000137", "ENDEREÇO COMPLETO": "RUA: DOM PEDRO II, Nº 184, BAIRRO: VILA SANTA TEREZINHA, CIDADE: VÁRZEA PAULISTA", "RAZÃO SOCIAL": "RM A CASA DA VASSOURA", "NOME FANTASIA": "RM A CASA DA VASSOURA", "NOME DO EMPRESÁRIO": "GIOVANA RODRIGUES", "STATUS": "APLICAR T4" }, "geometry": { "type": "Point", "coordinates": [ -46.8452424, -23.2090744 ] } },
{ "type": "Feature", "properties": { "CNPJ": "62980835000102", "ENDEREÇO COMPLETO": "AVENIDA: FERNÃO DIAS PAES LEME, Nº 864, BAIRRO: CENTRO, CIDADE: VÁRZEA PAULISTA", "RAZÃO SOCIAL": "VIP VARIEDADES", "NOME FANTASIA": "VIP VARIEDADES", "NOME DO EMPRESÁRIO": "EDUARDA SOUZA", "STATUS": "APLICAR T4" }, "geometry": { "type": "Point", "coordinates": [ -46.8371247, -23.2126883 ] } },
{ "type": "Feature", "properties": { "CNPJ": "08366657000189", "ENDEREÇO COMPLETO": "AVENIDA: FERNÃO DIAS PAES LEME, Nº 864, BAIRRO: CENTRO, CIDADE: VÁRZEA PAULISTA", "RAZÃO SOCIAL": "ENCONTRO MODA INTIMA", "NOME FANTASIA": "ENCONTRO MODA INTIMA", "NOME DO EMPRESÁRIO": "SILVANIA NASCIMENTO", "STATUS": "APLICAR T2" }, "geometry": { "type": "Point", "coordinates": [ -46.8371247, -23.2126883 ] } },
{ "type": "Feature", "properties": { "CNPJ": "35615815000160", "ENDEREÇO COMPLETO": "RUA: VICTÓRIO SPINUCCI, Nº 324, BAIRRO: JARDIM PROMECA, CIDADE: VÁRZEA PAULISTA", "RAZÃO SOCIAL": "ZAFFAN FERRAGENS", "NOME FANTASIA": "ZAFFAN FERRAGENS", "NOME DO EMPRESÁRIO": "ROBSON ZAFFANI", "STATUS": "APLICAR T4" }, "geometry": { "type": "Point", "coordinates": [ -46.8127796, -23.2135271 ] } },
{ "type": "Feature", "properties": { "CNPJ": "02599172000159", "ENDEREÇO COMPLETO": "RUA: EUGÊNIO CAREZZATO, Nº 14, BAIRRO: JARDIM PROMECA, CIDADE: VÁRZEA PAULISTA", "RAZÃO SOCIAL": "LU MAGAZINE", "NOME FANTASIA": "LU MAGAZINE", "NOME DO EMPRESÁRIO": "LUIZ PEDROSO", "STATUS": "APLICAR T4" }, "geometry": { "type": "Point", "coordinates": [ -46.8127471, -23.2137305 ] } },
{ "type": "Feature", "properties": { "CNPJ": "62411621000115", "ENDEREÇO COMPLETO": "RUA: VICTÓRIO SPINUCCI, Nº 510, BAIRRO: JARDIM PROMECA, CIDADE: VÁRZEA PAULISTA", "RAZÃO SOCIAL": "ALTÍSSIMO BURGER", "NOME FANTASIA": "ALTÍSSIMO BURGER", "NOME DO EMPRESÁRIO": "ANA MOL", "STATUS": "APLICAR T4" }, "geometry": { "type": "Point", "coordinates": [ -46.8124248, -23.2143196 ] } },
{ "type": "Feature", "properties": { "CNPJ": "24317589000114", "ENDEREÇO COMPLETO": "RUA: VICTÓRIO SPINUCCI, Nº 165, BAIRRO: JARDIM PROMECA, CIDADE: VÁRZEA PAULISTA", "RAZÃO SOCIAL": "BICICLETARIA PROMECA", "NOME FANTASIA": "BICICLETARIA PROMECA", "NOME DO EMPRESÁRIO": "WESLEY MORAES", "STATUS": "APLICAR T4" }, "geometry": { "type": "Point", "coordinates": [ -46.8124002, -23.211935 ] } },
{ "type": "Feature", "properties": { "CNPJ": "15564591000105", "ENDEREÇO COMPLETO": "RUA: VICTÓRIO SPINUCCI, Nº 417, BAIRRO: JARDIM PROMECA, CIDADE: VÁRZEA PAULISTA", "RAZÃO SOCIAL": "ELETRO CORSINI", "NOME FANTASIA": "ELETRO CORSINI", "NOME DO EMPRESÁRIO": "HELEN CORSINI", "STATUS": "APLICAR T4" }, "geometry": { "type": "Point", "coordinates": [ -46.8123227, -23.2140394 ] } },
{ "type": "Feature", "properties": { "CNPJ": "64309716000158", "ENDEREÇO COMPLETO": "RUA: VICTÓRIO SPINUCCI, Nº 95, BAIRRO: JARDIM PROMECA, CIDADE: VÁRZEA PAULISTA", "RAZÃO SOCIAL": "PJ TECH", "NOME FANTASIA": "PJ TECH", "NOME DO EMPRESÁRIO": "PAMELA SANTOS", "STATUS": "APLICAR T4" }, "geometry": { "type": "Point", "coordinates": [ -46.8121284, -23.2114989 ] } },
{ "type": "Feature", "properties": { "CNPJ": "62272504000118", "ENDEREÇO COMPLETO": "RUA: VICTÓRIO SPINUCCI, Nº 512, BAIRRO: JARDIM PROMECA, CIDADE: VÁRZEA PAULISTA", "RAZÃO SOCIAL": "EMPÓRIO DA MA", "NOME FANTASIA": "EMPÓRIO DA MA", "NOME DO EMPRESÁRIO": "MARLUCE ESPINDOLA", "STATUS": "APLICAR T4" }, "geometry": { "type": "Point", "coordinates": [ -46.8120946, -23.2149603 ] } },
{ "type": "Feature", "properties": { "CNPJ": "07789628000167", "ENDEREÇO COMPLETO": "AVENIDA: DUQUE DE CAXIAS, Nº 2335, BAIRRO: JARDIM PROMECA, CIDADE: VÁRZEA PAULISTA", "RAZÃO SOCIAL": "FIXOGERAL", "NOME FANTASIA": "FIXOGERAL", "NOME DO EMPRESÁRIO": "JUNIOR CICERO", "STATUS": "APLICAR T4" }, "geometry": { "type": "Point", "coordinates": [ -46.8120085, -23.2086807 ] } },
{ "type": "Feature", "properties": { "CNPJ": "58732259000107", "ENDEREÇO COMPLETO": "RUA: MARANHÃO, Nº 19, BAIRRO: VILA POPULAR, CIDADE: VÁRZEA PAULISTA", "RAZÃO SOCIAL": "NEGO BLUE", "NOME FANTASIA": "NEGO BLUE", "NOME DO EMPRESÁRIO": "CAUE CASOTI", "STATUS": "APLICAR T4" }, "geometry": { "type": "Point", "coordinates": [ -46.8424952, -23.2274661 ] } },
{ "type": "Feature", "properties": { "CNPJ": "62090401000137", "ENDEREÇO COMPLETO": "RUA: CORONEL ÁLVARO DE CASTRO, Nº 366, BAIRRO: VILA SÃO JOSÉ, CIDADE: VÁRZEA PAULISTA", "RAZÃO SOCIAL": "MAKE SHINE", "NOME FANTASIA": "MAKE SHINE", "NOME DO EMPRESÁRIO": "SHIRLEI DINIZ", "STATUS": "APLICAR T4" }, "geometry": { "type": "Point", "coordinates": [ -46.8343562, -23.2135292 ] } },
{ "type": "Feature", "properties": { "CNPJ": "07671717000104", "ENDEREÇO COMPLETO": "RUA: CORONEL ÁLVARO DE CASTRO, Nº 275, BAIRRO: VILA SÃO JOSÉ, CIDADE: VÁRZEA PAULISTA", "RAZÃO SOCIAL": "AGRO GUERRA", "NOME FANTASIA": "AGRO GUERRA", "NOME DO EMPRESÁRIO": "ANA PAULA GUERRA", "STATUS": "APLICAR T4" }, "geometry": { "type": "Point", "coordinates": [ -46.8335218, -23.2138039 ] } },
{ "type": "Feature", "properties": { "CNPJ": "31560079000139", "ENDEREÇO COMPLETO": "RUA: SAO JOSÉ, Nº 162, BAIRRO: VILA SÃO JOSÉ, CIDADE: VÁRZEA PAULISTA", "RAZÃO SOCIAL": "LC STYLE", "NOME FANTASIA": "LC STYLE", "NOME DO EMPRESÁRIO": "FABIANO CAMPANA", "STATUS": "APLICAR T4" }, "geometry": { "type": "Point", "coordinates": [ -46.8333978, -23.2140659 ] } },
{ "type": "Feature", "properties": { "CNPJ": "20885925000174", "ENDEREÇO COMPLETO": "RUA: SAO JOSÉ, Nº 16, BAIRRO: VILA SÃO JOSÉ, CIDADE: VÁRZEA PAULISTA", "RAZÃO SOCIAL": "ESSESNCIA DE MULHER", "NOME FANTASIA": "ESSESNCIA DE MULHER", "NOME DO EMPRESÁRIO": "VANDA PEREIRA", "STATUS": "APLICAR T4" }, "geometry": { "type": "Point", "coordinates": [ -46.8333792, -23.2136466 ] } },
{ "type": "Feature", "properties": { "CNPJ": "37532010000188", "ENDEREÇO COMPLETO": "RUA: SAO JOSÉ, Nº 165, BAIRRO: VILA SÃO JOSÉ, CIDADE: VÁRZEA PAULISTA", "RAZÃO SOCIAL": "CIRÚRGICA VÁRZEA MED", "NOME FANTASIA": "CIRÚRGICA VÁRZEA MED", "NOME DO EMPRESÁRIO": "STEFANY SOUZA", "STATUS": "APLICAR T4" }, "geometry": { "type": "Point", "coordinates": [ -46.8331381, -23.2142888 ] } },
{ "type": "Feature", "properties": { "CNPJ": "44160409000140", "ENDEREÇO COMPLETO": "AVENIDA: FERNÃO DIAS PAES LEME, Nº 371, BAIRRO: CENTRO, CIDADE: VÁRZEA PAULISTA", "RAZÃO SOCIAL": "PAPEL E ARTE", "NOME FANTASIA": "PAPEL E ARTE", "NOME DO EMPRESÁRIO": "MARLENE ALMEIDA", "STATUS": "APLICAR T4" }, "geometry": { "type": "Point", "coordinates": [ -46.8324654, -23.212507 ] } },
{ "type": "Feature", "properties": { "CNPJ": "33459319000139", "ENDEREÇO COMPLETO": "AVENIDA: FERNÃO DIAS PAES LEME, Nº 970, BAIRRO: CENTRO, CIDADE: VÁRZEA PAULISTA", "RAZÃO SOCIAL": "FRUTO DA TERRA", "NOME FANTASIA": "FRUTO DA TERRA", "NOME DO EMPRESÁRIO": "TIAGO SANTOS", "STATUS": "APLICAR T5" }, "geometry": { "type": "Point", "coordinates": [ -46.8382923, -23.2126871 ] } },
{ "type": "Feature", "properties": { "CNPJ": "57237586000120", "ENDEREÇO COMPLETO": "AVENIDA: FERNÃO DIAS PAES LEME, Nº 935, BAIRRO: CENTRO, CIDADE: VÁRZEA PAULISTA", "RAZÃO SOCIAL": "GB INFORMÁTICA", "NOME FANTASIA": "GB INFORMÁTICA", "NOME DO EMPRESÁRIO": "ALECIO BUSCH", "STATUS": "APLICAR T4" }, "geometry": { "type": "Point", "coordinates": [ -46.8377792, -23.212969 ] } },
{ "type": "Feature", "properties": { "CNPJ": "30811536000158", "ENDEREÇO COMPLETO": "AVENIDA: FERNÃO DIAS PAES LEME, Nº 893, BAIRRO: CENTRO, CIDADE: VÁRZEA PAULISTA", "RAZÃO SOCIAL": "TITECH CELULARES", "NOME FANTASIA": "TITECH CELULARES", "NOME DO EMPRESÁRIO": "DAIANE SILVA", "STATUS": "APLICAR T5" }, "geometry": { "type": "Point", "coordinates": [ -46.8373638, -23.2129615 ] } },
{ "type": "Feature", "properties": { "CNPJ": "63145741000180", "ENDEREÇO COMPLETO": "RUA: JOSÉ DIAS DE CASTRO, Nº 331, BAIRRO: VILA SÃO JOSÉ, CIDADE: VÁRZEA PAULISTA", "RAZÃO SOCIAL": "AGRO CENTRAL", "NOME FANTASIA": "AGRO CENTRAL", "NOME DO EMPRESÁRIO": "MARIA EDUARDA SILVA", "STATUS": "APLICAR T4" }, "geometry": { "type": "Point", "coordinates": [ -46.8366411, -23.2140024 ] } },
{ "type": "Feature", "properties": { "CNPJ": "59635019000157", "ENDEREÇO COMPLETO": "AVENIDA: FERNÃO DIAS PAES LEME, Nº 688, BAIRRO: CENTRO, CIDADE: VÁRZEA PAULISTA", "RAZÃO SOCIAL": "COXINHAS DO SIMÕES", "NOME FANTASIA": "COXINHAS DO SIMÕES", "NOME DO EMPRESÁRIO": "SAMANTHA SIMOES", "STATUS": "APLICAR T4" }, "geometry": { "type": "Point", "coordinates": [ -46.8353066, -23.2126924 ] } },
{ "type": "Feature", "properties": { "CNPJ": "25179951000109", "ENDEREÇO COMPLETO": "AVENIDA: FERNÃO DIAS PAES LEME, Nº 1872, BAIRRO: CENTRO, CIDADE: VÁRZEA PAULISTA", "RAZÃO SOCIAL": "ROD CAR VEÍCULOS", "NOME FANTASIA": "ROD CAR VEÍCULOS", "NOME DO EMPRESÁRIO": "RODRIGO LEME", "STATUS": "APLICAR T2" }, "geometry": { "type": "Point", "coordinates": [ -46.8448284, -23.211458 ] } },
{ "type": "Feature", "properties": { "CNPJ": "47996393000107", "ENDEREÇO COMPLETO": "RUA: ANTÔNIO LUIZ SUTTI, Nº 77, BAIRRO: JARDIM MARIA DE FÁTIMA, CIDADE: VÁRZEA PAULISTA", "RAZÃO SOCIAL": "MARIA CHIQUINHA TATOO", "NOME FANTASIA": "MARIA CHIQUINHA TATOO", "NOME DO EMPRESÁRIO": "ENDRIGO HASIGUTI", "STATUS": "APLICAR T4" }, "geometry": { "type": "Point", "coordinates": [ -46.8423696, -23.2131591 ] } },
{ "type": "Feature", "properties": { "CNPJ": "63667007000181", "ENDEREÇO COMPLETO": "AVENIDA: FERNÃO DIAS PAES LEME, Nº 1506, BAIRRO: CENTRO, CIDADE: VÁRZEA PAULISTA", "RAZÃO SOCIAL": "DECOR COLORS", "NOME FANTASIA": "DECOR COLORS", "NOME DO EMPRESÁRIO": "LUIS JUNIOR", "STATUS": "APLICAR T4" }, "geometry": { "type": "Point", "coordinates": [ -46.8419267, -23.212736 ] } },
{ "type": "Feature", "properties": { "CNPJ": "50725471000135", "ENDEREÇO COMPLETO": "RUA: PASCHOAL GIANFRANCESCO, Nº 60, BAIRRO: JARDIM DAS PALMEIRAS, CIDADE: VÁRZEA PAULISTA", "RAZÃO SOCIAL": "CHAVEIRO ONI", "NOME FANTASIA": "CHAVEIRO ONI", "NOME DO EMPRESÁRIO": "GUILHERME PINHO", "STATUS": "APLICAR T4" }, "geometry": { "type": "Point", "coordinates": [ -46.8391776, -23.2131065 ] } },
{ "type": "Feature", "properties": { "CNPJ": "53137916000154", "ENDEREÇO COMPLETO": "AVENIDA: DUQUE DE CAXIAS, Nº 2433, BAIRRO: JARDIM PROMECA, CIDADE: VÁRZEA PAULISTA", "RAZÃO SOCIAL": "DIH BURGUERS", "NOME FANTASIA": "DIH BURGUERS", "NOME DO EMPRESÁRIO": "DIEGO SANTOS", "STATUS": "APLICAR T2" }, "geometry": { "type": "Point", "coordinates": [ -46.809783, -23.2092217 ] } },
{ "type": "Feature", "properties": { "CNPJ": "61553968000130", "ENDEREÇO COMPLETO": "AVENIDA: FERNÃO DIAS PAES LEME, Nº 2487, BAIRRO: CENTRO, CIDADE: VÁRZEA PAULISTA", "RAZÃO SOCIAL": "SUPER TROCA DE ÓLEO HORTOLANDIA", "NOME FANTASIA": "SUPER TROCA DE ÓLEO HORTOLANDIA", "NOME DO EMPRESÁRIO": "VANDERLEI COELHO", "STATUS": "APLICAR T4" }, "geometry": { "type": "Point", "coordinates": [ -46.8484655, -23.2090503 ] } },
{ "type": "Feature", "properties": { "CNPJ": "55554021000140", "ENDEREÇO COMPLETO": "AVENIDA: FERNÃO DIAS PAES LEME, Nº 2463, BAIRRO: CENTRO, CIDADE: VÁRZEA PAULISTA", "RAZÃO SOCIAL": "KIOSQUE ROSEIRA", "NOME FANTASIA": "KIOSQUE ROSEIRA", "NOME DO EMPRESÁRIO": "RAFAEL PASSARELLI", "STATUS": "APLICAR T5" }, "geometry": { "type": "Point", "coordinates": [ -46.8482859, -23.209087 ] } },
{ "type": "Feature", "properties": { "CNPJ": "17984997000164", "ENDEREÇO COMPLETO": "AVENIDA: FERNÃO DIAS PAES LEME, Nº 2460, BAIRRO: CENTRO, CIDADE: VÁRZEA PAULISTA", "RAZÃO SOCIAL": "BAU ENCANTADO FANTASIAS", "NOME FANTASIA": "BAU ENCANTADO FANTASIAS", "NOME DO EMPRESÁRIO": "BRUNA CAMARGO", "STATUS": "APLICAR T5" }, "geometry": { "type": "Point", "coordinates": [ -46.8480301, -23.2087346 ] } },
{ "type": "Feature", "properties": { "CNPJ": "36818014000164", "ENDEREÇO COMPLETO": "RUA: CANANÉIA, Nº 490, BAIRRO: JARDIM PAULISTA, CIDADE: VÁRZEA PAULISTA", "RAZÃO SOCIAL": "BARBEARIA DORNELAS", "NOME FANTASIA": "BARBEARIA DORNELAS", "NOME DO EMPRESÁRIO": "GABRIEL PINTO", "STATUS": "APLICAR T4" }, "geometry": { "type": "Point", "coordinates": [ -46.823141, -23.198629 ] } },
{ "type": "Feature", "properties": { "CNPJ": "61439448000109", "ENDEREÇO COMPLETO": "AVENIDA: TANABI, Nº 160, BAIRRO: JARDIM AMÉRICA, CIDADE: VÁRZEA PAULISTA", "RAZÃO SOCIAL": "AGRO BORGES", "NOME FANTASIA": "AGRO BORGES", "NOME DO EMPRESÁRIO": "LUIZ BORGES", "STATUS": "APLICAR T4" }, "geometry": { "type": "Point", "coordinates": [ -46.8229401, -23.1955152 ] } },
{ "type": "Feature", "properties": { "CNPJ": "35901652000181", "ENDEREÇO COMPLETO": "AVENIDA: TANABI, Nº 292, BAIRRO: JARDIM AMÉRICA, CIDADE: VÁRZEA PAULISTA", "RAZÃO SOCIAL": "BARBEARIA VINICIUS BARBER SHOP", "NOME FANTASIA": "BARBEARIA VINICIUS BARBER SHOP", "NOME DO EMPRESÁRIO": "VINÍCIUS SILVA", "STATUS": "APLICAR T4" }, "geometry": { "type": "Point", "coordinates": [ -46.8227696, -23.1946126 ] } },
{ "type": "Feature", "properties": { "CNPJ": "55760838000175", "ENDEREÇO COMPLETO": "AVENIDA: TANABI, Nº 432, BAIRRO: JARDIM AMÉRICA, CIDADE: VÁRZEA PAULISTA", "RAZÃO SOCIAL": "ADEGA BARATEIRO", "NOME FANTASIA": "ADEGA BARATEIRO", "NOME DO EMPRESÁRIO": "VINÍCIUS CRUZ", "STATUS": "APLICAR T4" }, "geometry": { "type": "Point", "coordinates": [ -46.8217557, -23.1934834 ] } },
{ "type": "Feature", "properties": { "CNPJ": "17987755000124", "ENDEREÇO COMPLETO": "RUA: PIRAJU, Nº 26, BAIRRO: JARDIM AMÉRICA, CIDADE: VÁRZEA PAULISTA", "RAZÃO SOCIAL": "RESTAURANTE REAL", "NOME FANTASIA": "RESTAURANTE REAL", "NOME DO EMPRESÁRIO": "MARIA SOUZA", "STATUS": "APLICAR T2" }, "geometry": { "type": "Point", "coordinates": [ -46.8205805, -23.1925343 ] } },
{ "type": "Feature", "properties": { "CNPJ": "63164173000165", "ENDEREÇO COMPLETO": "AVENIDA: MACAÚBA, Nº 757, BAIRRO: JARDIM MIRANTE, CIDADE: VÁRZEA PAULISTA", "RAZÃO SOCIAL": "THAELU", "NOME FANTASIA": "THAELU", "NOME DO EMPRESÁRIO": "TAMIRES REITER", "STATUS": "APLICAR T4" }, "geometry": { "type": "Point", "coordinates": [ -46.8357649, -23.2213801 ] } },
{ "type": "Feature", "properties": { "CNPJ": "37134737000107", "ENDEREÇO COMPLETO": "AVENIDA: MACAÚBA, Nº 780, BAIRRO: JARDIM MIRANTE, CIDADE: VÁRZEA PAULISTA", "RAZÃO SOCIAL": "CONEXCELL", "NOME FANTASIA": "CONEXCELL", "NOME DO EMPRESÁRIO": "ISMAEL RIBEIRO", "STATUS": "APLICAR T4" }, "geometry": { "type": "Point", "coordinates": [ -46.8353125, -23.2213461 ] } },
{ "type": "Feature", "properties": { "CNPJ": "40850376000100", "ENDEREÇO COMPLETO": "RUA: IGURUPI, Nº 26, BAIRRO: JARDIM CRUZ ALTA, CIDADE: VÁRZEA PAULISTA", "RAZÃO SOCIAL": "GIMENE DOCES E BOLOS CASEIROS", "NOME FANTASIA": "GIMENE DOCES E BOLOS CASEIROS", "NOME DO EMPRESÁRIO": "MICHELE SOUZA", "STATUS": "APLICAR T4" }, "geometry": { "type": "Point", "coordinates": [ -46.8347633, -23.2162244 ] } },
{ "type": "Feature", "properties": { "CNPJ": "20086710000193", "ENDEREÇO COMPLETO": "AVENIDA: DUQUE DE CAXIAS, Nº 420, BAIRRO: JARDIM PROMECA, CIDADE: VÁRZEA PAULISTA", "RAZÃO SOCIAL": "ADEGA REALI", "NOME FANTASIA": "ADEGA REALI", "NOME DO EMPRESÁRIO": "ENZO JUNIOR", "STATUS": "APLICAR T4" }, "geometry": { "type": "Point", "coordinates": [ -46.826148, -23.21074 ] } },
{ "type": "Feature", "properties": { "CNPJ": "14481867000110", "ENDEREÇO COMPLETO": "RUA: DOM PEDRO I, Nº 286, BAIRRO: JARDIM BURITI, CIDADE: VÁRZEA PAULISTA", "RAZÃO SOCIAL": "D10 SPORTS", "NOME FANTASIA": "D10 SPORTS", "NOME DO EMPRESÁRIO": "DOUGLAS SILVA", "STATUS": "APLICAR T4" }, "geometry": { "type": "Point", "coordinates": [ -46.8545844, -23.2149749 ] } },
{ "type": "Feature", "properties": { "CNPJ": "63783676000119", "ENDEREÇO COMPLETO": "RUA: MATHIAS MUCHA, Nº 163, BAIRRO: JARDIM BURITI, CIDADE: VÁRZEA PAULISTA", "RAZÃO SOCIAL": "PG SUSPENSÕES", "NOME FANTASIA": "PG SUSPENSÕES", "NOME DO EMPRESÁRIO": "PATRICK SOARES", "STATUS": "APLICAR T4" }, "geometry": { "type": "Point", "coordinates": [ -46.8537016, -23.2179943 ] } },
{ "type": "Feature", "properties": { "CNPJ": "17227977000149", "ENDEREÇO COMPLETO": "RUA: ITORORÓ, Nº 30, BAIRRO: VILA IGUAÇU, CIDADE: VÁRZEA PAULISTA", "RAZÃO SOCIAL": "JÁ SERVICE CAR", "NOME FANTASIA": "JÁ SERVICE CAR", "NOME DO EMPRESÁRIO": "JEAN ANGELIERI", "STATUS": "APLICAR T5" }, "geometry": { "type": "Point", "coordinates": [ -46.8481986, -23.2241185 ] } },
{ "type": "Feature", "properties": { "CNPJ": "58012679000119", "ENDEREÇO COMPLETO": "RUA: DO TANQUE VELHO, Nº 102, BAIRRO: VILA IGUAÇU, CIDADE: VÁRZEA PAULISTA", "RAZÃO SOCIAL": "ECOM EXPRESS", "NOME FANTASIA": "ECOM EXPRESS", "NOME DO EMPRESÁRIO": "LUCAS SANTOS", "STATUS": "APLICAR T5" }, "geometry": { "type": "Point", "coordinates": [ -46.8471369, -23.2188881 ] } },
{ "type": "Feature", "properties": { "CNPJ": "11690733000111", "ENDEREÇO COMPLETO": "AVENIDA: JOSÉ RABELLO PORTELLA, Nº 3598, BAIRRO: VILA POPULAR, CIDADE: VÁRZEA PAULISTA", "RAZÃO SOCIAL": "SUPERMERCADO AYMORE", "NOME FANTASIA": "SUPERMERCADO AYMORE", "NOME DO EMPRESÁRIO": "FERNANDO BONFIM", "STATUS": "APLICAR T5" }, "geometry": { "type": "Point", "coordinates": [ -46.8500705, -23.2320232 ] } },
{ "type": "Feature", "properties": { "CNPJ": "61918362000150", "ENDEREÇO COMPLETO": "AVENIDA: PARAIBUNA, Nº 183, BAIRRO: JARDIM AMÉRICA, CIDADE: VÁRZEA PAULISTA", "RAZÃO SOCIAL": "AÇAITERIA AMÉRICA", "NOME FANTASIA": "AÇAITERIA AMÉRICA", "NOME DO EMPRESÁRIO": "ROGÉRIO MARINHO", "STATUS": "APLICAR T4" }, "geometry": { "type": "Point", "coordinates": [ -46.8311164, -23.2000552 ] } },
{ "type": "Feature", "properties": { "CNPJ": "46526357000109", "ENDEREÇO COMPLETO": "RUA: NAVIRAÍ, Nº 29, BAIRRO: JARDIM AMÉRICA, CIDADE: VÁRZEA PAULISTA", "RAZÃO SOCIAL": "EMPÓRIO CONFECÇÕES", "NOME FANTASIA": "EMPÓRIO CONFECÇÕES", "NOME DO EMPRESÁRIO": "LEILTON PAIXÃO", "STATUS": "APLICAR T4" }, "geometry": { "type": "Point", "coordinates": [ -46.8300837, -23.199207 ] } },
{ "type": "Feature", "properties": { "CNPJ": "54927164000198", "ENDEREÇO COMPLETO": "RUA: NAVIRAÍ, Nº 97, BAIRRO: JARDIM AMÉRICA, CIDADE: VÁRZEA PAULISTA", "RAZÃO SOCIAL": "BAR DA MARTA", "NOME FANTASIA": "BAR DA MARTA", "NOME DO EMPRESÁRIO": "MARTA PRETO", "STATUS": "APLICAR T4" }, "geometry": { "type": "Point", "coordinates": [ -46.8295182, -23.1995894 ] } },
{ "type": "Feature", "properties": { "CNPJ": "43063703000171", "ENDEREÇO COMPLETO": "AVENIDA: EDUARDO CASTRO, Nº 145, BAIRRO: VILA SÃO JOSÉ, CIDADE: VÁRZEA PAULISTA", "RAZÃO SOCIAL": "PADARIA R ER", "NOME FANTASIA": "PADARIA R ER", "NOME DO EMPRESÁRIO": "REGINA LEITE", "STATUS": "APLICAR T4" }, "geometry": { "type": "Point", "coordinates": [ -46.8307831, -23.2127935 ] } },
{ "type": "Feature", "properties": { "CNPJ": "26250302000101", "ENDEREÇO COMPLETO": "RUA: SAO VICENTE, Nº 470, BAIRRO: JARDIM PAULISTA, CIDADE: VÁRZEA PAULISTA", "RAZÃO SOCIAL": "ADEGA DRINK BEER", "NOME FANTASIA": "ADEGA DRINK BEER", "NOME DO EMPRESÁRIO": "ERASMO OLIVEIRA", "STATUS": "APLICAR T4" }, "geometry": { "type": "Point", "coordinates": [ -46.8241305, -23.1988553 ] } },
{ "type": "Feature", "properties": { "CNPJ": "64891250000141", "ENDEREÇO COMPLETO": "RUA: PONGAI, Nº 135, BAIRRO: VILA REAL, CIDADE: VÁRZEA PAULISTA", "RAZÃO SOCIAL": "64.891.250 CARLA DE ALMEIDA PINHO", "NOME FANTASIA": "CARLA ALMEIDA PINHO", "NOME DO EMPRESÁRIO": "CARLA ALMEIDA PINHO", "STATUS": "APLICAR T4" }, "geometry": { "type": "Point", "coordinates": [ -46.816208, -23.190001 ] } },
{ "type": "Feature", "properties": { "CNPJ": "51184072000177", "ENDEREÇO COMPLETO": "RUA: IGARAPE, Nº 118, BAIRRO: JARDIM AMÉRICA, CIDADE: VÁRZEA PAULISTA", "RAZÃO SOCIAL": "51.184.072 JANE RAMOS DOS REIS", "NOME FANTASIA": "JANE RAMOS DOS REIS", "NOME DO EMPRESÁRIO": "JANE RAMOS DOS REIS", "STATUS": "APLICAR T4" }, "geometry": { "type": "Point", "coordinates": [ -46.8167784, -23.188691 ] } }
]
}
