{
"type": "FeatureCollection",
"name": "Wandinho",
"crs": { "type": "name", "properties": { "name": "urn:ogc:def:crs:OGC:1.3:CRS84" } },
"bbox": [ -46.7484853, -21.323462, -46.7018988, -21.2698173 ],                                                                     
"features": [
{ "type": "Feature", "properties": { "NROCNPJ_PAD": "44806467000107", "NOME_FANTASIA": "JU SASTRE", "RAZAO_SOCIAL": "44.806.467 JULIANA VILAS BOAS SASTRE ROSA", "RESPONSAVEL": "JULIANAVILASBOASSASTREROSA", "MUNICIPIO": "GUAXUPE", "ENDEE": "AVENIDA PEDRO NICOLA, 3851, CASA 24, CALA BOCA, 37834-756, GUAXUPE, MG, BRASIL", "BANCO": "SICOOB", "LINHA_AVAL_NOME": "#N/D", "STATUS_OPERACIONAL": "CARTEIRA", "STATUS": "CARTEIRA" }, "bbox": [ -46.7337183, -21.3058435, -46.7337183, -21.3058435 ], "geometry": { "type": "Point", "coordinates": [ -46.7337183, -21.3058435 ] } },
{ "type": "Feature", "properties": { "NROCNPJ_PAD": "47939709000110", "NOME_FANTASIA": "BRUNO DENIS SERVICOS ELETRICOS", "RAZAO_SOCIAL": "47.939.709 BRUNO DENIS COSTA DE OLIVEIRA", "RESPONSAVEL": "BRUNODENISCOSTADEOLIVEIRA", "MUNICIPIO": "GUAXUPE", "ENDEE": "RUA GINEBALDO VIEIRA, 28, JARDIM OURO VERDE, 37831-224, GUAXUPE, MG, BRASIL", "BANCO": "SICOOB", "LINHA_AVAL_NOME": "#N/D", "STATUS_OPERACIONAL": "CARTEIRA", "STATUS": "CARTEIRA" }, "bbox": [ -46.7116925, -21.3221864, -46.7116925, -21.3221864 ], "geometry": { "type": "Point", "coordinates": [ -46.7116925, -21.3221864 ] } },
{ "type": "Feature", "properties": { "NROCNPJ_PAD": "50586639000179", "NOME_FANTASIA": "QUERO + COXINHA", "RAZAO_SOCIAL": "50.586.639 HERCILIA GODOI GOMES", "RESPONSAVEL": "HERCILIAGODOIGOMES", "MUNICIPIO": "GUAXUPE", "ENDEE": "AVENIDA DONA FLORIANA, 676, CENTRO, 37830-126, GUAXUPE, MG, BRASIL", "BANCO": "SICOOB", "LINHA_AVAL_NOME": "#N/D", "STATUS_OPERACIONAL": "CARTEIRA", "STATUS": "CARTEIRA" }, "bbox": [ -46.7147076, -21.3087153, -46.7147076, -21.3087153 ], "geometry": { "type": "Point", "coordinates": [ -46.7147076, -21.3087153 ] } },
{ "type": "Feature", "properties": { "NROCNPJ_PAD": "52640081000198", "NOME_FANTASIA": "0", "RAZAO_SOCIAL": "52.640.081 IRINEU DOS SANTOS", "RESPONSAVEL": "IRINEUDOSSANTOS", "MUNICIPIO": "GUAXUPE", "ENDEE": "RUA ITALO AFFINI, 171, VILA SANTO ANTONIO, 37831-108, GUAXUPE, MG, BRASIL", "BANCO": "SICOOB", "LINHA_AVAL_NOME": "#N/D", "STATUS_OPERACIONAL": "CARTEIRA", "STATUS": "CARTEIRA" }, "bbox": [ -46.7085231, -21.3156063, -46.7085231, -21.3156063 ], "geometry": { "type": "Point", "coordinates": [ -46.7085231, -21.3156063 ] } },
{ "type": "Feature", "properties": { "NROCNPJ_PAD": "40247279000127", "NOME_FANTASIA": "NANI SILK-SCREEN", "RAZAO_SOCIAL": "ANA PAULA CHAGAS FELIPE", "RESPONSAVEL": "ANAPAULACHAGASFELIPE", "MUNICIPIO": "GUAXUPE", "ENDEE": "RUA DR. SEBASTIAO RODRIGUES, 127, PARQUE DO LAGO, 37800-000, GUAXUPE, MG, BRASIL", "BANCO": "SICOOB", "LINHA_AVAL_NOME": "#N/D", "STATUS_OPERACIONAL": "CARTEIRA", "STATUS": "CARTEIRA" }, "bbox": [ -46.7160669, -21.3131915, -46.7160669, -21.3131915 ], "geometry": { "type": "Point", "coordinates": [ -46.7160669, -21.3131915 ] } },
{ "type": "Feature", "properties": { "NROCNPJ_PAD": "17336298000108", "NOME_FANTASIA": "0", "RAZAO_SOCIAL": "AUTO PECAS SENADOR LTDA", "RESPONSAVEL": "ALESSANDRA BASTOS MANCINI|MARCIO CARLONI MANCINI", "MUNICIPIO": "GUAXUPE", "ENDEE": "AVENIDA JOSE LAZARO DE MORAES, 223, JARDIM ALVORADA, 37834-880, GUAXUPE, MG, BRASIL", "BANCO": "BDMG", "LINHA_AVAL_NOME": "#N/D", "STATUS_OPERACIONAL": "CARTEIRA", "STATUS": "CARTEIRA" }, "bbox": [ -46.7360011, -21.3059094, -46.7360011, -21.3059094 ], "geometry": { "type": "Point", "coordinates": [ -46.7360011, -21.3059094 ] } },
{ "type": "Feature", "properties": { "NROCNPJ_PAD": "00452650000178", "NOME_FANTASIA": "BENEFICIADORA DE COUROS JOMAR", "RAZAO_SOCIAL": "BENEFICIADORA DE COUROS JOMAR LTDA", "RESPONSAVEL": "-", "MUNICIPIO": "GUAXUPE", "ENDEE": "RUA ADELIA TEIXEIRA DE MELO, 410, POLO INDUSTRIAL, 37800-000, GUAXUPE, MG, BRASIL", "BANCO": "BRADESCO", "LINHA_AVAL_NOME": "#N/D", "STATUS_OPERACIONAL": "CARTEIRA", "STATUS": "CARTEIRA" }, "bbox": [ -46.7388762, -21.3018024, -46.7388762, -21.3018024 ], "geometry": { "type": "Point", "coordinates": [ -46.7388762, -21.3018024 ] } },
{ "type": "Feature", "properties": { "NROCNPJ_PAD": "30499259000190", "NOME_FANTASIA": "0", "RAZAO_SOCIAL": "CLAUDIA MORAES DE OLIVEIRA MARQUES", "RESPONSAVEL": "CLAUDIA MORAES DE OLIVEIRA MARQUES", "MUNICIPIO": "GUAXUPE", "ENDEE": "RUA CONCEICAO DA APARECIDA, 235, PQ DOS MUNICIPIOS II, 37800-000, GUAXUPE, MG, BRASIL", "BANCO": "BDMG", "LINHA_AVAL_NOME": "#N/D", "STATUS_OPERACIONAL": "CARTEIRA", "STATUS": "CARTEIRA" }, "bbox": [ -46.7336529, -21.3144234, -46.7336529, -21.3144234 ], "geometry": { "type": "Point", "coordinates": [ -46.7336529, -21.3144234 ] } },
{ "type": "Feature", "properties": { "NROCNPJ_PAD": "50708878000154", "NOME_FANTASIA": "D & J TERRAPLENAGEM E SERVICOS DE CONSTRUCAO CIVIL", "RAZAO_SOCIAL": "D & J TERRAPLENAGEM E SERVICOS DE CONSTRUCAO CIVIL LTDA", "RESPONSAVEL": "DIOGENES ERICK DA SILVA", "MUNICIPIO": "GUAXUPE", "ENDEE": "RUA JOAQUIM MACAIBAS, 81, VILA CONCEICAO, 37836-008, GUAXUPE, MG, BRASIL", "BANCO": "SICREDI 2", "LINHA_AVAL_NOME": "#N/D", "STATUS_OPERACIONAL": "CARTEIRA", "STATUS": "CARTEIRA" }, "bbox": [ -46.7148187, -21.2944193, -46.7148187, -21.2944193 ], "geometry": { "type": "Point", "coordinates": [ -46.7148187, -21.2944193 ] } },
{ "type": "Feature", "properties": { "NROCNPJ_PAD": "40131705000162", "NOME_FANTASIA": "LUXO CAR", "RAZAO_SOCIAL": "ECM METAIS LTDA", "RESPONSAVEL": "ELTONDONIZETTIMACHADO", "MUNICIPIO": "GUAXUPE", "ENDEE": "RUA JESUALDO GONCALVES SIQUEIRA (CAJU), 111, RECANTO DOS PASSAROS, 37836-056, GUAXUPE, MG, BRASIL", "BANCO": "SICOOB", "LINHA_AVAL_NOME": "#N/D", "STATUS_OPERACIONAL": "CARTEIRA", "STATUS": "CARTEIRA" }, "bbox": [ -46.708459, -21.3049394, -46.708459, -21.3049394 ], "geometry": { "type": "Point", "coordinates": [ -46.708459, -21.3049394 ] } },
{ "type": "Feature", "properties": { "NROCNPJ_PAD": "50689601000121", "NOME_FANTASIA": "ESCOLA CRESCER FELIZ", "RAZAO_SOCIAL": "ESCOLA CRESCER FELIZ LTDA", "RESPONSAVEL": "MAIRACRISTINADIASINACIO", "MUNICIPIO": "GUAXUPE", "ENDEE": "RUA JOSE OLEGARIO DA SILVEIRA, 391, PARQUE DO LAGO, 37831-024, GUAXUPE, MG, BRASIL", "BANCO": "SICOOB", "LINHA_AVAL_NOME": "#N/D", "STATUS_OPERACIONAL": "CARTEIRA", "STATUS": "CARTEIRA" }, "bbox": [ -46.715683, -21.3134927, -46.715683, -21.3134927 ], "geometry": { "type": "Point", "coordinates": [ -46.715683, -21.3134927 ] } },
{ "type": "Feature", "properties": { "NROCNPJ_PAD": "42384812000128", "NOME_FANTASIA": "G6 FORCA E SEGURANCA", "RAZAO_SOCIAL": "G6 FORCA E SEGURANCA LTDA", "RESPONSAVEL": "GLACEKELLYSILVEIRADEPAULA", "MUNICIPIO": "GUAXUPE", "ENDEE": "RUA WANDERLEY GAMERO MARQUES, 234, JARDIM LIMOEIRO, 37831-312, GUAXUPE, MG, BRASIL", "BANCO": "SICOOB", "LINHA_AVAL_NOME": "#N/D", "STATUS_OPERACIONAL": "CARTEIRA", "STATUS": "CARTEIRA" }, "bbox": [ -46.708717, -21.323462, -46.708717, -21.323462 ], "geometry": { "type": "Point", "coordinates": [ -46.708717, -21.323462 ] } },
{ "type": "Feature", "properties": { "NROCNPJ_PAD": "51212864000108", "NOME_FANTASIA": "IMPERIO ANIMAL", "RAZAO_SOCIAL": "GIOVANNA DOS SANTOS PIRES LTDA", "RESPONSAVEL": "GIOVANNADOSSANTOSPIRES", "MUNICIPIO": "GUAXUPE", "ENDEE": "AVENIDA PRESIDENTE TANCREDO NEVES, 439, LETRA B, JARDIM PLANALTO, 37800-000, GUAXUPE, MG, BRASIL", "BANCO": "SICOOB", "LINHA_AVAL_NOME": "#N/D", "STATUS_OPERACIONAL": "CARTEIRA", "STATUS": "CARTEIRA" }, "bbox": [ -46.7189134, -21.3125159, -46.7189134, -21.3125159 ], "geometry": { "type": "Point", "coordinates": [ -46.7189134, -21.3125159 ] } },
{ "type": "Feature", "properties": { "NROCNPJ_PAD": "05727757000103", "NOME_FANTASIA": "0", "RAZAO_SOCIAL": "GRAFICA VIA INFO LTDA", "RESPONSAVEL": "BEATRIZ TAVARES PUGLIA SALLES|FLAVIO EDUARDO BRIGAGAO DE CARVALHO|SILVIA CRISTINA GONCALVES PAES BRIGAGAO", "MUNICIPIO": "GUAXUPE", "ENDEE": "RUA CORONEL JOAQUIM COSTA, 74, LETRA A, CENTRO, 37830-100, GUAXUPE, MG, BRASIL", "BANCO": "BDMG", "LINHA_AVAL_NOME": "#N/D", "STATUS_OPERACIONAL": "CARTEIRA", "STATUS": "CARTEIRA" }, "bbox": [ -46.7107159, -21.302591, -46.7107159, -21.302591 ], "geometry": { "type": "Point", "coordinates": [ -46.7107159, -21.302591 ] } },
{ "type": "Feature", "properties": { "NROCNPJ_PAD": "22711577000144", "NOME_FANTASIA": "NANINI AMBIENTES PLANEJADOS", "RAZAO_SOCIAL": "INDUSTRIA E COMERCIO DE MOVEIS TJG LTDA", "RESPONSAVEL": "GUILHERMEDONIZETEBORGES|TIAGONANINIMOREIRA", "MUNICIPIO": "GUAXUPE", "ENDEE": "AVENIDA PAULO RIBEIRO DO VALLE, 657, JAPY, 37800-000, GUAXUPE, MG, BRASIL", "BANCO": "SICOOB", "LINHA_AVAL_NOME": "#N/D", "STATUS_OPERACIONAL": "CARTEIRA", "STATUS": "CARTEIRA" }, "bbox": [ -46.7036872, -21.296088, -46.7036872, -21.296088 ], "geometry": { "type": "Point", "coordinates": [ -46.7036872, -21.296088 ] } },
{ "type": "Feature", "properties": { "NROCNPJ_PAD": "49773838000107", "NOME_FANTASIA": "BURGUESINHA BRECHO CHIC GUAXUPE", "RAZAO_SOCIAL": "ISABELLA MASINI BARBOSA LTDA", "RESPONSAVEL": "ISABELLAMASINIBARBOSA", "MUNICIPIO": "GUAXUPE", "ENDEE": "AVENIDA DONA FLORIANA, 309, CENTRO, 37800-000, GUAXUPE, MG, BRASIL", "BANCO": "SICOOB", "LINHA_AVAL_NOME": "#N/D", "STATUS_OPERACIONAL": "CARTEIRA", "STATUS": "CARTEIRA" }, "bbox": [ -46.7112708, -21.3106291, -46.7112708, -21.3106291 ], "geometry": { "type": "Point", "coordinates": [ -46.7112708, -21.3106291 ] } },
{ "type": "Feature", "properties": { "NROCNPJ_PAD": "13581812000110", "NOME_FANTASIA": "CENTER FLORA", "RAZAO_SOCIAL": "JOSE MAURICIO DA SILVA 26651955691", "RESPONSAVEL": "-", "MUNICIPIO": "GUAXUPE", "ENDEE": "RUA ABILIO ABRAO, 414, ANGOLA, 37834-005, GUAXUPE, MG, BRASIL", "BANCO": "BRADESCO", "LINHA_AVAL_NOME": "#N/D", "STATUS_OPERACIONAL": "CARTEIRA", "STATUS": "CARTEIRA" }, "bbox": [ -46.7152794, -21.297063, -46.7152794, -21.297063 ], "geometry": { "type": "Point", "coordinates": [ -46.7152794, -21.297063 ] } },
{ "type": "Feature", "properties": { "NROCNPJ_PAD": "30129838000140", "NOME_FANTASIA": "KOI GASTRONOMIA JAPONESA", "RAZAO_SOCIAL": "KOI GASTRONOMIA JAPONESA LTDA", "RESPONSAVEL": "AKILESYAKUWAKINSUI|DANIELAMARQUESVITORINO", "MUNICIPIO": "GUAXUPE", "ENDEE": "RUA DONA DELFINA, 81, ANGOLA, 37800-000, GUAXUPE, MG, BRASIL", "BANCO": "SICOOB", "LINHA_AVAL_NOME": "#N/D", "STATUS_OPERACIONAL": "CARTEIRA", "STATUS": "CARTEIRA" }, "bbox": [ -46.7137741, -21.2985313, -46.7137741, -21.2985313 ], "geometry": { "type": "Point", "coordinates": [ -46.7137741, -21.2985313 ] } },
{ "type": "Feature", "properties": { "NROCNPJ_PAD": "57295518000117", "NOME_FANTASIA": "PASTELVIS O REI DO PASTEL", "RAZAO_SOCIAL": "L & A FAST FOOD LTDA", "RESPONSAVEL": "LUCIANADOAMARALDESOUSA", "MUNICIPIO": "GUAXUPE", "ENDEE": "AVENIDA DONA FLORIANA, 1067, LOJA 1-2, LOTEAMENTO CAMARGO E ZEITUNE, 37830-402, GUAXUPE, MG, BRASIL", "BANCO": "SICOOB", "LINHA_AVAL_NOME": "#N/D", "STATUS_OPERACIONAL": "CARTEIRA", "STATUS": "CARTEIRA" }, "bbox": [ -46.7302454, -21.3074343, -46.7302454, -21.3074343 ], "geometry": { "type": "Point", "coordinates": [ -46.7302454, -21.3074343 ] } },
{ "type": "Feature", "properties": { "NROCNPJ_PAD": "50739295000190", "NOME_FANTASIA": "0", "RAZAO_SOCIAL": "LUCAS PISCINA LTDA", "RESPONSAVEL": "LUCASALVESDACOSTA", "MUNICIPIO": "GUAXUPE", "ENDEE": "AVENIDA CONDE RIBEIRO DO VALLE, 1025, CENTRO, 37830-026, GUAXUPE, MG, BRASIL", "BANCO": "SICOOB", "LINHA_AVAL_NOME": "#N/D", "STATUS_OPERACIONAL": "CARTEIRA", "STATUS": "CARTEIRA" }, "bbox": [ -46.7040616, -21.3058404, -46.7040616, -21.3058404 ], "geometry": { "type": "Point", "coordinates": [ -46.7040616, -21.3058404 ] } },
{ "type": "Feature", "properties": { "NROCNPJ_PAD": "08283300000137", "NOME_FANTASIA": "CASA DE AVES, RACOES E PET SHOP SANTA CRUZ", "RAZAO_SOCIAL": "LUIZ ANTONIO DA SILVA CPF 418.562.016-00", "RESPONSAVEL": "-", "MUNICIPIO": "GUAXUPE", "ENDEE": "AVENIDA PRESIDENTE TANCREDO NEVES, 1856, LETRA A, SANTA CRUZ, 37832-374, GUAXUPE, MG, BRASIL", "BANCO": "BRADESCO", "LINHA_AVAL_NOME": "#N/D", "STATUS_OPERACIONAL": "CARTEIRA", "STATUS": "CARTEIRA" }, "bbox": [ -46.7283743, -21.3167819, -46.7283743, -21.3167819 ], "geometry": { "type": "Point", "coordinates": [ -46.7283743, -21.3167819 ] } },
{ "type": "Feature", "properties": { "NROCNPJ_PAD": "32741309000129", "NOME_FANTASIA": "0", "RAZAO_SOCIAL": "MABAMC PUBLICIDADE GUAXUPE LTDA", "RESPONSAVEL": "ADILSONMACEDODECARVALHO|MARCOSANTONIOBARBOSA", "MUNICIPIO": "GUAXUPE", "ENDEE": "RUA CAPITAO AMERICO ALMEIDA CYRINO, 33, ANGOLA, 37800-000, GUAXUPE, MG, BRASIL", "BANCO": "SICOOB", "LINHA_AVAL_NOME": "#N/D", "STATUS_OPERACIONAL": "CARTEIRA", "STATUS": "CARTEIRA" }, "bbox": [ -46.7151508, -21.3000519, -46.7151508, -21.3000519 ], "geometry": { "type": "Point", "coordinates": [ -46.7151508, -21.3000519 ] } },
{ "type": "Feature", "properties": { "NROCNPJ_PAD": "28400583000167", "NOME_FANTASIA": "MORANA GUAXUPE", "RAZAO_SOCIAL": "MAGALHAES E REZENDE ACESSORIOS LTDA", "RESPONSAVEL": "ANALEADEMAGALHAESMELOSILVA|MARADEREZENDECECILIO", "MUNICIPIO": "GUAXUPE", "ENDEE": "TRAVESSA JOAO CRUVINEL, 37, CENTRO, 37800-000, GUAXUPE, MG, BRASIL", "BANCO": "SICOOB", "LINHA_AVAL_NOME": "#N/D", "STATUS_OPERACIONAL": "CARTEIRA", "STATUS": "CARTEIRA" }, "bbox": [ -46.7133384, -21.3038969, -46.7133384, -21.3038969 ], "geometry": { "type": "Point", "coordinates": [ -46.7133384, -21.3038969 ] } },
{ "type": "Feature", "properties": { "NROCNPJ_PAD": "31041896000180", "NOME_FANTASIA": "PEDROSO CONTABILIDADE", "RAZAO_SOCIAL": "MARCELO PEDROSO DE CARVALHO LTDA", "RESPONSAVEL": "MARCELOPEDROSODECARVALHO", "MUNICIPIO": "GUAXUPE", "ENDEE": "RUA VEREADOR JOSE MAUER FILHO, 297, LETRA A, JARDIM PRIMAVERA II, 37800-000, GUAXUPE, MG, BRASIL", "BANCO": "SICOOB", "LINHA_AVAL_NOME": "#N/D", "STATUS_OPERACIONAL": "CARTEIRA", "STATUS": "CARTEIRA" }, "bbox": [ -46.7054742, -21.2929837, -46.7054742, -21.2929837 ], "geometry": { "type": "Point", "coordinates": [ -46.7054742, -21.2929837 ] } },
{ "type": "Feature", "properties": { "NROCNPJ_PAD": "27947788000102", "NOME_FANTASIA": "ESCARASSATI AUTO MECANICA", "RAZAO_SOCIAL": "MARIANA CRUVINEL MONTEIRO ESCARASSATI 05448528694", "RESPONSAVEL": "MARIANACRUVINELMONTEIROESCARASSATI", "MUNICIPIO": "GUAXUPE", "ENDEE": "AVENIDA PAULO RIBEIRO DO VALLE, 942, RESIDENCIAL CHICO ZERBINI, 37800-000, GUAXUPE, MG, BRASIL", "BANCO": "SICOOB", "LINHA_AVAL_NOME": "#N/D", "STATUS_OPERACIONAL": "CARTEIRA", "STATUS": "CARTEIRA" }, "bbox": [ -46.7018988, -21.292717, -46.7018988, -21.292717 ], "geometry": { "type": "Point", "coordinates": [ -46.7018988, -21.292717 ] } },
{ "type": "Feature", "properties": { "NROCNPJ_PAD": "30716854000130", "NOME_FANTASIA": "MEDDUSA TATTOO", "RAZAO_SOCIAL": "MEDDUSA TATTOO E PIERCING GUAXUPE LTDA", "RESPONSAVEL": "DAYANE DUARTE", "MUNICIPIO": "GUAXUPE", "ENDEE": "RUA NORBERTO RIBEIRO DO VALLE, 88, LETRA B, CENTRO, 37830-096, GUAXUPE, MG, BRASIL", "BANCO": "ESTÍMULO", "LINHA_AVAL_NOME": "#N/D", "STATUS_OPERACIONAL": "CARTEIRA", "STATUS": "CARTEIRA" }, "bbox": [ -46.7131885, -21.3069119, -46.7131885, -21.3069119 ], "geometry": { "type": "Point", "coordinates": [ -46.7131885, -21.3069119 ] } },
{ "type": "Feature", "properties": { "NROCNPJ_PAD": "31969023000132", "NOME_FANTASIA": "CASA DE CARNE MIQUEIAS", "RAZAO_SOCIAL": "MIQUEIAS DOS REIS CINTRA 11330051602", "RESPONSAVEL": "MIQUEIASDOSREISCINTRA", "MUNICIPIO": "GUAXUPE", "ENDEE": "AVENIDA JOAO FRANCISCO PASQUA, 394, JARDIM EUROPA II, 37800-000, GUAXUPE, MG, BRASIL", "BANCO": "SICOOB", "LINHA_AVAL_NOME": "#N/D", "STATUS_OPERACIONAL": "CARTEIRA", "STATUS": "CARTEIRA" }, "bbox": [ -46.739192, -21.3197172, -46.739192, -21.3197172 ], "geometry": { "type": "Point", "coordinates": [ -46.739192, -21.3197172 ] } },
{ "type": "Feature", "properties": { "NROCNPJ_PAD": "16546113000127", "NOME_FANTASIA": "SABOR CASEIRO", "RAZAO_SOCIAL": "MURILO RIOS MOLINA", "RESPONSAVEL": "HELCIODESIMONEMOLINA|MURILORIOSMOLINA", "MUNICIPIO": "GUAXUPE", "ENDEE": "RUA CAPITAO JOAQUIM NORBERTO, 26, CENTRO, 37830-006, GUAXUPE, MG, BRASIL", "BANCO": "SICOOB", "LINHA_AVAL_NOME": "#N/D", "STATUS_OPERACIONAL": "CARTEIRA", "STATUS": "CARTEIRA" }, "bbox": [ -46.7097704, -21.3018679, -46.7097704, -21.3018679 ], "geometry": { "type": "Point", "coordinates": [ -46.7097704, -21.3018679 ] } },
{ "type": "Feature", "properties": { "NROCNPJ_PAD": "08336114000119", "NOME_FANTASIA": "PADARIA DA ROSANGELA", "RAZAO_SOCIAL": "PADARIA DA ROSANGELA LTDA", "RESPONSAVEL": "-", "MUNICIPIO": "GUAXUPE", "ENDEE": "RUA LUIZ CELANI, 480, JARDIM PLANALTO, 37832-198, GUAXUPE, MG, BRASIL", "BANCO": "BRADESCO", "LINHA_AVAL_NOME": "#N/D", "STATUS_OPERACIONAL": "CARTEIRA", "STATUS": "CARTEIRA" }, "bbox": [ -46.7184456, -21.3135495, -46.7184456, -21.3135495 ], "geometry": { "type": "Point", "coordinates": [ -46.7184456, -21.3135495 ] } },
{ "type": "Feature", "properties": { "NROCNPJ_PAD": "26294480000134", "NOME_FANTASIA": "0", "RAZAO_SOCIAL": "PITONDO E BERNINE LTDA", "RESPONSAVEL": "ALEXANDREDASILVABERNINE|GIOVANAPITONDODECARVALHOBERNINE", "MUNICIPIO": "GUAXUPE", "ENDEE": "AVENIDA FELIPE ELIAS ZEITUNE, 1138, CENTRO, 37830-001, GUAXUPE, MG, BRASIL", "BANCO": "SICOOB", "LINHA_AVAL_NOME": "#N/D", "STATUS_OPERACIONAL": "CARTEIRA", "STATUS": "CARTEIRA" }, "bbox": [ -46.7179003, -21.2947311, -46.7179003, -21.2947311 ], "geometry": { "type": "Point", "coordinates": [ -46.7179003, -21.2947311 ] } },
{ "type": "Feature", "properties": { "NROCNPJ_PAD": "56704284000151", "NOME_FANTASIA": "PONTO DA CERVEJA DELIVERY", "RAZAO_SOCIAL": "PONTO DA CERVEJA DELIVERY LTDA", "RESPONSAVEL": "LEANDROSABBAGSCAGLIUSI", "MUNICIPIO": "GUAXUPE", "ENDEE": "RUA SALESIANOS, 417, CENTRO, 37830-056, GUAXUPE, MG, BRASIL", "BANCO": "SICOOB", "LINHA_AVAL_NOME": "#N/D", "STATUS_OPERACIONAL": "CARTEIRA", "STATUS": "CARTEIRA" }, "bbox": [ -46.7169198, -21.3067832, -46.7169198, -21.3067832 ], "geometry": { "type": "Point", "coordinates": [ -46.7169198, -21.3067832 ] } },
{ "type": "Feature", "properties": { "NROCNPJ_PAD": "55428990000155", "NOME_FANTASIA": "PRADO PISCINAS GUAXUPE", "RAZAO_SOCIAL": "PRADO PISCINAS LTDA", "RESPONSAVEL": "CRISLAINEDACOSTAPRADO", "MUNICIPIO": "GUAXUPE", "ENDEE": "RUA ABUD FARAH, 195, VILA ALTO ALEGRE, 37830-294, GUAXUPE, MG, BRASIL", "BANCO": "SICOOB", "LINHA_AVAL_NOME": "#N/D", "STATUS_OPERACIONAL": "CARTEIRA", "STATUS": "CARTEIRA" }, "bbox": [ -46.7074712, -21.3133885, -46.7074712, -21.3133885 ], "geometry": { "type": "Point", "coordinates": [ -46.7074712, -21.3133885 ] } },
{ "type": "Feature", "properties": { "NROCNPJ_PAD": "30632448000199", "NOME_FANTASIA": "PRIME DOCTOR", "RAZAO_SOCIAL": "PRIME LASER LOCACOES E NEGOCIOS MEDICOS LTDA", "RESPONSAVEL": "MAURICIOLEITELIPPI", "MUNICIPIO": "GUAXUPE", "ENDEE": "RUA FELIPE JOSE DA SILVA, 381, JARDIM NOVA GUAXUPE, 37836-596, GUAXUPE, MG, BRASIL", "BANCO": "SICOOB", "LINHA_AVAL_NOME": "#N/D", "STATUS_OPERACIONAL": "CARTEIRA", "STATUS": "CARTEIRA" }, "bbox": [ -46.7023743, -21.3003298, -46.7023743, -21.3003298 ], "geometry": { "type": "Point", "coordinates": [ -46.7023743, -21.3003298 ] } },
{ "type": "Feature", "properties": { "NROCNPJ_PAD": "29054880000160", "NOME_FANTASIA": "TOQUE CASEIRO MARMITARIA E RESTAURANTE", "RAZAO_SOCIAL": "PRISCILA MARIA DE JESUS 08595480664", "RESPONSAVEL": "PRISCILAMARIADEJESUSAFFINI", "MUNICIPIO": "GUAXUPE", "ENDEE": "RUA ALCIDES BALDINI, 179, LETRA A, VILA CORAGEM, 37800-000, GUAXUPE, MG, BRASIL", "BANCO": "SICOOB", "LINHA_AVAL_NOME": "#N/D", "STATUS_OPERACIONAL": "CARTEIRA", "STATUS": "CARTEIRA" }, "bbox": [ -46.706044, -21.3027362, -46.706044, -21.3027362 ], "geometry": { "type": "Point", "coordinates": [ -46.706044, -21.3027362 ] } },
{ "type": "Feature", "properties": { "NROCNPJ_PAD": "30350622000100", "NOME_FANTASIA": "0", "RAZAO_SOCIAL": "R & R BONTEMPO IT LTDA", "RESPONSAVEL": "RENANBONTEMPOSALLESDEMORAIS|RENATOANTONIOBONTEMPOSALLESDEMORAIS", "MUNICIPIO": "GUAXUPE", "ENDEE": "RUA AGENOR DE LIMA, 270, ANGOLA, 37800-000, GUAXUPE, MG, BRASIL", "BANCO": "SICOOB", "LINHA_AVAL_NOME": "#N/D", "STATUS_OPERACIONAL": "CARTEIRA", "STATUS": "CARTEIRA" }, "bbox": [ -46.718544, -21.2984102, -46.718544, -21.2984102 ], "geometry": { "type": "Point", "coordinates": [ -46.718544, -21.2984102 ] } },
{ "type": "Feature", "properties": { "NROCNPJ_PAD": "01622132000118", "NOME_FANTASIA": "CASA DAS MAQUINAS", "RAZAO_SOCIAL": "R.M. MAQUINAS LTDA", "RESPONSAVEL": "-", "MUNICIPIO": "GUAXUPE", "ENDEE": "RUA DONA DELFINA, 166, CENTRO, 37800-000, GUAXUPE, MG, BRASIL", "BANCO": "BRADESCO", "LINHA_AVAL_NOME": "#N/D", "STATUS_OPERACIONAL": "CARTEIRA", "STATUS": "CARTEIRA" }, "bbox": [ -46.7145878, -21.2985561, -46.7145878, -21.2985561 ], "geometry": { "type": "Point", "coordinates": [ -46.7145878, -21.2985561 ] } },
{ "type": "Feature", "properties": { "NROCNPJ_PAD": "44535298000100", "NOME_FANTASIA": "RUZZI CERTIFICADORA", "RAZAO_SOCIAL": "RUZZI CERTIFICADORA E SOLUCOES DIGITAIS LTDA", "RESPONSAVEL": "LUIZ CARLOS RUZZI JUNIOR", "MUNICIPIO": "GUAXUPE", "ENDEE": "RUA DOM RANULFO, 122, JARDIM SAO LUIZ, 37800-000, GUAXUPE, MG, BRASIL", "BANCO": "BDMG", "LINHA_AVAL_NOME": "#N/D", "STATUS_OPERACIONAL": "CARTEIRA", "STATUS": "CARTEIRA" }, "bbox": [ -46.7144426, -21.3106603, -46.7144426, -21.3106603 ], "geometry": { "type": "Point", "coordinates": [ -46.7144426, -21.3106603 ] } },
{ "type": "Feature", "properties": { "NROCNPJ_PAD": "45034625000102", "NOME_FANTASIA": "SALES SUZUKI AGRO-INDUSTRIA", "RAZAO_SOCIAL": "SALES SUZUKI AGRO-INDUSTRIA LTDA", "RESPONSAVEL": "CLAUDIAMARIAFERREIRASUZUKI|RUANCESARSILVASALES", "MUNICIPIO": "GUAXUPE", "ENDEE": "RUA MAJOR JOAQUIM PEDRO, 430, ANGOLA, 37800-000, GUAXUPE, MG, BRASIL", "BANCO": "SICOOB", "LINHA_AVAL_NOME": "#N/D", "STATUS_OPERACIONAL": "CARTEIRA", "STATUS": "CARTEIRA" }, "bbox": [ -46.7143017, -21.2975694, -46.7143017, -21.2975694 ], "geometry": { "type": "Point", "coordinates": [ -46.7143017, -21.2975694 ] } },
{ "type": "Feature", "properties": { "NROCNPJ_PAD": "05218281000177", "NOME_FANTASIA": "MARMITARIA E CHURRASCO TEMPERO DA BISA", "RAZAO_SOCIAL": "SEBASTIAO DE PAULA MARTINS", "RESPONSAVEL": "SEBASTIAODEPAULAMARTINS", "MUNICIPIO": "GUAXUPE", "ENDEE": "RUA DOMIT CECILIO, 523, JARDIM RECREIO, 37800-000, GUAXUPE, MG, BRASIL", "BANCO": "SICOOB", "LINHA_AVAL_NOME": "#N/D", "STATUS_OPERACIONAL": "CARTEIRA", "STATUS": "CARTEIRA" }, "bbox": [ -46.7239828, -21.3056935, -46.7239828, -21.3056935 ], "geometry": { "type": "Point", "coordinates": [ -46.7239828, -21.3056935 ] } },
{ "type": "Feature", "properties": { "NROCNPJ_PAD": "52913863000153", "NOME_FANTASIA": "0", "RAZAO_SOCIAL": "SENETELHAS SENEDESE INDUSTRIA E COMERCIO DE TELHAS GALVANIZADAS LTDA", "RESPONSAVEL": "HENRIQUESAVIOSENEDESE|RAFAELRIBEIRODOVALESENEDESE", "MUNICIPIO": "GUAXUPE", "ENDEE": "ESTRADA GPE 070, 0, MORRO AGUDO, 37834-720, GUAXUPE, MG, BRASIL", "BANCO": "SICOOB", "LINHA_AVAL_NOME": "#N/D", "STATUS_OPERACIONAL": "CARTEIRA", "STATUS": "CARTEIRA" }, "bbox": [ -46.7162628, -21.2698173, -46.7162628, -21.2698173 ], "geometry": { "type": "Point", "coordinates": [ -46.7162628, -21.2698173 ] } },
{ "type": "Feature", "properties": { "NROCNPJ_PAD": "53842263000104", "NOME_FANTASIA": "-", "RAZAO_SOCIAL": "53.842.263 MARCILENE DA SILVA MOREIRA", "RESPONSAVEL": "MARCILENEDASILVAMOREIRA", "MUNICIPIO": "GUAXUPE", "ENDEE": "AVENIDA PRESIDENTE TANCREDO NEVES, 950, LETRA A, RECREIO DOS BANDEIRANTES, 37832-150, GUAXUPÉ, MG, BRASIL", "BANCO": "SICOOB", "LINHA_AVAL_NOME": "Empreendedorismo Fem", "STATUS_OPERACIONAL": "CARTEIRA", "STATUS": "CARTEIRA" }, "bbox": [ -46.7230977, -21.3140412, -46.7230977, -21.3140412 ], "geometry": { "type": "Point", "coordinates": [ -46.7230977, -21.3140412 ] } },
{ "type": "Feature", "properties": { "NROCNPJ_PAD": "48807672000130", "NOME_FANTASIA": "AUTO SOCORRO G E P", "RAZAO_SOCIAL": "48.807.672 GISMAR DONIZETI GOMES", "RESPONSAVEL": "GISMARDONIZETIGOMES", "MUNICIPIO": "GUAXUPE", "ENDEE": "RUA MARIZA CORTEZ FARAH IZAC, 293, RESIDENCIAL FAZENDA PLANALTO, 37835-234, GUAXUPÉ, MG, BRASIL", "BANCO": "SICOOB", "LINHA_AVAL_NOME": "Giro", "STATUS_OPERACIONAL": "CARTEIRA", "STATUS": "CARTEIRA" }, "bbox": [ -46.7484853, -21.3218733, -46.7484853, -21.3218733 ], "geometry": { "type": "Point", "coordinates": [ -46.7484853, -21.3218733 ] } },
{ "type": "Feature", "properties": { "NROCNPJ_PAD": "37222383000152", "NOME_FANTASIA": "JL RACOES", "RAZAO_SOCIAL": "LIBERATO CHARALLO NETO", "RESPONSAVEL": "LIBERATOCHARALLONETO", "MUNICIPIO": "GUAXUPE", "ENDEE": "AVENIDA FELIPE ELIAS ZEITUNE, 3607, CATETOS, 37800-000, GUAXUPÉ, MG, BRASIL", "BANCO": "SICOOB", "LINHA_AVAL_NOME": "Giro", "STATUS_OPERACIONAL": "CARTEIRA", "STATUS": "CARTEIRA" }, "bbox": [ -46.7307777, -21.3056558, -46.7307777, -21.3056558 ], "geometry": { "type": "Point", "coordinates": [ -46.7307777, -21.3056558 ] } },
{ "type": "Feature", "properties": { "NROCNPJ_PAD": "45854255000150", "NOME_FANTASIA": "-", "RAZAO_SOCIAL": "FRANCISCO DE MORAES FERNANDEZ", "RESPONSAVEL": "FRANCISCODEMORAESFERNANDEZ", "MUNICIPIO": "GUAXUPE", "ENDEE": "AVENIDA DONA FLORIANA, 107, LETRA B, CENTRO, 37830-124, GUAXUPÉ, MG, BRASIL", "BANCO": "SICOOB", "LINHA_AVAL_NOME": "Giro", "STATUS_OPERACIONAL": "CARTEIRA", "STATUS": "CARTEIRA" }, "bbox": [ -46.709467, -21.3113258, -46.709467, -21.3113258 ], "geometry": { "type": "Point", "coordinates": [ -46.709467, -21.3113258 ] } },
{ "type": "Feature", "properties": { "NROCNPJ_PAD": "51800243000145", "NOME_FANTASIA": "-", "RAZAO_SOCIAL": "CLINICA ANIMAL VET COMERCIAL LTDA", "RESPONSAVEL": "ROMULOMARTINSDEOLIVEIRA", "MUNICIPIO": "GUAXUPE", "ENDEE": "RUA DONA DELFINA, 71, ANGOLA, 37800-000, GUAXUPÉ, MG, BRASIL", "BANCO": "SICOOB", "LINHA_AVAL_NOME": "Giro", "STATUS_OPERACIONAL": "CARTEIRA", "STATUS": "CARTEIRA" }, "bbox": [ -46.7136272, -21.2985552, -46.7136272, -21.2985552 ], "geometry": { "type": "Point", "coordinates": [ -46.7136272, -21.2985552 ] } },
{ "type": "Feature", "properties": { "NROCNPJ_PAD": "14448962000112", "NOME_FANTASIA": "-", "RAZAO_SOCIAL": "CERVEJARIA E EMPORIO TAVARES LTDA", "RESPONSAVEL": "ANACAROLINAALVARENGATAVARES", "MUNICIPIO": "GUAXUPE", "ENDEE": "RUA CUSTODIO RIBEIRO SOBRINHO, 95, CENTRO, 37830-132, GUAXUPÉ, MG, BRASIL", "BANCO": "SICOOB", "LINHA_AVAL_NOME": "Giro", "STATUS_OPERACIONAL": "CARTEIRA", "STATUS": "CARTEIRA" }, "bbox": [ -46.710871, -21.3095197, -46.710871, -21.3095197 ], "geometry": { "type": "Point", "coordinates": [ -46.710871, -21.3095197 ] } },
{ "type": "Feature", "properties": { "NROCNPJ_PAD": "86415791000136", "NOME_FANTASIA": "FARMACIA QUEIROZ", "RAZAO_SOCIAL": "FARMACIA QUEIROZ DE GUAXUPE LTDA", "RESPONSAVEL": "RITACRISTINADEQUEIROZSABBAG|ROBERTONADIMSABBAG", "MUNICIPIO": "GUAXUPE", "ENDEE": "AVENIDA CONDE RIBEIRO DO VALLE, 395, CENTRO, 37830-026, GUAXUPÉ, MG, BRASIL", "BANCO": "SICOOB", "LINHA_AVAL_NOME": "Giro", "STATUS_OPERACIONAL": "CARTEIRA", "STATUS": "CARTEIRA" }, "bbox": [ -46.7089025, -21.3025448, -46.7089025, -21.3025448 ], "geometry": { "type": "Point", "coordinates": [ -46.7089025, -21.3025448 ] } },
{ "type": "Feature", "properties": { "NROCNPJ_PAD": "33557591000151", "NOME_FANTASIA": "OTICA DINIZ", "RAZAO_SOCIAL": "GONCALVES COMERCIO DE OCULOS LTDA", "RESPONSAVEL": "-", "MUNICIPIO": "GUAXUPE", "ENDEE": "AVENIDA CONDE RIBEIRO DO VALLE, 214, CENTRO, 37800-000, GUAXUPÉ, MG, BRASIL", "BANCO": "BRADESCO", "LINHA_AVAL_NOME": "Giro", "STATUS_OPERACIONAL": "CARTEIRA", "STATUS": "CARTEIRA" }, "bbox": [ -46.7106333, -21.3019164, -46.7106333, -21.3019164 ], "geometry": { "type": "Point", "coordinates": [ -46.7106333, -21.3019164 ] } },
{ "type": "Feature", "properties": { "NROCNPJ_PAD": "40659149000100", "NOME_FANTASIA": "-", "RAZAO_SOCIAL": "GUSTAVO CARVALHO GODOY", "RESPONSAVEL": "GUSTAVOCARVALHOGODOY", "MUNICIPIO": "GUAXUPE", "ENDEE": "RUA ANGELO BERTONI, 586, JARDIM GUAXUPE, 37834-110, GUAXUPÉ, MG, BRASIL", "BANCO": "SICOOB", "LINHA_AVAL_NOME": "Giro", "STATUS_OPERACIONAL": "CARTEIRA", "STATUS": "CARTEIRA" }, "bbox": [ -46.720745, -21.2996015, -46.720745, -21.2996015 ], "geometry": { "type": "Point", "coordinates": [ -46.720745, -21.2996015 ] } },
{ "type": "Feature", "properties": { "NROCNPJ_PAD": "15011366000133", "NOME_FANTASIA": "CARVALHO TRANSPORTES", "RAZAO_SOCIAL": "GUSTAVO C. SILVA TRANSPORTES LTDA", "RESPONSAVEL": "ADILSONMACEDODECARVALHO", "MUNICIPIO": "GUAXUPE", "ENDEE": "RUA ANDRE FURLAN SOBRINHO, 34, PARQUE DOS IMIGRANTES, 37834-058, GUAXUPÉ, MG, BRASIL", "BANCO": "SICOOB", "LINHA_AVAL_NOME": "Giro", "STATUS_OPERACIONAL": "CARTEIRA", "STATUS": "CARTEIRA" }, "bbox": [ -46.7199081, -21.2971319, -46.7199081, -21.2971319 ], "geometry": { "type": "Point", "coordinates": [ -46.7199081, -21.2971319 ] } },
{ "type": "Feature", "properties": { "NROCNPJ_PAD": "57628004000136", "NOME_FANTASIA": "WORKOUTDAY PERSONAL STUDIO", "RAZAO_SOCIAL": "EMA ASSESSORIA E CONSULTORIA LTDA", "RESPONSAVEL": "EVANDROMANTOVANIAVELINO", "MUNICIPIO": "GUAXUPE", "ENDEE": "RUA MANOEL ANTONIO DE ARAUJO, 386, ANGOLA, 37834-022, GUAXUPÉ, MG, BRASIL", "BANCO": "SICOOB", "LINHA_AVAL_NOME": "Giro", "STATUS_OPERACIONAL": "CARTEIRA", "STATUS": "CARTEIRA" }, "bbox": [ -46.7348705, -21.3208772, -46.7348705, -21.3208772 ], "geometry": { "type": "Point", "coordinates": [ -46.7348705, -21.3208772 ] } },
{ "type": "Feature", "properties": { "NROCNPJ_PAD": "40725511000195", "NOME_FANTASIA": "C J CALCADOS", "RAZAO_SOCIAL": "INDUSTRIA E COMERCIO DE CALCADOS C J LTDA", "RESPONSAVEL": "CAIROLUCIOCARDOSOFILHO", "MUNICIPIO": "GUAXUPE", "ENDEE": "AVENIDA JOSE ANTONIO DOS SANTOS, 203, JARDIM PLANALTO, 37832-190, GUAXUPÉ, MG, BRASIL", "BANCO": "SICOOB", "LINHA_AVAL_NOME": "Giro", "STATUS_OPERACIONAL": "CARTEIRA", "STATUS": "CARTEIRA" }, "bbox": [ -46.7180059, -21.3137936, -46.7180059, -21.3137936 ], "geometry": { "type": "Point", "coordinates": [ -46.7180059, -21.3137936 ] } },
{ "type": "Feature", "properties": { "NROCNPJ_PAD": "49492000000145", "NOME_FANTASIA": "-", "RAZAO_SOCIAL": "49.492.000 JOAO MARCELO MARTINS DIAS", "RESPONSAVEL": "JOAOMARCELOMARTINSDIAS", "MUNICIPIO": "GUAXUPE", "ENDEE": "RUA SILVERIO MIGUEL PASQUA, 261, VILA CAMPANHA, 37830-316, GUAXUPÉ, MG, BRASIL", "BANCO": "SICOOB", "LINHA_AVAL_NOME": "Giro", "STATUS_OPERACIONAL": "CARTEIRA", "STATUS": "CARTEIRA" }, "bbox": [ -46.7022365, -21.3123245, -46.7022365, -21.3123245 ], "geometry": { "type": "Point", "coordinates": [ -46.7022365, -21.3123245 ] } },
{ "type": "Feature", "properties": { "NROCNPJ_PAD": "50095180000100", "NOME_FANTASIA": "-", "RAZAO_SOCIAL": "50.095.180 JOSE ELIAS TAUIL NETO", "RESPONSAVEL": "JOSE ELIAS TAUIL NETO", "MUNICIPIO": "GUAXUPE", "ENDEE": "RUA AGOSTINHO BARBALHO, 186, LETRA B, RECREIO DOS BANDEIRANTES, 37832-142, GUAXUPÉ, MG, BRASIL", "BANCO": "ESTÍMULO", "LINHA_AVAL_NOME": "Investimento + giro", "STATUS_OPERACIONAL": "CARTEIRA", "STATUS": "CARTEIRA" }, "bbox": [ -46.7264888, -21.3146273, -46.7264888, -21.3146273 ], "geometry": { "type": "Point", "coordinates": [ -46.7264888, -21.3146273 ] } }
]
}
